street_address,city,state,postal_code,country
13116 West Palo Verde Drive,Litchfield Park,AZ,85340,USA
3111 West Ika Lane,Fayetteville,AR,72704,USA
212 Burk Way,Del City,OK,73115,USA
1710 East Harold Street,Fayetteville,AR,72703,USA
173 Spruce Street,Manchester,CT,06040,USA
804 Dry Creek Road,Goodlettsville,TN,37072,USA
376 North Williams Drive,Fayetteville,AR,72701,USA
110 Carraway Lane,Annapolis,MD,21401,USA
713 Flight Avenue,Panama City,FL,32404,USA
1751 Shoreham Drive,Montgomery,AL,36106,USA
1 Tanaquay Court,Savannah,GA,31411,USA
1032 Brayhill Road,Edmond,OK,73003,USA
1825 Woodland Farms Court,Nashville,TN,37138,USA
1622 Edgar D Nixon Avenue,Montgomery,AL,36104,USA
10763 West 54th Place,Arvada,CO,80002,USA
11140 West 60th Avenue,Arvada,CO,80004,USA
10383 Eagle River Lane,Anchorage,AK,99577,USA
725 65th Street,Oakland,CA,94609,USA
756 Neponset Street,Norwood,MA,02062,USA
7427 West Abraham Lane,Glendale,AZ,85308,USA
6328 West Brown Street,Glendale,AZ,85302,USA
7419 West Hill Lane,Glendale,AZ,85310,USA
23128 Donalda Avenue,Port Charlotte,FL,33954,USA
1243 Doris Avenue,Pasadena,MD,21122,USA
4216 Park Boulevard,Montgomery,AL,36106,USA
2803 6th Street Northeast,Washington,AR,20017,USA
8001 West 71st Avenue,Arvada,CO,80004,USA
1742 Allerford Drive,Hanover,MD,21076,USA
5 Tranquil Place,Pooler,GA,31322,USA
4316 Dover Road,Louisville,KY,40216,USA
600 West 19th Avenue,Anchorage,AK,99503,USA
720 Southwest 2nd Street,Moore,OK,73160,USA
194 Buckland Hills Drive,Manchester,CT,06042,USA
3511 Oakland Zion Road,Fayetteville,AR,72703,USA
5470 Atlanta Highway,Montgomery,AL,36109,USA
1400 Doris Drive,Louisville,KY,40118,USA
2024 Merrily Drive,Montgomery,AL,36111,USA
7800 River Mist Avenue,Bakersfield,CA,93313,USA
168 Partridge Hill Road,Charlton,MA,01507,USA
1220 Crow Berry Circle,Anchorage,AK,99515,USA
5114 Greentree Drive,Nashville,TN,37211,USA
124 Crane Street,Panama City,FL,32413,USA
42 Edison Road,Manchester,CT,06040,USA
7030 West Krall Street,Glendale,AZ,85303,USA
5 Hibiscus Avenue,Savannah,GA,31404,USA
2723 East Joyce Boulevard,Fayetteville,AR,72703,USA
875 Latouche Street,Anchorage,AK,99501,USA
23 Sable Run Lane,Methuen,MA,01844,USA
2162 Mulberry Hill Road,Annapolis,MD,21409,USA
2008 Ashton Avenue,Nashville,TN,37218,USA
12870 Old Seward Highway,Anchorage,AK,99515,USA
4300 Soquel Drive,Soquel,CA,95073,USA
17 Gregory Street,Middleton,MA,01949,USA
22825 Paseo Place,Hayward,CA,94541,USA
6060 West Royal Palm Road,Glendale,AZ,85302,USA
1823 Dinger Road,Annapolis,MD,21402,USA
90 Mountain Street,Bristol,VT,05443,USA
16 Conway Street,Shelburne Falls,MA,01370,USA
2201 Fendall Court,Crofton,MD,21114,USA
8934 Arrowrock Trail,Smartsville,CA,95977,USA
1711 Lore Road,Anchorage,AK,99507,USA
8307 Brookline Place,Oklahoma City,OK,73159,USA
310 West Trinity Lane,Nashville,TN,37207,USA
7096 Park Mesa Way,San Diego,CA,92111,USA
3827 West Chapman Avenue,Orange,CA,92868,USA
3420 Horseshoe Circle,Montgomery,AL,36116,USA
1313 Paulson Way,Nashville,TN,37013,USA
3404 Lakeside Drive,Anchorage,AK,99515,USA
5707 Higdon Road,undefined,TN,37080,USA
6617 North 59th Avenue,Glendale,AZ,85301,USA
9 South Pinyon Point,Fayetteville,AR,72701,USA
219 Shana Road,Glen Burnie,MD,21060,USA
6851 Howard Avenue,Anchorage,AK,99504,USA
9903 West 53rd Place,Arvada,CO,80002,USA
20251 North 75th Avenue,Glendale,AZ,85308,USA
612 E Street,Marysville,CA,95901,USA
7232 West Melinda Lane,Glendale,AZ,85308,USA
196 Ruth Street,Farmington,AR,72730,USA
6221 West Wethersfield Road,Glendale,AZ,85304,USA
5680 Eddins Road,Montgomery,AL,36117,USA
4455 West 61st Place,Arvada,CO,80003,USA
622 Elaine Drive,Nashville,TN,37211,USA
607 Trails End Road,Manchester,CT,06042,USA
3541 North Road,Maidstone,VT,05905,USA
1345 G Street Southeast,Washington,AR,20003,USA
330 Michell Court,Livermore,CA,94551,USA
14524 Lodestar Drive,Grass Valley,CA,95949,USA
65 Jones Lane,Montevallo,AL,35115,USA
8757 Lamar Circle,Arvada,CO,80003,USA
962 South Silverado Drive,Fayetteville,AR,72701,USA
12 Saint Andrews Crossover,Severna Park,MD,21146,USA
5024 Ryan Drive,Oklahoma City,OK,73135,USA
4221 U.S. 5,Burke,VT,05871,USA
24147 Clinton Court,Hayward,CA,94545,USA
1890 Orchard View Road,Roseville,CA,95747,USA
1208 Elkader Court North,Nashville,TN,37013,USA
6208 Ingalls Street,Arvada,CO,80003,USA
9321 Amy Lane,Panama City Beach,FL,32407,USA
2917 Miramar Drive,Fayetteville,AR,72704,USA
1505 Sweet Bay Trail,Panama City Beach,FL,32413,USA
7854 Webster Way,Arvada,CO,80003,USA
1709 7th Avenue Northwest,Ardmore,OK,73401,USA
2849 Leawood Drive,Anchorage,AK,99502,USA
618 Watts Street,Montgomery,AL,36104,USA
1689 Fisher Pond Road,Saint Albans City,VT,05478,USA
1383 Purdue Street,San Leandro,CA,94579,USA
3302 Woodland Park Drive,Anchorage,AK,99517,USA
345 Buckland Hills Drive,Manchester,CT,06042,USA
1106 Homer Avenue,Savannah,GA,31405,USA
17433 Teklanika Drive,Anchorage,AK,99577,USA
7202 Jump Street,Youngstown,FL,32466,USA
416 South University Boulevard,Norman,OK,73069,USA
3620 Bentfield Drive,Nashville,TN,37013,USA
3318 East Woodbine Road,Orange,CA,92867,USA
3538 Mendenhall Court,Pleasanton,CA,94588,USA
2632 Jackson Street East,Carson,CA,90810,USA
63 Dorchester Street,Worcester,MA,01604,USA
14 School Street,Medway,MA,02053,USA
1414 East Anderson Street,Savannah,GA,31404,USA
4401 Burlington Place Northwest,Washington,AR,20016,USA
1430 East Audubon Road,Montgomery,AL,36111,USA
7 Oliver Street,Athol,MA,01331,USA
10340 West 62nd Place,Arvada,CO,80004,USA
125 John Street,Santa Cruz,CA,95060,USA
1311 Durrett Lane,Louisville,KY,40213,USA
539 Palermo Road,Panama City,FL,32405,USA
4136 East Virginia Lane,Montgomery,AL,36116,USA
51185 Helmsman Street,Kenai,AK,99611,USA
6941 West 87th Way,Arvada,CO,80003,USA
1729 Frankford Street Southeast,Washington,AR,20020,USA
10484 West 82nd Avenue,Arvada,CO,80005,USA
1713 Arrow Cove Lane,Annapolis,MD,21401,USA
31 Ashworth Street,Manchester,CT,06040,USA
28 Garden Drive,Manchester,CT,06040,USA
2203 West 24th Street,Panama City,FL,32405,USA
2433 Southwest 36th Street,Oklahoma City,OK,73109,USA
2806 Bass Street,Anchorage,AK,99507,USA
2405 230th Street,Pasadena,MD,21122,USA
38676 Greenwich Circle,Fremont,CA,94536,USA
8614 Surf Drive,Panama City,FL,32408,USA
20 Garfield Street,Needham,MA,02492,USA
36 Saint Ives Drive,Savannah,GA,31419,USA
1513 Southeast 9th Street,Moore,OK,73160,USA
1421 Floral Street Northwest,Washington,AR,20012,USA
15 Taft Street,Quincy,MA,02169,USA
616 Bush Hill Road,Manchester,CT,06040,USA
7 Cloutman Street,Salem,MA,01970,USA
3386 Sudlersville South,Laurel,MD,20724,USA
4313 Bylsma Circle,Panama City,FL,32404,USA
11 Adams Street,Arlington,MA,02474,USA
8509 Olde Gate,Montgomery,AL,36116,USA
30 Windermere Drive,Agawam,MA,01030,USA
1917 Whitaker Street,Savannah,GA,31401,USA
163 Highwood Drive,Manchester,CT,06040,USA
3819 Vineyard Avenue,Pleasanton,CA,94566,USA
130 West Brown Road,Mesa,AZ,85201,USA
9730 West 81st Avenue,Arvada,CO,80005,USA
10749 West Kaler Drive,Glendale,AZ,85307,USA
10774 West 54th Lane,Arvada,CO,80002,USA
6404 West 82nd Drive,Arvada,CO,80003,USA
6444 North 67th Avenue,Glendale,AZ,85301,USA
1481 Stannage Avenue,Berkeley,CA,94702,USA
8390 Alkire Street,Arvada,CO,80005,USA
4200 Northwest 59th Street,Oklahoma City,OK,73112,USA
8293 Grayson Grove,Montgomery,AL,36117,USA
320 Northwest 22nd Street,Oklahoma City,OK,73103,USA
4809 Trappers Ridge,Nashville,TN,37013,USA
2 Thompson Road,Manchester,CT,06040,USA
8915 Shevie Drive,Louisville,KY,40272,USA
226 Tranquility Lane,Saint Albans Town,VT,05488,USA
1810 Orchard Place,Anchorage,AK,99502,USA
1960 Sigfrid Court,Annapolis,MD,21401,USA
7701 Taylor Oaks Circle,Montgomery,AL,36116,USA
312 Westhill Avenue,Inverness,FL,34452,USA
4971 Janet Court,Livermore,CA,94550,USA
4024 Northwest 16th Street,Oklahoma City,OK,73107,USA
21 Soling Avenue,Savannah,GA,31419,USA
32 Amsden Street,Arlington,MA,02474,USA
1257 John Street,Nashville,TN,37210,USA
7003 9th Street Northwest,Washington,AR,20012,USA
361 Parmley Lane,Nashville,TN,37207,USA
126 Sunshine Road,Savannah,GA,31405,USA
6802 North 67th Avenue,Glendale,AZ,85301,USA
207 Maple Hill Road,Shaftsbury,VT,05262,USA
8376 Albacore Drive,Pasadena,MD,21122,USA
833 50th Place Northeast,Washington,AR,20019,USA
6610 North 93rd Avenue,Glendale,AZ,85305,USA
9101 Vanguard Drive,Anchorage,AK,99507,USA
3300 Gatsby Lane,Montgomery,AL,36106,USA
3504 East 16th Avenue,Anchorage,AK,99508,USA
6369 West 70th Drive,Arvada,CO,80003,USA
7034 West John Garrison Road,Fayetteville,AR,72704,USA
1001 6th Street Northwest,Washington,AR,20001,USA
269 Park Street,North Reading,MA,01864,USA
312 Northwest 90th Street,Oklahoma City,OK,73114,USA
15557 Sutter Creek Road,Sutter Creek,CA,95685,USA
327 Woodbridge Street,Manchester,CT,06042,USA
22424 Birchwood Loop Road,Anchorage,AK,99567,USA
5938 Laguna Honda Street,Redding,CA,96001,USA
2113 Bowen Drive,Montgomery,AL,36106,USA
5309 Darling Hill Road,Burke,VT,05871,USA
1021 Heathfield Circle,Brentwood,TN,37027,USA
43 Howarth Avenue,Attleboro,MA,02703,USA
106 Camelot Drive,Plymouth,MA,02360,USA
8507 Lorento Street,Panama City Beach,FL,32408,USA
376 Whites Road,Wilmington,VT,05363,USA
125 Heritage Way,Savannah,GA,31419,USA
1431 King George Boulevard,Savannah,GA,31419,USA
17020 West 64th Drive,Arvada,CO,80007,USA
880 H Street,Anchorage,AK,99501,USA
3102 Kinvara Lane,Louisville,KY,40242,USA
1814 US Highway 98,Mexico Beach,FL,32456,USA
7310 East Chester Heights Circle,Anchorage,AK,99504,USA
1040 West 27th Avenue,Anchorage,AK,99503,USA
17800 Creekwood Lane,Choctaw,OK,73020,USA
1330 West 82nd Avenue,Anchorage,AK,99518,USA
403 Irwin Street,Anchorage,AK,99508,USA
93 Alpine Avenue,Oak Bluffs,MA,02568,USA
4300 Woodley Square,Montgomery,AL,36116,USA
5605 North Terry Avenue,Oklahoma City,OK,73111,USA
21 Hill Street,Barre,VT,05641,USA
3189 Main Street,Mammoth Lakes,CA,93546,USA
17361 Baronoff Avenue,Anchorage,AK,99577,USA
5606 Olde Wadsworth Boulevard,Arvada,CO,80002,USA
200 Redwood Road,Manchester,CT,06040,USA
9 Pierce Road,Watertown,MA,02472,USA
162 South Main Street,Stowe,VT,05672,USA
3438 Carlton Avenue,Fort Collins,CO,80525,USA
37675 Fremont Boulevard,Fremont,CA,94536,USA
606 Lincoln Street,Savannah,GA,31401,USA
8726 Downey Road,Severn,MD,21144,USA
5109 39th Street Northwest,Washington,AR,20016,USA
210 Depot Street,Woodford,VT,05201,USA
424 Callan Avenue,San Leandro,CA,94577,USA
501 Running Creek Place,Louisville,KY,40243,USA
1809 Hughes Street,Nashville,TN,37208,USA
9 Brooklyn Street,undefined,VT,05488,USA
11 Pine Point Road,Duxbury,MA,02332,USA
99 Pond Avenue,Brookline,MA,02445,USA
147 Willow Ridge Lane,Indian Springs Village,AL,35124,USA
1823 North Munchkin Lane,Fayetteville,AR,72704,USA
112 West Center Street,Fayetteville,AR,72701,USA
5792 Owl Hill Avenue,Santa Rosa,CA,95409,USA
32532 Jean Drive,Union City,CA,94587,USA
1046 Dudley Avenue,Louisville,KY,40204,USA
77 Shadow Brook Estates,South Hadley,MA,01075,USA
53 Fairfield Street,Manchester,CT,06040,USA
350 Woodbine Road,Shelburne,VT,05482,USA
3402 Prestwood Drive,Louisville,KY,40219,USA
55620 Jolon Road,King City,CA,93930,USA
1244 South 4th Street,Louisville,KY,40203,USA
6460 Lacrosse Lane,Glen Burnie,MD,21061,USA
1215 Joseph Avenue,Nashville,TN,37207,USA
3600 San Sebastian Court,Punta Gorda,FL,33950,USA
10826 Pointe Royal Drive,Bakersfield,CA,93311,USA
801 Dale Road,Glen Burnie,MD,21060,USA
2170 Benton Boulevard,Pooler,GA,31322,USA
12156 Oslo Drive,Truckee,CA,96161,USA
32 Royal Drive,Louisville,KY,40214,USA
6431 Shattuck Avenue,Oakland,CA,94609,USA
3207 Art Hall Lane,Pasadena,MD,21122,USA
6821 Northwest 25th Street,Bethany,OK,73008,USA
8501 Twin Gable Drive,Montgomery,AL,36116,USA
6473 Zephyr Street,Arvada,CO,80004,USA
1601 Northwest 22nd Street,Oklahoma City,OK,73106,USA
1903 Bashford Manor Lane,Louisville,KY,40218,USA
3203 US Highway 98,Mexico Beach,FL,32456,USA
463 East Rutgers Loop,Montgomery,AL,36109,USA
890 East Skyline Drive,Fayetteville,AR,72701,USA
1514 16th Street Southeast,Washington,AR,20020,USA
402 Tuten Avenue,Savannah,GA,31415,USA
4 Old Colony Way,Yarmouth,MA,02664,USA
4709 Blagden Terrace Northwest,Washington,AR,20011,USA
4 Eastview Lane,Savannah,GA,31410,USA
7728 Twin Oaks Road,Severn,MD,21144,USA
607 North 46th Avenue,Fayetteville,AR,72704,USA
1324 Beddington Park,Nashville,TN,37215,USA
310 12th Avenue,Santa Cruz,CA,95062,USA
740 East 34th Street,Savannah,GA,31401,USA
425 Buckhalter Road,Savannah,GA,31405,USA
16040 North 67th Drive,Peoria,AZ,85382,USA
17878 Front Beach Road,Panama City Beach,FL,32413,USA
712 Parkside Place Northeast,Washington,AR,20019,USA
8404 South Villa Avenue,Oklahoma City,OK,73159,USA
1456 East 39th Street,Savannah,GA,31404,USA
721 Vermont 5A,Westmore,VT,05860,USA
6408 Fern Crest Road,Louisville,KY,40291,USA
175 Oak Street,Manchester,CT,06040,USA
614 East Duffy Lane,Savannah,GA,31401,USA
606 Spence Enclave Way,Nashville,TN,37210,USA
905 Richardson Vista Road,Anchorage,AK,99501,USA
1304 Northern Hills Road,Norman,OK,73071,USA
6366 West Aurora Drive,Glendale,AZ,85308,USA
20228 Crabtree Street,Anchorage,AK,99567,USA
768 North Main Street,Manchester,CT,06040,USA
6522 Harlan Street,Arvada,CO,80003,USA
4960 Maple Grove Drive,Fayetteville,AR,72764,USA
5600 Carmichael Road,Montgomery,AL,36117,USA
6436 Stoney Point Road,Panama City,FL,32404,USA
1403 Lincoln Street,Savannah,GA,31401,USA
8262 Elvaton Road,Millersville,MD,21108,USA
430 Fig Street,Madera,CA,93638,USA
4738 Mallard Common,Fremont,CA,94555,USA
24020 Reese Road,Anchorage,AK,99567,USA
8304 Glaser Lane,Louisville,KY,40291,USA
188 Saint Matthews Avenue,Louisville,KY,40207,USA
817 25th Street Northwest,Washington,AR,20037,USA
6912 Sunrise Drive,Panama City,FL,32407,USA
400 US Highway 98,Mexico Beach,FL,32456,USA
199 Spencer Street,Manchester,CT,06040,USA
12 Red Fox Drive,Savannah,GA,31419,USA
6118 North 60th Avenue,Glendale,AZ,85301,USA
80 Locust Avenue,Worcester,MA,01604,USA
949 South Lawrence Street,Montgomery,AL,36104,USA
3031 Montgomery Street,Savannah,GA,31405,USA
416 McIver Street,Nashville,TN,37211,USA
20 Masters Way,Manchester,CT,06040,USA
119 Antioch Pike,Nashville,TN,37211,USA
240 Lynwood Drive,Montgomery,AL,36105,USA
2205 Lindell Avenue,Nashville,TN,37204,USA
2755 Country Drive,Fremont,CA,94536,USA
90 Via Verde,San Lorenzo,CA,94580,USA
600 12th Avenue South,Nashville,TN,37203,USA
31 Mitchell Road,Manchester,CT,06042,USA
1822 Dixdale Avenue,Louisville,KY,40210,USA
51 Bearing Circle,Port Wentworth,GA,31407,USA
23480 Abers Avenue,Port Charlotte,FL,33980,USA
8347 Ames Way,Arvada,CO,80003,USA
519 Emerald Drive,Savannah,GA,31415,USA
5410 McLean Drive,Elk Grove,CA,95757,USA
501 Holly Avenue,Pooler,GA,31322,USA
89 Frances Drive,Manchester,CT,06040,USA
421 Madison Street Northeast,Washington,AR,20011,USA
9605 West 62nd Place,Arvada,CO,80004,USA
2142 Colonel Way,Odenton,MD,21113,USA
712 Southwest 1st Street,Moore,OK,73160,USA
1227 Aaron Street,Montgomery,AL,36104,USA
5327 Pierce Street,Arvada,CO,80002,USA
1489 Falcon Nest Court,Arnold,MD,21012,USA
6818 North Lagoon Drive,Panama City,FL,32408,USA
722 13th Street Northeast,Washington,AR,20002,USA
6228 West Larkspur Drive,Glendale,AZ,85304,USA
1424 Winter Avenue,Louisville,KY,40204,USA
622 Thomas Street,Woodland,CA,95776,USA
1330 North Mission Boulevard,Fayetteville,AR,72701,USA
1117 Everett Avenue,Louisville,KY,40204,USA
1216 West Hill Street,Louisville,KY,40210,USA
5927 Camrose Drive,Anchorage,AK,99504,USA
915 Hargrove Street,Ardmore,OK,73401,USA
6424 Simms Street,Arvada,CO,80004,USA
4739 South Court Street,Montgomery,AL,36105,USA
1931 Beauvoir Lake Drive,Montgomery,AL,36117,USA
11225 West 79th Drive,Arvada,CO,80005,USA
36528 Short Circle,Kenai,AK,99611,USA
74 Ranch Drive,Montgomery,AL,36109,USA
1106 Mission Drive,Antioch,CA,94509,USA
21 Carver Lane,Manchester,CT,06040,USA
3147 West Old Farmington Road,Fayetteville,AR,72704,USA
224 Charter Oak Street,Manchester,CT,06040,USA
406 Ashwood Court,Vacaville,CA,95688,USA
158 Euclid Avenue,San Leandro,CA,94577,USA
5 Centercrest Drive,Tyngsborough,MA,01879,USA
718 Dutchmans Court,Nashville,TN,37076,USA
86 Russell Street,Manchester,CT,06040,USA
5385 Iris Street,Arvada,CO,80002,USA
66 Troy Avenue,Colchester,VT,05446,USA
1643 North Jordan Lane,Fayetteville,AR,72703,USA
126 Marjorie Lane,Manchester,CT,06042,USA
132 Tensaw Road,Montgomery,AL,36117,USA
1010 Hillcrest Drive,Fort Collins,CO,80521,USA
3551 North Georgetown Drive,Montgomery,AL,36109,USA
5529 East Saddleridge Drive,Fayetteville,AR,72703,USA
10980 Splendor Loop,Anchorage,AK,99577,USA
18 Hamilton Street Northwest,Washington,AR,20011,USA
14525 South Brent Drive,Oklahoma City,OK,73170,USA
63 Columbia Drive,Manchester,CT,06042,USA
4900 Cambridge Way,Anchorage,AK,99503,USA
2010 Rising Hill Drive,Norman,OK,73071,USA
3180 Parthenon Avenue,Nashville,TN,37203,USA
711 Tashanna Lane,Southport,FL,32409,USA
6606 North 52nd Drive,Glendale,AZ,85301,USA
243 Orchard Road,Burke,VT,05832,USA
5912 North 48th Avenue,Glendale,AZ,85301,USA
2426 East Onyx Trail,Fayetteville,AR,72701,USA
103 North East Avenue,Panama City,FL,32401,USA
233 Buckland Hills Drive,Manchester,CT,06042,USA
5556 West Northview Avenue,Glendale,AZ,85301,USA
45 Parsons Avenue,Saint Albans City,VT,05478,USA
406 Stilz Avenue,Louisville,KY,40206,USA
4696 Bull Run Road,Ashland City,TN,37015,USA
12800 Saunders Road,Anchorage,AK,99516,USA
800 Quacco Road,Savannah,GA,31419,USA
35805 Alcazar Court,Fremont,CA,94536,USA
514 East 38th Street,Savannah,GA,31401,USA
3115 Cherokee Drive,Fayetteville,AR,72701,USA
1870 A Street,Oroville,CA,95966,USA
3784 Milky Way Drive,Anchorage,AK,99517,USA
6311 West Wagoner Road,Glendale,AZ,85308,USA
4216 Lorraine Street,Panama City Beach,FL,32408,USA
417 West Park Place,Oklahoma City,OK,73103,USA
2868 Peak Road,Wheelock,VT,05851,USA
357 Chaplin Street Southeast,Washington,AR,20019,USA
6755 Mulberry Drive,Anchorage,AK,99502,USA
105 Hunt Club Court,Savannah,GA,31406,USA
3871 Galactica Drive,Anchorage,AK,99517,USA
9805 Meadow Vale Drive,Louisville,KY,40242,USA
4719 Bayou Bluff Trail,Lynn Haven,FL,32444,USA
5708 West Union Hills Drive,Glendale,AZ,85308,USA
1428 Flatwood Court,Crofton,MD,21114,USA
1753 Zion Road,Fayetteville,AR,72703,USA
435 Granite Street,Quincy,MA,02169,USA
2042 High Street,Oakland,CA,94601,USA
3714 John Mallette Drive,Nashville,TN,37218,USA
1536 North Main Street,Salinas,CA,93906,USA
2455 Manchester Drive,The Village,OK,73120,USA
200 Edgewood Way,Louisville,KY,40243,USA
1613 Katrina Circle,Anchorage,AK,99508,USA
2515 60th Avenue,Oakland,CA,94605,USA
3415 Bog Road,Belvidere,VT,05442,USA
680 Quintana Road,Morro Bay,CA,93442,USA
22538 6th Street,Hayward,CA,94541,USA
7785 Montgomery Mews Court,Severn,MD,21144,USA
107 Laurel Green Court,Savannah,GA,31419,USA
814 Coachway,Annapolis,MD,21401,USA
6687 Xenon Drive,Arvada,CO,80004,USA
1157 1st Street Northwest,Washington,AR,20001,USA
6534 Benton Circle,Arvada,CO,80003,USA
689 Stableway Road,Pike Road,AL,36064,USA
43 Main Street,Essex,VT,05452,USA
2079 Nashboro Boulevard,Nashville,TN,37217,USA
7804 Abercorn Street,Savannah,GA,31406,USA
1627 Connecticut Avenue Northwest,Washington,AR,20009,USA
481 East Redbud Lane,Fayetteville,AR,72703,USA
3505 Richmond Avenue,Anchorage,AK,99508,USA
2206 Skidaway Road,Savannah,GA,31404,USA
238 La Salle Avenue,Piedmont,CA,94610,USA
8001 East 6th Avenue,Anchorage,AK,99504,USA
5788 Cane Ridge Road,Nashville,TN,37013,USA
4035 East 8th Street,Panama City,FL,32404,USA
10001 Pheasant Lane,Oklahoma City,OK,73162,USA
7187 Holland Court,Arvada,CO,80005,USA
3142 West Finger Road,Fayetteville,AR,72701,USA
798 Airport Road,Panama City,FL,32405,USA
2406 Brighton Drive,Louisville,KY,40205,USA
2223 North Fernwood Court,Savannah,GA,31404,USA
2522 Fountain Avenue,South Lake Tahoe,CA,96150,USA
1334 East 14th Avenue,Anchorage,AK,99501,USA
5222 West Laurie Lane,Glendale,AZ,85302,USA
25793 Durrwood Court,Castro Valley,CA,94552,USA
247 Summit Street,Manchester,CT,06042,USA
243 Kentucky Avenue,Pasadena,MD,21122,USA
1129 I Street,Anchorage,AK,99501,USA
4329 Howe Street,Oakland,CA,94611,USA
3100 Don Juan Court,Montgomery,AL,36110,USA
1544 Kenilworth Avenue Northeast,Washington,AR,20019,USA
6739 Taft Court,Arvada,CO,80004,USA
4927 Alvin Sperry Road,Mount Juliet,TN,37122,USA
2349 East Tall Oaks Drive,Fayetteville,AR,72703,USA
6002 Jo Danielle Place,Louisville,KY,40291,USA
8521 Crystal Street,Anchorage,AK,99502,USA
309 Glenwood Avenue,Glen Burnie,MD,21061,USA
6148 Avon Avenue,San Gabriel,CA,91775,USA
40902 Ingersoll Terrace,Fremont,CA,94538,USA
645 Malaga Place,Panama City Beach,FL,32413,USA
33655 5th Street,Union City,CA,94587,USA
1123 Glenwood Avenue,Nashville,TN,37204,USA
8423 Pioneer Drive,Severn,MD,21144,USA
9222 Sandra Grace Road,Southport,FL,32409,USA
832 51st Street Northeast,Washington,AR,20019,USA
207 High Street,Manchester,CT,06040,USA
9209 Eupora Court,Jeffersontown,KY,40299,USA
2803 River Drive,Thunderbolt,GA,31404,USA
3728 9th Street Northwest,Washington,AR,20010,USA
7230 Montagne Circle,Anchorage,AK,99507,USA
901 North Lincoln Boulevard,Oklahoma City,OK,73104,USA
519 West 75th Avenue,Anchorage,AK,99518,USA
2905 Stonebridge Court,Norman,OK,73071,USA
1850 Berryhill Place,Montgomery,AL,36117,USA
3835 Oakes Drive,Hayward,CA,94542,USA
32 Prospect Street,Manchester,CT,06040,USA
46 Lilac Street,Manchester,CT,06040,USA
7550 Kline Drive,Arvada,CO,80005,USA
121 Alpine Way,Panama City,FL,32404,USA
35 Lakewood Circle South,Manchester,CT,06040,USA
703 Elizabeth Barcus Way,Fortuna,CA,95540,USA
1402 North Capitol Street Northwest,Washington,AR,20002,USA
2807 Huxley Place,Fremont,CA,94555,USA
234 East Beach Drive,Panama City,FL,32401,USA
1313 North Road,Hinesburg,VT,05461,USA
102 East Cydnee Street,Fayetteville,AR,72703,USA
323 Randolph Street,Montgomery,AL,36104,USA
9827 Davenport Avenue,Youngstown,FL,32466,USA
9 Thomas Street,Ashland,MA,01721,USA
6081 Jay Street,Arvada,CO,80003,USA
6315 North Oro Vista Court,Litchfield Park,AZ,85340,USA
1514 Canton Avenue,Milton,MA,02186,USA
81 Seaton Place Northwest,Washington,AR,20001,USA
58 North Cove Road,Burlington,VT,05408,USA
840 Inglewood Drive,West Sacramento,CA,95605,USA
589 East Main Street,Newport,VT,05855,USA
612 Penn Lane,Moore,OK,73160,USA
73 Twin Hills Drive,Longmeadow,MA,01106,USA
5581 Nolan Street,Arvada,CO,80002,USA
190 High Street,Medford,MA,02155,USA
12 Knox Street,Manchester,CT,06040,USA
302 Depot Road,Boxborough,MA,01719,USA
1311 Northwest 98th Street,Oklahoma City,OK,73114,USA
7000 Hugh Drive,Panama City,FL,32404,USA
212 Holiday Circle,Savannah,GA,31419,USA
7 River Otter Lane,Savannah,GA,31411,USA
6500 Park Club Circle,Louisville,KY,40229,USA
202 Pepperbush Road,Louisville,KY,40207,USA
6101 North 60th Avenue,Glendale,AZ,85301,USA
10700 South Pennsylvania Avenue,Oklahoma City,OK,73170,USA
5722 8th Street Northwest,Washington,AR,20011,USA
8526 Preston Highway,Louisville,KY,40219,USA
10 South Main Street,Fair Haven,VT,05743,USA
5029 Montclair Drive,Nashville,TN,37211,USA
10819 Bluegrass Parkway,Jeffersontown,KY,40299,USA
3446 Northwest 48th Street,Oklahoma City,OK,73112,USA
210 Seaman,McCrory,AR,72101,USA
503 Orchard Road,Glen Burnie,MD,21061,USA
5113 Southeast 51st Street,Oklahoma City,OK,73135,USA
29 Vista Flores,Pleasanton,CA,94566,USA
1254 Muldoon Road,Anchorage,AK,99504,USA
125 13th Street Northeast,Washington,AR,20002,USA
12420 West Montebello Avenue,Litchfield Park,AZ,85340,USA
231 South Kimbrel Avenue,Panama City,FL,32404,USA
2741 31st Place Northeast,Washington,AR,20018,USA
912 Countryside Lane,Montgomery,AL,36117,USA
1139 Addison Street,Berkeley,CA,94702,USA
9300 C Street,Oakland,CA,94603,USA
109 Cambridge Station Road,Louisville,KY,40223,USA
210 Lacross Lane,Westmore,VT,05860,USA
16463 North 60th Avenue,Glendale,AZ,85306,USA
463 Pecan Tree Drive,Montgomery,AL,36109,USA
12 Winter Street,Manchester,CT,06040,USA
1364 Capri Drive,Panama City,FL,32405,USA
2314 Marian Bay Circle,Anchorage,AK,99515,USA
3394 Wilmington Road,Montgomery,AL,36105,USA
1699 Chatham Parkway,Savannah,GA,31405,USA
91 Hoague Drive,Highgate,VT,05459,USA
401 Fairhill Court,Annapolis,MD,21403,USA
201 Lee Boulevard,Savannah,GA,31405,USA
6730 North 59th Drive,Glendale,AZ,85301,USA
6013 Cherry Hill Road,Montgomery,AL,36116,USA
161 Creek Road,Middlebury,VT,05753,USA
2707 Wendell Avenue,Louisville,KY,40205,USA
31 Yosemite Avenue,Oakland,CA,94611,USA
427 Gulf View Drive,Panama City Beach,FL,32413,USA
165 New Hampshire Avenue,Somerset,MA,02726,USA
109 Peter's Quay,Savannah,GA,31410,USA
7002 Secrest Court,Arvada,CO,80007,USA
2686 Avery Park Drive,Nashville,TN,37211,USA
6902 West Sherri Jean Lane,Peoria,AZ,85382,USA
334 North Cove Boulevard,Panama City,FL,32401,USA
136 Acacia Drive,Blue Lake,CA,95525,USA
4 Village Lake Drive,Fayetteville,AR,72703,USA
56 Channing Drive,Manchester,CT,06040,USA
3777 Mowry Avenue,Fremont,CA,94538,USA
2500 Medallion Drive,Union City,CA,94587,USA
3623 Chateau Lane,Louisville,KY,40219,USA
11 Alden Court,Roseville,CA,95678,USA
1326 U.S. 80,Garden City,GA,31408,USA
5516 West Indore Drive,Littleton,CO,80128,USA
2315 Kezey Court,Crofton,MD,21114,USA
512 Danley Court,Nashville,TN,37013,USA
1700 William E Summers III Avenue,Louisville,KY,40211,USA
8 Linden Circle,Somerville,MA,02143,USA
1911 East 58th Avenue,Anchorage,AK,99507,USA
1007 Ash Street,Louisville,KY,40217,USA
7027 West Phelps Road,Peoria,AZ,85382,USA
102 Hayes Drive,Pooler,GA,31322,USA
305 Becket Avenue,Louisville,KY,40118,USA
3194 Bladensburg Road Northeast,Washington,AR,20018,USA
410 51st Avenue North,Nashville,TN,37209,USA
7703 Aragorn Court,Hanover,MD,21076,USA
29 Church Street,Easthampton,MA,01027,USA
1079 East Kentucky Street,Louisville,KY,40204,USA
4632 Vermont 15,Wolcott,VT,05680,USA
4 Stemson Way,Port Wentworth,GA,31407,USA
7090 West 64th Avenue,Arvada,CO,80003,USA
7321 East Chester Heights Circle,Anchorage,AK,99504,USA
803 Kay Lane,Lynn Haven,FL,32444,USA
6049 Quail Street,Arvada,CO,80004,USA
2555 West 69th Court,Anchorage,AK,99502,USA
6057 Griffith Avenue,Linda,CA,95901,USA
13931 West 87th Drive,Arvada,CO,80005,USA
37 East Broad Street,Savannah,GA,31401,USA
2375 Palm Lake Drive,Merritt Island,FL,32952,USA
19 Heritage,Oakland,CA,94605,USA
2169 Barre Road,Hubbardston,MA,01452,USA
208 Bonita Circle,Panama City Beach,FL,32408,USA
615 Q Street Northwest,Washington,AR,20001,USA
1422 North Dawn Drive,Fayetteville,AR,72703,USA
8070 Holland Court,Arvada,CO,80005,USA
3824 Rosewood Court,Midwest City,OK,73110,USA
18 Curry Lane,Manchester,CT,06040,USA
112 Coleman Boulevard,Savannah,GA,31408,USA
5601 West Missouri Avenue,Glendale,AZ,85301,USA
202 Deer Run Trail,Manchester,CT,06042,USA
13213 Spanish Moss Road,Savannah,GA,31419,USA
5123 Ewell Street,Savannah,GA,31405,USA
2212 Daffin Drive,Savannah,GA,31404,USA
615 Florida Avenue,Lynn Haven,FL,32444,USA
5609 Colorado Avenue Northwest,Washington,AR,20011,USA
4728 Rockland Trail,Nashville,TN,37013,USA
557 West Willoughby Road,Fayetteville,AR,72701,USA
5601 West Crocus Drive,Glendale,AZ,85306,USA
4922 West Cholla Street,Glendale,AZ,85304,USA
96 Green Manor Road,Manchester,CT,06042,USA
2406 Lindbergh Drive,Louisville,KY,40208,USA
215 9th Street Northeast,Washington,AR,20002,USA
185 Longview Road,West Tisbury,MA,02568,USA
89 High Ledge Circle,Manchester,CT,06040,USA
8785 Ellis Court,Arvada,CO,80005,USA
516 Southwest 60th Terrace,Oklahoma City,OK,73139,USA
5721 Frank Hough Road,Panama City,FL,32404,USA
4511 Sloat Road,Fremont,CA,94538,USA
7802 Titan Court,Pasadena,MD,21122,USA
5624 Oakes Drive,Brentwood,TN,37027,USA
10638 Happyville Road,Youngstown,FL,32466,USA
913 Fallview Trail,Nashville,TN,37211,USA
4 Conti Circle,Barre,VT,05641,USA
69 Washington Street,Manchester,CT,06042,USA
78 Cliffside Drive,Manchester,CT,06042,USA
1 Portsmouth Road,Piedmont,CA,94610,USA
222 Rockcrest Way,Louisville,KY,40245,USA
3483 Canyon Creek Drive,San Jose,CA,95132,USA
2931 Shady Oaks Drive,Evans,CO,80620,USA
1076 Foster Street,Alameda,CA,94502,USA
302 Tuten Avenue,Savannah,GA,31415,USA
894 Windmill Park Lane,Mountain View,CA,94043,USA
7901 West 52nd Avenue,Arvada,CO,80002,USA
260 Rio Del Mar Boulevard,Aptos,CA,95003,USA
2620 West 33rd Avenue,Anchorage,AK,99517,USA
7400 West Arrowhead Clubhouse Drive,Glendale,AZ,85308,USA
1100 West Bowen Boulevard,Fayetteville,AR,72703,USA
16412 Eastwood Cut Off Road,Louisville,KY,40245,USA
3782 North Front Street,Fayetteville,AR,72703,USA
1233 Paradise Lane,Fayetteville,AR,72701,USA
1801 Dodge Trail,Edmond,OK,73003,USA
9346 West 66th Place,Arvada,CO,80004,USA
1478 Sharps Point Road,Annapolis,MD,21409,USA
3810 Camp Ground Road,Louisville,KY,40211,USA
425 Middle Turnpike East,Manchester,CT,06040,USA
90 Peabody Street,Nashville,TN,37210,USA
20 Hacker Street,Worcester,MA,01603,USA
150 Meadowview Street,Marshfield,MA,02050,USA
80 Homestead Street,Manchester,CT,06042,USA
618 McLaws Street,Savannah,GA,31405,USA
129 Grant Street,Redlands,CA,92373,USA
1725 Oxford Street,Berkeley,CA,94709,USA
4604 Virginia Loop Road,Montgomery,AL,36116,USA
397 North Main Street,Manchester,CT,06042,USA
10151 West 64th Avenue,Arvada,CO,80004,USA
14003 Crossbranch Court,Louisville,KY,40245,USA
38252 Farwell Drive,Fremont,CA,94536,USA
3034 Mica Street,Fayetteville,AR,72704,USA
3 Furman Place,Swanton,VT,05488,USA
14358 West 88th Place,Arvada,CO,80005,USA
580 Hollow Wood Road,Montgomery,AL,36109,USA
2036 Gorgas Street,Montgomery,AL,36106,USA
8101 Vaughn Road,Montgomery,AL,36117,USA
15 Mystic Avenue,Medford,MA,02155,USA
1340 5th Street Northwest,Washington,AR,20001,USA
663 Chesapeake Way,Fayetteville,AR,72701,USA
3823 Shannon Run Trail,Louisville,KY,40299,USA
306 Rural Hill Court,Nashville,TN,37217,USA
7416 West Maryland Avenue,Glendale,AZ,85303,USA
642 Sagamore Drive,Montgomery,AL,36109,USA
9740 Rhythm Road,Midwest City,OK,73130,USA
3311 Wiley Post Loop,Anchorage,AK,99517,USA
802 Madison Street Northwest,Washington,AR,20011,USA
2133 Boultier Street,Montgomery,AL,36106,USA
1711 8th Street Northwest,Washington,AR,20001,USA
305 Brookside Court,Manchester,CT,06042,USA
4667 Benning Road Southeast,Washington,AR,20019,USA
5628 West Tonopah Drive,Glendale,AZ,85308,USA
26 Battery Drive,Tybee Island,GA,31328,USA
5631 West Colter Street,Glendale,AZ,85301,USA
6391 West 60th Avenue,Arvada,CO,80003,USA
46 Sugarloaf Hill Road,Warren,VT,05674,USA
4253 San Juan Avenue,Fremont,CA,94536,USA
1100 Cleveland Street,Fayetteville,AR,72701,USA
123 Elizabeth Drive,Manchester,CT,06042,USA
3060 Zelda Road,Montgomery,AL,36106,USA
26 Greenbriar Drive,Savannah,GA,31419,USA
8595 West 81st Drive,Arvada,CO,80005,USA
429 Dennison Ridge Drive,Manchester,CT,06040,USA
77 Gerald Drive,Manchester,CT,06040,USA
4709 North Willow Avenue,Bethany,OK,73008,USA
7941 Alpine View Circle,Anchorage,AK,99507,USA
1429 Harrison Avenue,Panama City,FL,32401,USA
13360 West 83rd Place,Arvada,CO,80005,USA
98 Lee Drive,Annapolis,MD,21403,USA
1347 Blackwalnut Court,Annapolis,MD,21403,USA
75 Calfoster Drive,Wolcott,VT,05680,USA
629 Cutter Court,Annapolis,MD,21401,USA
854 Cherry Trail,Crownsville,MD,21032,USA
1320 Huffman Park Drive,Anchorage,AK,99515,USA
2902 Flint Street,Union City,CA,94587,USA
4108 Kogru Place,Anchorage,AK,99577,USA
5128 West Carol Avenue,Glendale,AZ,85302,USA
405 Flint Ridge Court,Norman,OK,73072,USA
1211 Rock Creek Trce,Nashville,TN,37189,USA
8325 Northwest 19th Street,Oklahoma City,OK,73127,USA
6223 Kilmer Loop,Arvada,CO,80403,USA
11933 West 71st Avenue,Arvada,CO,80004,USA
7981 Robinson Way,Arvada,CO,80004,USA
4032 Windwood Lane,Nashville,TN,37214,USA
99 Summer Street,Manchester,CT,06040,USA
1908 Newton Street Northeast,Washington,AR,20018,USA
9360 Hester Beasley Road,Nashville,TN,37221,USA
7 Rose Dhu Lane,Savannah,GA,31419,USA
1403 Boulder Court,Hanover,MD,21076,USA
7047 Vinson Road,Panama City,FL,32413,USA
4400 Vaneto Drive,Louisville,KY,40216,USA
116 Frost Park,Hartford,VT,05001,USA
1332 Maple Street,Montgomery,AL,36108,USA
5378 Allison Street,Arvada,CO,80002,USA
2324 North Briarwood Lane,Fayetteville,AR,72703,USA
17615 Center Drive,Fountain,FL,32438,USA
5611 Kendall Court,Arvada,CO,80002,USA
6452 El Camino Real,Atascadero,CA,93422,USA
1819 Q Street Southeast,Washington,AR,20020,USA
35 Keach Avenue,Worcester,MA,01607,USA
11150 Sun Valley Drive,Oakland,CA,94605,USA
6925 Lariat Lane,Castro Valley,CA,94552,USA
720 South River Landing Road,Edgewater,MD,21037,USA
16 Ambassador Drive,Manchester,CT,06042,USA
4617 East 3rd Street,Panama City,FL,32404,USA
3620 Colmar Drive,Louisville,KY,40211,USA
304 Wilmington Island Road,Savannah,GA,31410,USA
3146 North Old Wire Road,Fayetteville,AR,72703,USA
16303 Mateo Street,San Leandro,CA,94578,USA
2812 Jasper Street Southeast,Washington,AR,20020,USA
86 Highland Street,Manchester,CT,06040,USA
4016 Doane Street,Fremont,CA,94538,USA
1931 West Deane Street,Fayetteville,AR,72703,USA
42 West Louise Street,Fayetteville,AR,72701,USA
1417 Stoneykirk Road,Pelham,AL,35124,USA
31 Buckland Hills Drive,Manchester,CT,06042,USA
1816 14th Avenue,Nashville,TN,37208,USA
4463 Cato Road,Nashville,TN,37218,USA
409 Snook Lane,Panama City Beach,FL,32408,USA
509 Franklin Street Northeast,Washington,AR,20017,USA
7024 Johnny Mercer Boulevard,Savannah,GA,31410,USA
3862 Almond Avenue,Fremont,CA,94538,USA
91 Rushforde Drive,Manchester,CT,06040,USA
13531 West 72nd Drive,Arvada,CO,80005,USA
3505 Albee Drive,Nashville,TN,37076,USA
8133 Meadowgreen Place,Louisville,KY,40299,USA
2917 Danzig Place,Louisville,KY,40245,USA
3162 Martin Luther King Junior Boulevard,Fayetteville,AR,72704,USA
510 Leeanne Drive,Nashville,TN,37211,USA
1261 Steamboat Drive,Fayetteville,AR,72704,USA
5420 Allison Street,Arvada,CO,80002,USA
13501 Vasili Drive,Anchorage,AK,99577,USA
3708 Fort Lincoln Drive Northeast,Washington,AR,20018,USA
3408 Taylorsville Road,Louisville,KY,40205,USA
6460 Vermont 113,Vershire,VT,05079,USA
707 Pinkston Street,Montgomery,AL,36109,USA
20 Dearborn Drive,Manchester,CT,06042,USA
152 Teddy Drive,Union City,CA,94587,USA
2703 Woolsey Street,Berkeley,CA,94705,USA
15510 Champion Lakes Place,Louisville,KY,40245,USA
11401 Totem Road,Anchorage,AK,99516,USA
1515 Excelsior Avenue,Oakland,CA,94602,USA
7772 West Palmaire Avenue,Glendale,AZ,85303,USA
11330 Elmore Road,Anchorage,AK,99516,USA
105 Ridgecrest Court,Panama City,FL,32405,USA
2732 Humboldt Avenue,Oakland,CA,94602,USA
4725 Royal Oak Drive,Oklahoma City,OK,73135,USA
7301 Northwest 113th Terrace,Oklahoma City,OK,73162,USA
83 Kennedy Road,Manchester,CT,06042,USA
10996 Largo Drive,Savannah,GA,31419,USA
3373 Runnymede Place Northwest,Washington,AR,20015,USA
308 School Avenue,Panama City,FL,32401,USA
1558 Goodfellow Road,Groton,VT,05046,USA
1328 Tuckerman Street Northwest,Washington,AR,20011,USA
295 Townes Drive,Nashville,TN,37211,USA
646 Clinton Street,Montgomery,AL,36108,USA
5549 West Hearn Road,Glendale,AZ,85306,USA
4726 West Palmaire Avenue,Glendale,AZ,85301,USA
112 Cherokee Road,Nashville,TN,37205,USA
5732 Jean Drive,Union City,CA,94587,USA
702 East 53rd Street,Savannah,GA,31405,USA
6047 Cole Court,Arvada,CO,80004,USA
11 Rosewood Lane,Essex,VT,05452,USA
12002 Vanherr Drive,Louisville,KY,40299,USA
984 Greendale Avenue,Needham,MA,02492,USA
5715 Saint Matthew Drive,Newark,CA,94560,USA
7802 North Alsup Road,Litchfield Park,AZ,85340,USA
5575 South Dakota Avenue Northeast,Washington,AR,20011,USA
6653 West Rose Garden Lane,Glendale,AZ,85308,USA
8150 North 61st Avenue,Glendale,AZ,85302,USA
301 Southeast 37th Street,Oklahoma City,OK,73129,USA
4540 Phyllis Court,Livermore,CA,94550,USA
68 Route 66,undefined,VT,05149,USA
396 Hartford Road,Manchester,CT,06040,USA
3008 Russell Street,Berkeley,CA,94705,USA
4075 North Cadillac Drive,Fayetteville,AR,72703,USA
313 Monroe Street,Montgomery,AL,36104,USA
7564 Moore Court,Arvada,CO,80005,USA
45 Heathcote Circle,Savannah,GA,31405,USA
3041 West Marigold Drive,Fayetteville,AR,72704,USA
4506 Eads Place Northeast,Washington,AR,20019,USA
52 Linnmore Drive,Manchester,CT,06040,USA
19 Murray Road,Essex,VT,05452,USA
545 East Muhammad Ali Boulevard,Louisville,KY,40202,USA
8595 North 71st Avenue,Glendale,AZ,85301,USA
649 South 41st Street,Louisville,KY,40211,USA
1303 Buckingham Court,Louisville,KY,40118,USA
3762 Royalton Turnpike,Barnard,VT,05068,USA
5222 Nick Road,Shady Side,MD,20764,USA
154 Lyness Street,Manchester,CT,06040,USA
233 Ingraham Street Northwest,Washington,AR,20011,USA
10725 Sunset Boulevard,Spencer,OK,73084,USA
4250 North Valley Lake Drive,Fayetteville,AR,72703,USA
11843 North 60th Avenue,Glendale,AZ,85304,USA
3522 Whiting Avenue,Montgomery,AL,36105,USA
831 21st Street Northeast,Washington,AR,20002,USA
1021 North Center Avenue,Panama City,FL,32401,USA
2098 Lower Newton Street,Saint Albans City,VT,05478,USA
105 Courtland Drive,Montgomery,AL,36105,USA
1649 Timberridge Court,Fayetteville,AR,72704,USA
5156 South Dakota Avenue Northeast,Washington,AR,20017,USA
44 Downey Drive,Manchester,CT,06040,USA
12901 Mission Circle,Anchorage,AK,99516,USA
1300 East Dowling Road,Anchorage,AK,99518,USA
2201 Marks Mill Lane,Fayetteville,AR,72703,USA
12039 West 85th Drive,Arvada,CO,80005,USA
5024 West Christy Drive,Glendale,AZ,85304,USA
5688 Johnson Court,Arvada,CO,80002,USA
65 Bay Drive,Annapolis,MD,21403,USA
981 Groton Long Point Road,Groton,CT,06340,USA
4444 Central Avenue,Fremont,CA,94536,USA
5161 Jefferson Boulevard,Louisville,KY,40219,USA
2928 Avon Road,Panama City,FL,32405,USA
195 Kennedy Road,Manchester,CT,06042,USA
5926 Sneed Drive,Deale,MD,20751,USA
235 Hugh Thomas Drive,Panama City,FL,32404,USA
1432 Bell Trace Drive,Nashville,TN,37013,USA
2008 North Shannon Drive,Fayetteville,AR,72703,USA
412 Lakefront Drive,Panama City Beach,FL,32413,USA
3035 South Highway A1A,Melbourne Beach,FL,32951,USA
6100 Bullard Drive,Oakland,CA,94611,USA
24 Amherst Drive,Manchester,CT,06042,USA
14006 Coffee Bluff Road,Savannah,GA,31419,USA
760 11th Street Southeast,Washington,AR,20003,USA
22649 McManus Drive,Anchorage,AK,99567,USA
208 Waterford Drive,Lynn Haven,FL,32444,USA
2347 Glen Eagle Drive,Northfield,KY,40222,USA
2064 West Columbia Way,Hanford,CA,93230,USA
82 The Commons,Moretown,VT,05660,USA
1816 U Place Southeast,Washington,AR,20020,USA
8117 Mountain View Circle,Pasadena,MD,21122,USA
3808 South Smiley Circle,Montgomery,AL,36108,USA
1817 Southeast 14th Street,Moore,OK,73160,USA
1995 Nolensville Pike,Nashville,TN,37211,USA
20241 North 67th Avenue,Glendale,AZ,85308,USA
7622 Vance Drive,Arvada,CO,80003,USA
9457 Winfield Place,Montgomery,AL,36117,USA
4231 Miramonte Way,Union City,CA,94587,USA
5815 West Del Lago Circle,Glendale,AZ,85308,USA
38 Bruce Road,Manchester,CT,06040,USA
122 Coral Drive,Panama City Beach,FL,32413,USA
8700 Lillington Circle,Montgomery,AL,36117,USA
29 East Avenue,Colchester,VT,05446,USA
7057 Old Southwick Place,Montgomery,AL,36117,USA
4125 Cobia Street,Panama City,FL,32408,USA
5743 Teller Street,Arvada,CO,80002,USA
309 Brooke Court,Panama City,FL,32404,USA
3820 North Peniel Avenue,Bethany,OK,73008,USA
1413 G Street,Anchorage,AK,99501,USA
204 North Holt Street,Montgomery,AL,36104,USA
8101 Northwind Avenue,Anchorage,AK,99504,USA
64 Roseberry Circle,Port Wentworth,GA,31407,USA
16244 Seville Park Circle,Anchorage,AK,99516,USA
10891 Kamishak Bay Circle,Anchorage,AK,99515,USA
1516 Buchanan Street Northwest,Washington,AR,20011,USA
146 Walnut Street,Manchester,CT,06040,USA
210 Long Hill Court,Pasadena,MD,21122,USA
644 West Maple Street,Fayetteville,AR,72701,USA
3213 Ivy Wood Lane,Laurel,MD,20724,USA
5707 Whispering Hills Boulevard,Louisville,KY,40219,USA
8063 Regency Drive,Pleasanton,CA,94588,USA
1918 Spruce Street,Boulder,CO,80302,USA
16896 West 85th Lane,Arvada,CO,80007,USA
20250 North 67th Avenue,Glendale,AZ,85308,USA
10124 Watsonville Road,Louisville,KY,40272,USA
74 Bradford Road,Watertown,MA,02472,USA
1014 South 2nd Street,Louisville,KY,40203,USA
6990 Pierson Street,Arvada,CO,80004,USA
8709 Peeble Lane,Louisville,KY,40272,USA
7072 Quail Street,Arvada,CO,80004,USA
721 South Jackson Street,Louisville,KY,40203,USA
6932 West Montebello Avenue,Glendale,AZ,85303,USA
545 Tracey Drive,Panama City,FL,32404,USA
535 Saddlewood Lane,Montgomery,AL,36109,USA
627 Emerson Street Northwest,Washington,AR,20011,USA
1701 18th Avenue South,Nashville,TN,37212,USA
8318 North 57th Drive,Glendale,AZ,85302,USA
4405 West Solano Drive South,Glendale,AZ,85301,USA
18330 North 79th Avenue,Glendale,AZ,85308,USA
8 Richardson Road,Barre,VT,05641,USA
435 Benita Drive,Nashville,TN,37211,USA
10262 West 59th Avenue,Arvada,CO,80004,USA
4981 Shirley Way,Livermore,CA,94550,USA
2309 Stearns Hill Road,Waltham,MA,02451,USA
126 Garth Road,Manchester,CT,06040,USA
1211 Castine Court,Pasadena,MD,21122,USA
12330 Old Glenn Highway,Anchorage,AK,99577,USA
1 Kelton Court,Oakland,CA,94611,USA
240 54th Avenue North,Nashville,TN,37209,USA
11515 Leemont Drive,Louisville,KY,40272,USA
201 West Street,Annapolis,MD,21401,USA
12 Fletcher Lane,Shelburne,VT,05482,USA
29076 Little Big Horn Drive,Evergreen,CO,80439,USA
6521 North 65th Avenue,Glendale,AZ,85301,USA
3420 Northwest 41st Street,Oklahoma City,OK,73112,USA
803 18th Avenue South,Nashville,TN,37203,USA
1004 Bellflower Street,Livermore,CA,94551,USA
218 Oleander Drive,Panama City Beach,FL,32413,USA
43 Westminster Street,Pittsfield,MA,01201,USA
4319 West Claremont Street,Glendale,AZ,85301,USA
113 Hammarlee Road,Glen Burnie,MD,21060,USA
4331 Foeburn Lane,Louisville,KY,40207,USA
5632 West Acoma Drive,Glendale,AZ,85306,USA
5244 West Port Au Prince Lane,Glendale,AZ,85306,USA
8142 Mallard Shore Drive,Laurel,MD,20724,USA
735 West Treadwell Street,Fayetteville,AR,72701,USA
16205 Wind Crest Way,Edmond,OK,73013,USA
7180 West Paraiso Drive,Glendale,AZ,85310,USA
16 Pine Hill Street,Manchester,CT,06042,USA
1247 West Mount Comfort Road,Fayetteville,AR,72703,USA
637 Laurelwood Circle,Vacaville,CA,95687,USA
110 Oxford Road,Savannah,GA,31419,USA
1313 Southwest 14th Street,Oklahoma City,OK,73108,USA
2613 Cottonwood Street,Anchorage,AK,99508,USA
2209 East Manor Drive,Fayetteville,AR,72701,USA
201 East 16th Avenue,Anchorage,AK,99501,USA
5 Irving Street,Easthampton,MA,01027,USA
3815 Williams Street,Anchorage,AK,99508,USA
104 Greenwood Drive,Manchester,CT,06042,USA
525 Middle Turnpike West,Manchester,CT,06040,USA
1644 Queenstown Road,Nichols Hills,OK,73116,USA
321 Kentucky Avenue Southeast,Washington,AR,20003,USA
1056 Cayer Drive,Glen Burnie,MD,21061,USA
1433 Bretton View Road,Annapolis,MD,21409,USA
2 Addison Place,Bloomingdale,GA,31302,USA
60 Downey Drive,Manchester,CT,06040,USA
202 Winston Road,Pasadena,MD,21122,USA
404 Middle Turnpike West,Manchester,CT,06040,USA
7131 North 67th Avenue,Glendale,AZ,85301,USA
6601 West Ocotillo Road,Glendale,AZ,85301,USA
17 Elm Street,Cambridge,MA,02139,USA
68 Hampstead Place,Athol,MA,01331,USA
6021 Yarrow Street,Arvada,CO,80004,USA
1136 Northwest 31st Street,Oklahoma City,OK,73118,USA
1015 Castle Road,Edmond,OK,73034,USA
2013 Talbot Terrace,Montgomery,AL,36106,USA
2305 Ranchland Drive,Savannah,GA,31404,USA
3901 Old Seward Highway,Anchorage,AK,99503,USA
7998 Chase Circle,Arvada,CO,80003,USA
10508 Kovats Court,Louisville,KY,40223,USA
103 Edgewater Road,Severna Park,MD,21146,USA
4001 19th Place Northeast,Washington,AR,20018,USA
4423 Lilac Avenue,Savannah,GA,31404,USA
119 Oakland Street,Manchester,CT,06042,USA
313 Lone Oak Drive,Norman,OK,73071,USA
2505 North Hampton Court,Fayetteville,AR,72703,USA
6624 Strawberry Lane,Louisville,KY,40214,USA
20000 North 57th Avenue,Glendale,AZ,85308,USA
378 Bonny Street,Grand Junction,CO,81501,USA
4907 Roger Drive,Anchorage,AK,99507,USA
5436 Dorbrandt Street,Anchorage,AK,99518,USA
8010 Holland Court,Arvada,CO,80005,USA
1515 Northwest 19th Street,Oklahoma City,OK,73106,USA
98 Lincoln Street,Revere,MA,02151,USA
7912 Depew Street,Arvada,CO,80003,USA
1245 Southwest 31st Street,Oklahoma City,OK,73109,USA
505 Southeast 32nd Street,Oklahoma City,OK,73129,USA
1718 Underwood Road,Gambrills,MD,21054,USA
3 Carson Street,Chico,CA,95928,USA
83 Oakdale Road,Newton,MA,02459,USA
2315 Kimberly Drive,Nashville,TN,37214,USA
529 Barr Hill Road,Greensboro,VT,05841,USA
6324 Moore Circle,Arvada,CO,80004,USA
2106 Standard Avenue,Louisville,KY,40210,USA
5458 30th Street Northwest,Washington,AR,20015,USA
3819 Dartmouth Avenue,Nashville,TN,37215,USA
6000 Parker Drive,Deale,MD,20751,USA
11522 Country Spring Court,Cupertino,CA,95014,USA
8202 Dudley Way,Arvada,CO,80005,USA
6609 Westshire Drive,Louisville,KY,40258,USA
335 C Street Southeast,Washington,AR,20003,USA
1163 Rosedale Drive,Montgomery,AL,36107,USA
2139 Glynnwood Drive,Savannah,GA,31404,USA
2186 Knollwood Drive,Boulder,CO,80302,USA
45430 Lauri Lane,Oakhurst,CA,93644,USA
775 47th Street,Oakland,CA,94609,USA
4603 Grant Street Northeast,Washington,AR,20019,USA
1439 2nd Street,Panama City,FL,32409,USA
71 Racine Road,undefined,VT,05468,USA
2700 Verona Way,Edmond,OK,73034,USA
1261 Sioux Terrace,Nashville,TN,37115,USA
1044 Stokes Road,Montgomery,AL,36110,USA
38 Renwick Road,Melrose,MA,02176,USA
9008 Grayson Grove Court,Montgomery,AL,36117,USA
942 Lewis Road,undefined,CA,95076,USA
6385 Oak Street,Arvada,CO,80004,USA
570 Broadway,Lynnfield,MA,01940,USA
7968 Newman Street,Arvada,CO,80005,USA
2245 Southwest Binkley Street,Oklahoma City,OK,73119,USA
230 East 8th Street,Edmond,OK,73034,USA
3729 East Mission Boulevard,Fayetteville,AR,72703,USA
3377 Sandstone Court,Pleasanton,CA,94588,USA
6435 West Hillsborough Avenue,Tampa,FL,33634,USA
5906 Milton Avenue,Deale,MD,20751,USA
3208 Southwest 65th Street,Oklahoma City,OK,73159,USA
172 Chestnut Street,Lynn,MA,01902,USA
809 Blue Ridge Drive,Edmond,OK,73003,USA
750 West Dimond Boulevard,Anchorage,AK,99515,USA
125 Connors Street,Gardner,MA,01440,USA
527 Birch Mountain Road,Manchester,CT,06040,USA
36 Grove Street,Manchester,CT,06042,USA
115 Maple Street,Manchester,CT,06040,USA
208 Southeast 19th Street,Oklahoma City,OK,73129,USA
205 West Montgomery Cross Road,Savannah,GA,31406,USA
8300 Highway 100,Nashville,TN,37221,USA
2034 Fairfax Road,Annapolis,MD,21401,USA
3138 P Street Northwest,Washington,AR,20007,USA
3546 Rosa L Parks Avenue,Montgomery,AL,36105,USA
65 Hilltop Lane,McKinleyville,CA,95519,USA
6630 MacArthur Boulevard,Oakland,CA,94605,USA
1460 Berger Street,Odenton,MD,21113,USA
21950 Arnold Center Road,Carson,CA,90810,USA
714 Venetian Way,Panama City,FL,32405,USA
8716 Astrid Avenue,Louisville,KY,40228,USA
1400 Rosa L Parks Boulevard,Nashville,TN,37208,USA
1990 Poplar Ridge Road,Pasadena,MD,21122,USA
1636 Church Street Northwest,Washington,AR,20036,USA
2638 East 40th Plaza,Panama City,FL,32405,USA
243 West Haven Drive,Severna Park,MD,21146,USA
6725 Pamela Court,Montgomery,AL,36116,USA
534 North 31st Street,Louisville,KY,40212,USA
29104 Quartz Lane,Tollhouse,CA,93667,USA
1822 Pine Grove Court,Severn,MD,21144,USA
180 Intervale Avenue,Burlington,VT,05401,USA
5840 Eagle Circle,Montgomery,AL,36116,USA
811 River Dell Drive,Louisville,KY,40206,USA
5005 North Miller Avenue,Oklahoma City,OK,73112,USA
826 Webster Street,Hayward,CA,94544,USA
14213 Doc Hawley Street,Louisville,KY,40245,USA
236 Middle Turnpike East,Manchester,CT,06040,USA
697 Parker Street,Manchester,CT,06042,USA
1189 Northwest End Avenue,Fayetteville,AR,72703,USA
8 Chestnut Street,Winchester,MA,01890,USA
2560 Michigan Court,Panama City,FL,32405,USA
223 Goose Pond Road,Fairfax,VT,05454,USA
13525 West Stella Lane,Litchfield Park,AZ,85340,USA
3537 West Chevaux Drive,Fayetteville,AR,72704,USA
8546 North 59th Lane,Glendale,AZ,85302,USA
4231 Laurel Street,Anchorage,AK,99508,USA
6069 Jay Street,Arvada,CO,80003,USA
1207 Branch Lane,Glen Burnie,MD,21061,USA
1318 22nd Street Northwest,Washington,AR,20037,USA
7947 Citadel Drive,Severn,MD,21144,USA
54 Gentry Court,Annapolis,MD,21403,USA
2631 Northrup Place,Anchorage,AK,99508,USA
190 Exchange Street,Lawrence,MA,01841,USA
9302 West 58th Avenue,Arvada,CO,80002,USA
39 Newhall Street,Lynn,MA,01902,USA
22062 Cameron Street,Castro Valley,CA,94546,USA
5112 Southwest 124th Place,Oklahoma City,OK,73173,USA
302 Elberta Street,Nashville,TN,37210,USA
117 Adelaide Road,Manchester,CT,06040,USA
7124 West Morrow Drive,Glendale,AZ,85308,USA
224 Michael Sears Road,Belchertown,MA,01007,USA
5144 Cattail Court,Fayetteville,AR,72701,USA
3313 Daisy Trail,Nashville,TN,37013,USA
3024 24th Street Northeast,Washington,AR,20018,USA
7650 West 68th Avenue,Arvada,CO,80004,USA
6713 Holt Road,Nashville,TN,37211,USA
408 Pine Street,Bloomingdale,GA,31302,USA
10723 Colonial Woods Court,Louisville,KY,40223,USA
2715 Thornbrook Court,Odenton,MD,21113,USA
5526 Thalman Drive,Brentwood,TN,37027,USA
422 C Street Northeast,Washington,AR,20002,USA
1909 Seventh Street,Berkeley,CA,94710,USA
14206 James Rees Way,Louisville,KY,40299,USA
2505 Walker Lane,Nashville,TN,37207,USA
2716 30th Street Southeast,Washington,AR,20020,USA
7703 Laird Street,Panama City,FL,32408,USA
5228 North 70th Avenue,Glendale,AZ,85303,USA
29 Lucian Street,Manchester,CT,06040,USA
22 Star Farms Drive,Manchester,CT,06040,USA
2276 West Woodley Square,Montgomery,AL,36116,USA
401 East Northern Lights Boulevard,Anchorage,AK,99503,USA
2500 Snowdoun Chambers Road,Montgomery,AL,36105,USA
6016 Northwest 27th Street,Oklahoma City,OK,73127,USA
88 Shute Street,Everett,MA,02149,USA
131 Westerly Street,Manchester,CT,06042,USA
405 Savannah Park Way,Panama City Beach,FL,32407,USA
400 South 28th Street,Louisville,KY,40212,USA
105 West Wareingwood Drive,Montgomery,AL,36109,USA
422 Richmond Street,El Cerrito,CA,94530,USA
3324 Valley Lee South,Laurel,MD,20724,USA
7013 Collinswood Drive,Nashville,TN,37221,USA
1532 Milvia Street,Berkeley,CA,94709,USA
8295 Moss Circle,Arvada,CO,80007,USA
5136 Gaines Street,Oklahoma City,OK,73135,USA
800 Old Stage Road,Glen Burnie,MD,21061,USA
55 Sunrise Avenue,Moretown,VT,05660,USA
812 Southwest 151st Street,Oklahoma City,OK,73170,USA
382 Ocean Avenue,Revere,MA,02151,USA
10 Skyline Way,Hartford,VT,05001,USA
940 Ironwood Drive,Montgomery,AL,36117,USA
24 Lambert Street,Medford,MA,02155,USA
560 Penstock Drive,Grass Valley,CA,95945,USA
404 Summit Oaks Drive,Nashville,TN,37221,USA
10714 Abercorn Street,Savannah,GA,31419,USA
1002 Highland Avenue,Louisville,KY,40204,USA
1200 S Street,Anchorage,AK,99501,USA
1679 Frederick Michael Way,Livermore,CA,94550,USA
116 Queens Lane,Nashville,TN,37218,USA
552 Maynadier Lane,Crownsville,MD,21032,USA
595 West 15th Street,Fayetteville,AR,72701,USA
1842 West Park Place,Oklahoma City,OK,73106,USA
6073 Harlan Street,Arvada,CO,80003,USA
804 East 7th Court,Panama City,FL,32401,USA
117 South Capitol Parkway,Montgomery,AL,36107,USA
416 Ridge Street Northwest,Washington,AR,20001,USA
529 Wesley Avenue,Nashville,TN,37207,USA
7645 Marshall Street,Arvada,CO,80003,USA
31130 Meadowbrook Avenue,Hayward,CA,94544,USA
4510 Eastern Avenue Northeast,Washington,AR,20018,USA
1061 Sumatra Street,Hayward,CA,94544,USA
1623 Mines Road,Lowell,VT,05847,USA
6657 West Rose Garden Lane,Glendale,AZ,85308,USA
534 Turpin Street,Anchorage,AK,99504,USA
120 Depot Street,Easton,MA,02375,USA
9119 Whispering Willow Way,Tampa,FL,33614,USA
1106 Commanders Way South,Annapolis,MD,21409,USA
3607 R Street Northwest,Washington,AR,20007,USA
513 Habberton Road,Fayetteville,AR,72703,USA
5124 Williston Road,Williston,VT,05495,USA
8216 West Citrus Way,Glendale,AZ,85303,USA
908 Lodge Hill Road,Louisville,KY,40223,USA
2521 Naylor Road Southeast,Washington,AR,20020,USA
802 Virginia Avenue,Lynn Haven,FL,32444,USA
5300 Robinwood Road,Louisville,KY,40218,USA
814 Miner Road,Crownsville,MD,21032,USA
3320 Peterkin Avenue,Anchorage,AK,99508,USA
2650 East Huntsville Road,Fayetteville,AR,72701,USA
25 Edwards Street,Manchester,CT,06042,USA
172 Homestead Street,Manchester,CT,06042,USA
10301 La Plaza Drive,Louisville,KY,40272,USA
1209 Parker Street,Berkeley,CA,94702,USA
653 Vermont 12,Hartland,VT,05048,USA
1113 West Trinity Lane,Nashville,TN,37218,USA
2636 Knollwood Drive,Montgomery,AL,36116,USA
6985 Woodstock Road,Hartford,VT,05001,USA
6007 Applegate Lane,Louisville,KY,40219,USA
915 Heath Drive,Montgomery,AL,36108,USA
4132 Northwest 57th Street,Oklahoma City,OK,73112,USA
324 Martin Luther King Junior Boulevard,Fayetteville,AR,72701,USA
341 West Tudor Road,Anchorage,AK,99503,USA
1840 Nobel Place,Louisville,KY,40216,USA
824 Main Street,Manchester,CT,06040,USA
7401 West Arrowhead Clubhouse Drive,Glendale,AZ,85308,USA
3145 19th Avenue Court,Greeley,CO,80631,USA
1583 Elberta Court,Severn,MD,21144,USA
2417 Becker Place,Del City,OK,73115,USA
310 Timrod Road,Manchester,CT,06040,USA
1309 Graniteville Road,Williamstown,VT,05679,USA
7237 Wild Currant Way,Oakland,CA,94611,USA
6241 Hudson Creek Drive,Louisville,KY,40291,USA
2327 Pomeroy Road Southeast,Washington,AR,20020,USA
1404 James Way,Edgewater,MD,21037,USA
814 Keswick Boulevard,Louisville,KY,40217,USA
5337 West Wheeler Road,Fayetteville,AR,72704,USA
4516 Old Seward Highway,Anchorage,AK,99503,USA
8427 West Glendale Avenue,Glendale,AZ,85305,USA
37122 Contra Costa Avenue,Fremont,CA,94536,USA
337 South Drive,Severna Park,MD,21146,USA
1637 Delphil Street,Pueblo,CO,81006,USA
3301 Old Muldoon Road,Anchorage,AK,99504,USA
1416 Ridgewood Avenue,Panama City,FL,32404,USA
275 South 40th Street,Boulder,CO,80305,USA
1276 Bending Creek Drive,Nashville,TN,37013,USA
1011 Irving Street Northeast,Washington,AR,20017,USA
312 Shepherd Hills Drive,Nashville,TN,37115,USA
604 Northwest 118th Street,Oklahoma City,OK,73114,USA
5 Westlund Avenue,Auburn,MA,01501,USA
912 Locklayer Street,Nashville,TN,37208,USA
6276 Devinney Circle,Arvada,CO,80004,USA
2317 Fernwood Drive,Nashville,TN,37216,USA
1653 Brooks Avenue,Fayetteville,AR,72701,USA
1780 142nd Avenue,San Leandro,CA,94578,USA
802 East 37th Street,Savannah,GA,31401,USA
18789 Crane Avenue,Castro Valley,CA,94546,USA
5039 North 57th Avenue,Glendale,AZ,85301,USA
1600 20th Street Northwest,Washington,AR,20009,USA
1902 6th Street Northwest,Washington,AR,20001,USA
711 Parker Street,East Longmeadow,MA,01028,USA
513 10th Street Southeast,Washington,AR,20003,USA
584 Rural Hill Road,Nashville,TN,37217,USA
3722 Kisling Loop,Tyndall Air Force Base,FL,32403,USA
328 South Ranchwood Manor Drive,Oklahoma City,OK,73139,USA
435 Porter Lake Drive,Springfield,MA,01106,USA
4333 Catherine Street,Panama City Beach,FL,32408,USA
717 Joseph Avenue,Nashville,TN,37207,USA
270 Tampa Drive,Nashville,TN,37211,USA
5510 Montgomery Street,Savannah,GA,31405,USA
2909 Minnesota Avenue,Lynn Haven,FL,32444,USA
28250 Dickens Avenue,Hayward,CA,94544,USA
7810 Spring Farm Pointe Place,Prospect,KY,40059,USA
22825 North 74th Lane,Glendale,AZ,85310,USA
319 West Silverwood Drive,Midwest City,OK,73110,USA
3825 West Muhammad Ali Boulevard,Louisville,KY,40212,USA
108 Chalmers Avenue,Glen Burnie,MD,21061,USA
503 Blackwood Terrace Southeast,Calhoun,GA,30701,USA
112 Shannon Road,Colchester,VT,05446,USA
926 Mill Court,Savannah,GA,31419,USA
137 Gazebo East Drive,Montgomery,AL,36117,USA
9636 Morar Road,Panama City,FL,32409,USA
1906 Palmetto Avenue,Panama City,FL,32405,USA
618 Staley Avenue,Hayward,CA,94541,USA
27 Leary Drive,Savannah,GA,31406,USA
141 West Leslie Lane,Panama City Beach,FL,32407,USA
1992 West Street,Brookfield,VT,05036,USA
3609 Meadow Drive,Nashville,TN,37215,USA
31770 Alvarado Boulevard,Union City,CA,94587,USA
1815 Grove Hill Lane,Montgomery,AL,36106,USA
3138 Banneker Drive Northeast,Washington,AR,20018,USA
553 South Arlington Road,Orange,CA,92869,USA
1402 Maggies Way,Waterbury Center,VT,05677,USA
5985 Lamar Street,Arvada,CO,80003,USA
17794 West 77th Lane,Arvada,CO,80007,USA
2849 Quail Drive,Fayetteville,AR,72704,USA
18117 Muldrow Street,Anchorage,AK,99577,USA
600 West North Street,Fayetteville,AR,72701,USA
2835 Jed Road,Escondido,CA,92027,USA
1160 North College Avenue,Fayetteville,AR,72703,USA
52 Park Street,Manchester,CT,06040,USA
89 Plaistow Road,Haverhill,MA,01830,USA
631 West 32nd Avenue,Anchorage,AK,99503,USA
208 Timrod Road,Manchester,CT,06040,USA
159 Adams Street,Manchester,CT,06040,USA
22 South Duncan Avenue,Fayetteville,AR,72701,USA
919 Windsor Avenue,Annapolis,MD,21403,USA
7435 East Tulare Avenue,Fresno,CA,93737,USA
722 Oak Grove Circle,Severna Park,MD,21146,USA
1303 Kearny Street Northeast,Washington,AR,20017,USA
827 10th Street Northeast,Washington,AR,20002,USA
12403 Deerfield Road,Savannah,GA,31419,USA
180 Center Street,Manchester,CT,06040,USA
14285 Wycliff Way,Magalia,CA,95954,USA
421 West 1st Avenue,Anchorage,AK,99501,USA
116 Jourdan Street,Hinesburg,VT,05461,USA
241 Braxton Way,Edgewater,MD,21037,USA
12546 West Montebello Avenue,Litchfield Park,AZ,85340,USA
1656 Newton Street Northwest,Washington,AR,20010,USA
6005 Tamarack Drive,Montgomery,AL,36117,USA
7326 North 62nd Avenue,Glendale,AZ,85301,USA
74 Heard Street,Chelsea,MA,02150,USA
10 Erick Road,Mansfield,MA,02048,USA
223 Main Street,Nashville,TN,37213,USA
3013 Sprowl Road,Jeffersontown,KY,40299,USA
6763 Depew Street,Arvada,CO,80003,USA
1010 10th Street Northeast,Washington,AR,20002,USA
1852 Cherry Road,Annapolis,MD,21409,USA
1026 Orchard Avenue,Louisville,KY,40213,USA
1811 1st Street Northwest,Washington,AR,20001,USA
311 South Panama Street,Montgomery,AL,36107,USA
34 Main Street,Gardner,MA,01440,USA
1238 Roanwood Way,Concord,CA,94521,USA
6231 North 67th Avenue,Glendale,AZ,85301,USA
45 Brackett Street,Quincy,MA,02169,USA
451 East Street,Huntington,VT,05462,USA
7822 Club Crest Drive,Arvada,CO,80005,USA
511 Norton Avenue,Nashville,TN,37207,USA
9805 South Youngs Lane,Oklahoma City,OK,73159,USA
1628 Button Bay Road,Vergennes,VT,05491,USA
6040 West Kings Avenue,Glendale,AZ,85306,USA
109 Summit Street,Burlington,VT,05401,USA
275 Ridge Lane,Waltham,MA,02452,USA
1194 Cragmont Avenue,Berkeley,CA,94708,USA
5275 North 59th Avenue,Glendale,AZ,85301,USA
218 Durham Park Way,Pooler,GA,31322,USA
2209 June Drive,Nashville,TN,37214,USA
Career Avenue,Washington,AR,20032,USA
182 Irving Street,Manchester,CT,06042,USA
61 Callahan Way,Mammoth Lakes,CA,93546,USA
8112 Equestrian Drive,Severn,MD,21144,USA
368 Winthrop Court,Montgomery,AL,36104,USA
1841 Logan Street,Anchorage,AK,99508,USA
713 East 32nd Street,Savannah,GA,31401,USA
15010 North 59th Avenue,Glendale,AZ,85306,USA
2147 Millhaven Drive,Edgewater,MD,21037,USA
102 Old Depot Road,Farmington,AR,72730,USA
4316 Sunnybrook Drive,Montgomery,AL,36108,USA
19803 North Mitkof Loop,Anchorage,AK,99577,USA
9920 West 81st Avenue,Arvada,CO,80005,USA
49 West Street,Bolton,VT,05676,USA
3111 West Place Southeast,Washington,AR,20020,USA
412 Virginia Avenue,Louisville,KY,40222,USA
4513 Beth Manor Drive,Montgomery,AL,36109,USA
3 Kimball Street,Marblehead,MA,01945,USA
1900 Lincoln Street,Savannah,GA,31401,USA
188 River Road,Essex,VT,05452,USA
4604 West 19th Court,Panama City,FL,32405,USA
7711 North 51st Avenue,Glendale,AZ,85301,USA
3100 Gentilly Court,Montgomery,AL,36116,USA
517 West 33rd Street,Savannah,GA,31415,USA
2100 Sandy Creek Trail,Edmond,OK,73013,USA
11901 Northern Raven Drive,Anchorage,AK,99516,USA
6080 Frontier Lane,Nashville,TN,37211,USA
597 East Miracle Drive,Fayetteville,AR,72701,USA
7132 South Villa Avenue,Oklahoma City,OK,73159,USA
396 Berkshire Drive,Riva,MD,21140,USA
1380 Quincy Street Northwest,Washington,AR,20011,USA
5370 Business Park Drive,Montgomery,AL,36116,USA
9428 North 65th Drive,Glendale,AZ,85302,USA
4525 West Frier Drive,Glendale,AZ,85301,USA
5408 Iris Street,Arvada,CO,80002,USA
8506 Laviento Drive,Anchorage,AK,99515,USA
41 Fairway Drive,Tewksbury,MA,01876,USA
2400 Easy Street,San Leandro,CA,94578,USA
1452 55th Avenue,Oakland,CA,94621,USA
243 New State Road,Manchester,CT,06042,USA
1930 Churchview Court,Millersville,MD,21108,USA
287 Lawndale Drive,Nashville,TN,37211,USA
19141 Pine Ridge Circle,Anchorage,AK,99516,USA
521 McGregor Court,Montgomery,AL,36117,USA
7931 West 55th Avenue,Arvada,CO,80002,USA
56 Gardner Street,Manchester,CT,06040,USA
2063 Notchbrook Road,Stowe,VT,05672,USA
1110 Okie Street Northeast,Washington,AR,20002,USA
3813 Vanguard Drive,Louisville,KY,40229,USA
982 Stonington Drive,Arnold,MD,21012,USA
70 Valley Road,Louisville,KY,40204,USA
353 Cotswold Cmns,Norman,OK,73072,USA
1426 C Street Southeast,Washington,AR,20003,USA
8036 Laketowne Court,Severn,MD,21144,USA
12064 West 61st Avenue,Arvada,CO,80004,USA
138 Bolton Street,Manchester,CT,06040,USA
29 White Oak Drive,undefined,VT,05465,USA
208 Kinnaird Lane,Louisville,KY,40243,USA
72 Salmon Road,Alameda,CA,94502,USA
3528 Seasons Drive,Nashville,TN,37013,USA
3617 Oak Grove Circle,Montgomery,AL,36116,USA
2318 Camryns Crossing,Panama City,FL,32405,USA
6275 Eric Lane,Montgomery,AL,36116,USA
4444 Hansen Avenue,Fremont,CA,94536,USA
1358 Scenic Avenue,Berkeley,CA,94708,USA
227 West Montgomery Cross Road,Savannah,GA,31406,USA
721 Bay Ridge Avenue,Annapolis,MD,21403,USA
9306 Norton Commons Boulevard,Prospect,KY,40059,USA
171 Tolland Turnpike,Manchester,CT,06042,USA
3142 North Warwick Drive,Fayetteville,AR,72703,USA
3534 Saint Lawrence Road,Nashville,TN,37080,USA
4201 Georgia Avenue Northwest,Washington,AR,20011,USA
3521 Stargate Circle,Anchorage,AK,99517,USA
302 East Granada Street,Fayetteville,AR,72703,USA
534 Hamilton Street Northeast,Washington,AR,20011,USA
2506 West Madison Street,Louisville,KY,40211,USA
1734 Tamarack Street Northwest,Washington,AR,20012,USA
6373 West Golden Lane,Glendale,AZ,85302,USA
3219 Lakeshore Drive,Nashville,TN,37138,USA
1865 North Higley Road,Mesa,AZ,85205,USA
605 Main Street,Watertown,MA,02472,USA
207 Joe Street,Farmington,AR,72730,USA
3 Dayton Street,Chelmsford,MA,01863,USA
3065 East Pebblestone Drive,Fayetteville,AR,72701,USA
700 Towering Oak Court,Glen Burnie,MD,21061,USA
4113 Holiday Drive,Panama City,FL,32408,USA
8401 Pinewood Drive,Oklahoma City,OK,73135,USA
16 Cabot Street,Everett,MA,02149,USA
5811 Crossings Boulevard,Nashville,TN,37013,USA
222 Quince Street,San Diego,CA,92103,USA
1363 Dean Forest Road,Savannah,GA,31405,USA
2A Cleveland Park Rd,Freetown,MA,02717,USA
800 California 116,Sebastopol,CA,95472,USA
130 Old Route 103,Chester,VT,05143,USA
74 Springfield Street,Agawam,MA,01001,USA
700 Revels Drive,Nashville,TN,37207,USA
7308 Northwest 119th Street,Oklahoma City,OK,73162,USA
5740 North 59th Avenue,Glendale,AZ,85301,USA
6030 Newland Street,Arvada,CO,80003,USA
2196 East Jonquil Road,Fayetteville,AR,72703,USA
3323 Summerhill Drive,Fayetteville,AR,72703,USA
1707 6th Street Northwest,Washington,AR,20001,USA
2032 Gorgas Street,Montgomery,AL,36106,USA
465 Humboldt Way,Livermore,CA,94551,USA
2203 7th Street Road,Louisville,KY,40208,USA
201 East 9th Avenue,Anchorage,AK,99501,USA
1520 H Street Northwest,Washington,AR,20006,USA
62 High Street,Manchester,CT,06040,USA
35 Pilgrim Lane,Manchester,CT,06040,USA
6514 West Golden Lane,Glendale,AZ,85302,USA
95 Central Street,Springfield,MA,01105,USA
600 Marshall Street,Louisville,KY,40202,USA
1122 McDaniel Street,Sun City Center,FL,33573,USA
1601 East 19th Street,Edmond,OK,73013,USA
1914 Stratford Downs Drive,Montgomery,AL,36117,USA
10175 West 58th Place,Arvada,CO,80004,USA
566 Middle Turnpike East,Manchester,CT,06040,USA
51 Edgar Road,Scituate,MA,02066,USA
264 River Road,Richmond,VT,05477,USA
3770 North Front Street,Fayetteville,AR,72703,USA
5545 Saddlewood Lane,Brentwood,TN,37027,USA
1217 Greenwood Court,Nashville,TN,37206,USA
235 17th Street Southeast,Washington,AR,20003,USA
7401 North 61st Drive,Glendale,AZ,85301,USA
307 Joel Street,Pooler,GA,31322,USA
4188 Summerview Drive,Louisville,KY,40272,USA
3228 Chettenham Drive,Rancho Cordova,CA,95670,USA
114 Middle Road,undefined,VT,05488,USA
3469 North Par Court,Fayetteville,AR,72703,USA
2572 Drake Street,Montgomery,AL,36108,USA
2811 Battery Place Northwest,Washington,AR,20016,USA
4216 Winter Lake Drive,Louisville,KY,40272,USA
35 Leominster Road,Lunenburg,MA,01462,USA
619 Colusa Avenue,Berkeley,CA,94707,USA
4432 Cobalt Drive,Harwood,MD,20776,USA
7404 West Crest Lane,Glendale,AZ,85310,USA
201 West Montgomery Cross Road,Savannah,GA,31406,USA
2622 Martin Luther King Junior Boulevard,Fayetteville,AR,72704,USA
5108 Franklin Street,Savannah,GA,31405,USA
9030 Pennington PIace,Montgomery,AL,36117,USA
110 Allen Place,Farmington,AR,72730,USA
1 Logan Circle Northwest,Washington,AR,20005,USA
4560 Hurlston Drive,Montgomery,AL,36116,USA
36360 Beech Place,Newark,CA,94560,USA
1309 Columbia Road Northwest,Washington,AR,20009,USA
316 Sourwood Court,Millersville,MD,21108,USA
618 Amberjack Drive,Panama City,FL,32408,USA
123 Blossom Road,Westport,MA,02790,USA
8202 4 Winds Drive,Lyndon,KY,40222,USA
150 Manistee Drive,Panama City Beach,FL,32413,USA
631 North Eastern Boulevard,Montgomery,AL,36117,USA
1275 South Holland Drive,Fayetteville,AR,72704,USA
4 Samuel Riggs Circle,Gloucester,MA,01930,USA
2150 Yarbrough Street,Montgomery,AL,36110,USA
100 East Joyce Boulevard,Fayetteville,AR,72703,USA
105 Gilmore Street,Glen Burnie,MD,21061,USA
7296 West Wedington Drive,Fayetteville,AR,72704,USA
2248 South Sutherland Drive,Montgomery,AL,36116,USA
6820 West 84th Circle,Arvada,CO,80003,USA
2320 Northwest 113th Place,Oklahoma City,OK,73120,USA
420 D Street Northwest,Ardmore,OK,73401,USA
533 Forest Ridge Court,Montgomery,AL,36109,USA
77 Weaver Road,Manchester,CT,06042,USA
2850 Davenport Street Northwest,Washington,AR,20008,USA
488 Mill Road,Hartford,VT,05001,USA
7851 Snow View Drive,Anchorage,AK,99507,USA
1 North School Avenue,Fayetteville,AR,72701,USA
11 Water Street,Holbrook,MA,02343,USA
7431 Candace Way,Louisville,KY,40214,USA
3033 Aubert Avenue,Louisville,KY,40206,USA
3612 Jim Robison Drive,Edmond,OK,73013,USA
7529 Perryman Court,undefined,MD,21226,USA
10802 Brickside Court,Riverview,FL,33579,USA
3504 Mount View Ridge Drive,Nashville,TN,37013,USA
2052 East 42nd Street,Savannah,GA,31404,USA
313 Post Road,Rutland,VT,05701,USA
3 Carvel Circle,Edgewater,MD,21037,USA
105 Inglewood Drive,Glen Burnie,MD,21060,USA
13583 West 68th Avenue,Arvada,CO,80004,USA
702 Farragut Street Northwest,Washington,AR,20011,USA
112 3rd Street Northeast,Washington,AR,20002,USA
1753 Carswell Court,Suisun City,CA,94585,USA
4755 Coventry Road,Montgomery,AL,36116,USA
1420 12th Street Northwest,Washington,AR,20005,USA
814 East 10th Court,Panama City,FL,32401,USA
10110 Landwood Drive,Louisville,KY,40291,USA
6862 North 44th Avenue,Glendale,AZ,85301,USA
1809 U.S. 80,Savannah,GA,31408,USA
1701 Atlantic Street,Union City,CA,94587,USA
228 East Huntingdon Street,Savannah,GA,31401,USA
1350 Exley Street,Savannah,GA,31415,USA
7613 Yule Court,Arvada,CO,80007,USA
517 Retford Drive,Severna Park,MD,21146,USA
3919 Landherr Drive,Louisville,KY,40299,USA
23124 North 71st Drive,Glendale,AZ,85310,USA
7725 Ney Avenue,Oakland,CA,94605,USA
4313 Wisconsin Street,Anchorage,AK,99517,USA
2894 Music Avenue,Grand Junction,CO,81506,USA
2732 North Ashbrook Drive,Fayetteville,AR,72703,USA
82 Roys Road,undefined,VT,05250,USA
4537 Tanglewood Trail,Boulder,CO,80301,USA
17 West 26th Circle,Fayetteville,AR,72701,USA
18426 West Carol Avenue,Waddell,AZ,85355,USA
42 Adams Road,Greenfield,MA,01301,USA
343 Daman Drive,Montgomery,AL,36108,USA
8841 Tempest Circle,Anchorage,AK,99507,USA
1101 West 48th Street,Savannah,GA,31405,USA
460 Woodbridge Street,Manchester,CT,06042,USA
1695 Archer Street,Savannah,GA,31405,USA
13426 West Rovey Avenue,Litchfield Park,AZ,85340,USA
9134 Brook Park Drive,Montgomery,AL,36117,USA
1761 Thousand Oaks Boulevard,Berkeley,CA,94707,USA
3652 East Blue Stone Drive,Fayetteville,AR,72764,USA
6729 North 54th Avenue,Glendale,AZ,85301,USA
4940 Fuller Road,Montgomery,AL,36110,USA
464 Springfield Street,Wilbraham,MA,01095,USA
1222 Arcade Boulevard,Sacramento,CA,95815,USA
208 Solitude Circle,Goodlettsville,TN,37072,USA
60 Montgomery Street,Springfield,MA,01151,USA
10202 Vista Drive,Cupertino,CA,95014,USA
110 Lenoak Drive,Louisville,KY,40214,USA
8409 Gullane Court,Pasadena,MD,21122,USA
87 Horseshoe Drive,West Windsor,VT,05037,USA
10841 Sutter Circle,Sutter Creek,CA,95685,USA
325 Baxter Lane,Fayetteville,AR,72701,USA
142 Ash Drive,Montgomery,AL,36117,USA
1632 North Lunsford Avenue,Fayetteville,AR,72701,USA
1420 Turtleback Trail,Panama City,FL,32413,USA
65 Arcellia Drive,Manchester,CT,06042,USA
6702 Johnny Mercer Boulevard,Savannah,GA,31410,USA
420 Cove Villa Street,Panama City Beach,FL,32407,USA
2411 Alteras Drive,Nashville,TN,37211,USA
1430 South Gay Avenue,Panama City,FL,32404,USA
40700 Penn Lane,Fremont,CA,94538,USA
6221 Allison Street,Arvada,CO,80004,USA
1025 West 19th Street,Panama City,FL,32405,USA
208 Towne Lake Way,Pooler,GA,31322,USA
5908 Sedberry Road,Nashville,TN,37205,USA
305 Broderick Place,Panama City Beach,FL,32413,USA
1552 Gibson Street,Montgomery,AL,36110,USA
15509 East 7th Circle,Aurora,CO,80011,USA
222 Holiday Circle,Savannah,GA,31419,USA
2278 North Windswept Lane,Fayetteville,AR,72703,USA
1030 Lake Claire Drive,Annapolis,MD,21409,USA
8007 Kendrick Crossing Lane,Louisville,KY,40291,USA
4 Marsh Haven Lane,Savannah,GA,31411,USA
2750 Gilmore Lane,Oroville,CA,95966,USA
11 Proctor Circle,Peabody,MA,01960,USA
5396 North Reese Avenue,Fresno,CA,93722,USA
211 Oak Street,Manchester,CT,06040,USA
474 Merritt Avenue,Oakland,CA,94610,USA
709 Mildred Street,Montgomery,AL,36104,USA
32 Country Club Boulevard,Dartmouth,MA,02747,USA
4409 Star Jasmine Court,Bakersfield,CA,93304,USA
7100 Old Seward Highway,Anchorage,AK,99518,USA
84 Holbrook Street,North Adams,MA,01247,USA
61 Cubles Drive,Brimfield,MA,01010,USA
8358 WB&A Road,Severn,MD,21144,USA
2 Cockle Shell Road,Savannah,GA,31419,USA
314 Cherrywood Drive,Moore,OK,73160,USA
82 Linnmore Drive,Manchester,CT,06040,USA
2300 Deer Path Circle,Hurstbourne Acres,KY,40220,USA
30 Curtis Road,Milton,MA,02186,USA
1528 Stafford Avenue,Hayward,CA,94541,USA
1904 Baker Court,Panama City,FL,32401,USA
17623 Norma Lane,Fountain,FL,32438,USA
6928 North 87th Lane,Glendale,AZ,85305,USA
1414 West 7th Avenue,Anchorage,AK,99501,USA
619 West 19th Avenue,Anchorage,AK,99503,USA
39 Tania Drive,Manchester,CT,06040,USA
882 Plantation Way,Montgomery,AL,36117,USA
5403 Illinois Avenue,Nashville,TN,37209,USA
12061 Johns Road,Anchorage,AK,99515,USA
1897 Poplar Ridge Road,Pasadena,MD,21122,USA
4960 Paddock Club Drive,Montgomery,AL,36116,USA
1613 Ensenada Way,Aurora,CO,80011,USA
386 Daniels Road,New Haven,VT,05472,USA
211 West Oak Street,Louisville,KY,40203,USA
8467 Chase Drive,Arvada,CO,80003,USA
2399 East 14th Street,San Leandro,CA,94577,USA
3413 Pheasant Run Road,Norman,OK,73072,USA
25 Morton Street,Quincy,MA,02169,USA
3617 Menlo Court,Montgomery,AL,36116,USA
6108 Iris Way,Arvada,CO,80004,USA
7717 Everett Street,Arvada,CO,80005,USA
2044 Bullard Street,Montgomery,AL,36106,USA
2269 Eastern Boulevard,Montgomery,AL,36117,USA
2902 North Gregg Avenue,Fayetteville,AR,72703,USA
5170 Hickory Hollow Parkway,Nashville,TN,37013,USA
829 Dunbarton Road,Montgomery,AL,36117,USA
6116 West Charter Oak Road,Glendale,AZ,85304,USA
150 Somersby Boulevard,Pooler,GA,31322,USA
678 Fairlane Street,Fayetteville,AR,72701,USA
841 Whittier Hill Road,undefined,VT,05647,USA
219 Bidwell Street,Manchester,CT,06040,USA
713 Ringgold Drive,Nashville,TN,37207,USA
8700 Seaton Boulevard,Montgomery,AL,36116,USA
308 Woodleaf Court,Glen Burnie,MD,21061,USA
239 Eastern Avenue,Fayetteville,AR,72701,USA
8496 Isles Court,Pasadena,MD,21122,USA
706 James Road,Glen Burnie,MD,21061,USA
501 West Maple Street,Fayetteville,AR,72701,USA
5113 Village Trace,Nashville,TN,37211,USA
921 Woodmont Boulevard,Nashville,TN,37204,USA
4255 Tanager Common,Fremont,CA,94555,USA
6234 West Behrend Drive,Glendale,AZ,85308,USA
4303 Ashleycreek Court,Louisville,KY,40241,USA
13417 West Marlette Court,Litchfield Park,AZ,85340,USA
733 East DeRenne Avenue,Savannah,GA,31405,USA
8513 Pipit Court,Montgomery,AL,36117,USA
594 Putnam Avenue,Cambridge,MA,02139,USA
7 Underwood Place Northwest,Washington,AR,20012,USA
44 Campfield Road,Manchester,CT,06040,USA
5430 Brookdale Avenue,Oakland,CA,94619,USA
228 Wood Street,New Bedford,MA,02745,USA
8671 West 78th Circle,Arvada,CO,80005,USA
38 Milford Street,Medway,MA,02053,USA
1504 P Street Northwest,Washington,AR,20005,USA
1149 Darwin Street,Savannah,GA,31415,USA
1313 Southwest 115th Place,Oklahoma City,OK,73170,USA
3104 Southwest 46th Street,Oklahoma City,OK,73119,USA
421 1/2 6th Street Southeast,Washington,AR,20003,USA
1720 D Street Northeast,Washington,AR,20002,USA
3300 Crystal Road,Montgomery,AL,36110,USA
124 Rod Key Street,Lyndon,VT,05851,USA
130 Carolina Cherry Circle,Pooler,GA,31322,USA
7105 Tanager Avenue,Glen Burnie,MD,21060,USA
8800 Northwest 92nd Street,Oklahoma City,OK,73132,USA
7060 Eastern Avenue,Washington,AR,20012,USA
1145 Chaseway Drive,Pike Road,AL,36064,USA
2310 Donleigh Court,Louisville,KY,40222,USA
111 Rosemary Street,Brockton,MA,02302,USA
1263 Evarts Street Northeast,Washington,AR,20018,USA
80 North East Street,Holyoke,MA,01040,USA
921 5th Street Southeast,Washington,AR,20003,USA
1013 Balboa Avenue,Capitola,CA,95010,USA
106 Parker Parkway,Mexico Beach,FL,32456,USA
16133 Hillsborough Boulevard,Port Charlotte,FL,33954,USA
240 Chatham Lane,Annapolis,MD,21403,USA
119 Redwood Road,Manchester,CT,06040,USA
4 Chamois Court,Pooler,GA,31322,USA
301 Argonaut Street,Panama City Beach,FL,32413,USA
7549 Delancey Street,Youngstown,FL,32466,USA
6231 North 59th Avenue,Glendale,AZ,85301,USA
22618 South Figueroa Street,Carson,CA,90745,USA
1566 Wingate Park Court,Montgomery,AL,36117,USA
5804 West Abraham Lane,Glendale,AZ,85308,USA
10 Dalry Lane,Savannah,GA,31419,USA
1710 Monroe Street Northeast,Washington,AR,20018,USA
270 Chrissy's Court,undefined,VT,05443,USA
3801 North Ann Arbor Place,Oklahoma City,OK,73122,USA
8415 Running Spring Drive,Louisville,KY,40241,USA
182 Regency Circle,Pooler,GA,31322,USA
4221 East Mission Boulevard,Fayetteville,AR,72703,USA
238 Brookley Avenue Southwest,Washington,AR,20373,USA
2708 Mabel Street,Berkeley,CA,94702,USA
2534 Willena Avenue,Montgomery,AL,36107,USA
505 Tarpon Street,Panama City Beach,FL,32413,USA
8 Village Circle,Randolph,VT,05060,USA
3616 Echo Lane,Nashville,TN,37218,USA
599 Cambridge Street,Cambridge,MA,02141,USA
519 Roxboro Place Northwest,Washington,AR,20011,USA
4712 Cherokee Heights Road,Panama City,FL,32404,USA
1606 Trevilian Way,Louisville,KY,40205,USA
1908 Peachtree Avenue,Oklahoma City,OK,73121,USA
236 Alden Road,Hayward,CA,94541,USA
3555 Alamosa Drive,Anchorage,AK,99502,USA
3328 Sunny Meadows Court,Birmingham,AL,35242,USA
2375 Main Street,Palmer,MA,01069,USA
96 Lakehouse Drive,Fairlee,VT,05045,USA
4225 Eatons Creek Road,Nashville,TN,37218,USA
732 Kevin Court,Oakland,CA,94621,USA
232 Maine Avenue,Panama City,FL,32401,USA
9545 West 74th Avenue,Arvada,CO,80005,USA
1537 Northwest 123rd Street,Oklahoma City,OK,73120,USA
776 Morrill Road,Danville,VT,05828,USA
1320 Dunbarton Road,Montgomery,AL,36117,USA
816 West 19th Avenue,Anchorage,AK,99503,USA
4486 U.S. 5,Newport,VT,05855,USA
507 Castlebrook Drive,Montgomery,AL,36110,USA
14 Tranquil Place,Pooler,GA,31322,USA
819 Beazer Lane,Nashville,TN,37013,USA
3808 Richland Avenue,Nashville,TN,37205,USA
615 Sand Road,Severn,MD,21144,USA
4717 Forest Hills Drive,Noble,OK,73068,USA
8159 West 81st Avenue,Arvada,CO,80005,USA
61 Thomas Street,Dedham,MA,02026,USA
103 Chevis Road,Savannah,GA,31419,USA
996 Ed Noble Parkway,Norman,OK,73072,USA
645 G Street,Anchorage,AK,99501,USA
82 Lookout Mountain Drive,Manchester,CT,06040,USA
5205 West Thunderbird Road,Glendale,AZ,85306,USA
8447 West 51st Avenue,Arvada,CO,80002,USA
2032 4th Street Northwest,Washington,AR,20001,USA
9472 Noble Way,Arvada,CO,80007,USA
8302 Star Point Court,Prospect,KY,40059,USA
555 North Dupont Avenue,Nashville,TN,37115,USA
4742 Bellevue Avenue,Louisville,KY,40215,USA
7841 North 59th Lane,Glendale,AZ,85301,USA
6754 Field Street,Arvada,CO,80004,USA
8752 Pierce Way,Arvada,CO,80003,USA
467 Biscayne Avenue Northwest,Palm Bay,FL,32907,USA
3610 Story Road,San Jose,CA,95127,USA
25 Wendys Way,Harwich,MA,02645,USA
954 Dowler Drive,Eureka,CA,95501,USA
1521 North Olympic Club Avenue,Fayetteville,AR,72704,USA
38 Devon Drive,Manchester,CT,06040,USA
16 Fuller Street,Brookline,MA,02446,USA
21 Longview Bluff Drive East,Savannah,GA,31419,USA
269 Hugh Thomas Drive,Panama City,FL,32404,USA
3642 Chatsworth Road,Fayetteville,AR,72703,USA
1156 Greenhill Road,Arnold,MD,21012,USA
601 Farragut Place Northeast,Washington,AR,20017,USA
3 Hawser Way,Port Wentworth,GA,31407,USA
1 Pond View Road,Proctor,VT,05765,USA
2355 Pearl Point,Fayetteville,AR,72701,USA
4511 43rd Place Northwest,Washington,AR,20016,USA
8820 Vaughn Road,Montgomery,AL,36117,USA
1209 Meehan Road,undefined,VT,05443,USA
8378 Cole Street,Arvada,CO,80005,USA
881 Main Street,Manchester,CT,06040,USA
66 Pine Street,Manchester,CT,06040,USA
8556 Nelson Court,Arvada,CO,80005,USA
407 Morse Street Northeast,Washington,AR,20002,USA
2335 Orchard View Lane,Escondido,CA,92027,USA
1333 Kenyon Street Northwest,Washington,AR,20010,USA
60 Desousa Drive,Manchester,CT,06040,USA
595 West 54th Street,Savannah,GA,31405,USA
743 East 9th Avenue,Anchorage,AK,99501,USA
6483 West 76th Avenue,Arvada,CO,80003,USA
2716 Fairmont Drive,Panama City,FL,32405,USA
5900 Upland Road,Brooklyn Park,MD,21225,USA
1505 Rosewood Avenue,Louisville,KY,40204,USA
3604 Ridgehaven Drive,Midwest City,OK,73110,USA
8 Elmwood Drive,Rutland,VT,05701,USA
238 West Rock Street,Fayetteville,AR,72701,USA
429 Patterson Street,Nashville,TN,37211,USA
650 Malvern Street,Montgomery,AL,36108,USA
645 Governor Bridge Road,Davidsonville,MD,21035,USA
8673 Burkitt Place Drive,Nolensville,TN,37135,USA
6160 Norm Drive,Anchorage,AK,99507,USA
1806 Boscobel Street,Nashville,TN,37206,USA
120 Wells Avenue,Glen Burnie,MD,21061,USA
816 East 69th Street,Savannah,GA,31405,USA
1609 Porter Avenue,Nashville,TN,37206,USA
115 Saint John Street,Manchester,CT,06040,USA
314 Mesa Street,Wheatland,CA,95692,USA
49548 Road 200,O'Neals,CA,93645,USA
1310 Riggs Street Northwest,Washington,AR,20009,USA
82 East Foster Street,Melrose,MA,02176,USA
210 Beachcomber Drive,Pismo Beach,CA,93449,USA
5420 Sunset Avenue,Panama City Beach,FL,32408,USA
514 Flower Lane,Alameda,CA,94502,USA
6418 Iris Way,Arvada,CO,80004,USA
2927 Leatherwood Drive,Nashville,TN,37214,USA
23 Whitcomb Street,Springfield,VT,05156,USA
840 River Crest Court,Louisville,KY,40206,USA
1495 Snell Boulevard,Nashville,TN,37218,USA
37 Fieldside Drive,Groton,CT,06340,USA
9403 Fairground Road,Louisville,KY,40291,USA
22207 Quinterno Court,Cupertino,CA,95014,USA
21323 North 64th Avenue,Glendale,AZ,85308,USA
95 Briarwood Drive,Manchester,CT,06040,USA
72 Bentley Avenue,Poultney,VT,05764,USA
625 West Main Street,Moore,OK,73160,USA
8529 Old Harding Lane,Nashville,TN,37221,USA
81 Buck Hill Road,Guilford,VT,05301,USA
1819 14th Avenue,Nashville,TN,37208,USA
10304 North 179th Drive,Waddell,AZ,85355,USA
127 Andover Drive,Savannah,GA,31405,USA
1804 Calhoun Avenue,Panama City,FL,32405,USA
2027 North Shannon Drive,Fayetteville,AR,72703,USA
3001 Spyglass Hill Road,Edmond,OK,73034,USA
24647 Patricia Court,Hayward,CA,94541,USA
3321 Eureka Street,Anchorage,AK,99503,USA
91 85th Avenue,Fayetteville,AR,72704,USA
5224 Wasena Avenue,Baltimore,MD,21225,USA
10911 Torrington Road,Louisville,KY,40272,USA
7513 Lois Street,Panama City,FL,32404,USA
3415 Brookdale Drive,Santa Clara,CA,95051,USA
17 Hillcrest Road,Rutland,VT,05701,USA
18713 Shilstone Way,Edmond,OK,73012,USA
6740 West Montebello Avenue,Glendale,AZ,85303,USA
2 Ellenwood Street,Barre,VT,05641,USA
2505 Shadow Lane,Nashville,TN,37216,USA
60 Bagley Street,Saint Johnsbury,VT,05819,USA
1938 Arcadian Street,Savannah,GA,31405,USA
111 20th Street,Mexico Beach,FL,32456,USA
1828 Ridgewick Road,Glen Burnie,MD,21061,USA
1418 Paddocks Court,Crownsville,MD,21032,USA
7 Maple Hill Road,Aquinnah,MA,02535,USA
6463 Vrain Street,Arvada,CO,80003,USA
1613 Maple Timber Court,Nashville,TN,37013,USA
15238 North 65th Avenue,Glendale,AZ,85306,USA
9399 Yucca Way,Arvada,CO,80007,USA
19 Keyes Drive,Peabody,MA,01960,USA
309 Water Street,North Little Rock,AR,72117,USA
704 Crescent Road,Nashville,TN,37205,USA
120 North Block Avenue,Fayetteville,AR,72701,USA
10400 Royal Oak Road,Oakland,CA,94605,USA
606 National Street,Fayetteville,AR,72701,USA
457 Mountain Village Boulevard,Mountain Village,CO,81435,USA
301 East Court,Savannah,GA,31404,USA
12371 Atlanta Highway,Montgomery,AL,36117,USA
20117 Lucas Avenue,Anchorage,AK,99577,USA
1405 Mercedes Avenue,Panama City,FL,32401,USA
78 School Street,Woburn,MA,01801,USA
6748 West San Juan Avenue,Glendale,AZ,85303,USA
185 Woodlawn Road,Burlington,VT,05408,USA
9 Kimball Court,Burlington,MA,01803,USA
5619 Clay Place Northeast,Washington,AR,20019,USA
203 East Gwinnett Street,Savannah,GA,31401,USA
1720 Quacco Road,Pooler,GA,31322,USA
11256 Palos Verdes Court,Cupertino,CA,95014,USA
72 Milford Road,Manchester,CT,06042,USA
306 East Lafayette Street,Fayetteville,AR,72701,USA
5 Yerxa Road,Cambridge,MA,02140,USA
5836 Red Barn Road,Montgomery,AL,36116,USA
23622 Greatland Drive,Anchorage,AK,99567,USA
195 Nursery Street,Springfield,MA,01104,USA
2134 West Mills Drive,Orange,CA,92868,USA
44 Elm Street,East Longmeadow,MA,01028,USA
7405 River Park Drive,Nashville,TN,37221,USA
11102 Little Rock Court,Louisville,KY,40241,USA
222 Plymouth Street,Middleborough,MA,02346,USA
1 Kempf Drive,Easton,MA,02375,USA
34 Holyoke Road,Manchester,CT,06040,USA
3449 Rockway Avenue,Annapolis,MD,21403,USA
8474 Chase Drive,Arvada,CO,80003,USA
487 Maury Street,Montgomery,AL,36104,USA
1701 Foster Avenue,Panama City,FL,32405,USA
113 Dove Lane,Savannah,GA,31406,USA
63 Summit Street,Manchester,CT,06040,USA
30 Tanner Street,Manchester,CT,06042,USA
410 West 89th Avenue,Anchorage,AK,99515,USA
6086 Kennedy Drive,Fayetteville,AR,72704,USA
307 Meadowood Court,Lynn Haven,FL,32444,USA
4050 Bryce Road,Nashville,TN,37211,USA
634 Chautauqua Avenue,Norman,OK,73069,USA
3098 Vermont 122,Sheffield,VT,05866,USA
900 Dupont Road,Louisville,KY,40207,USA
68 Bigelow Street,Manchester,CT,06040,USA
2747 68th Avenue,Oakland,CA,94605,USA
4375 West Missouri Avenue,Glendale,AZ,85301,USA
2017 North Hartford Drive,Fayetteville,AR,72701,USA
15771 West 64th Avenue,Arvada,CO,80403,USA
108 Springer Lane,Yarmouth,MA,02673,USA
10307 Rock Falls Court,Louisville,KY,40223,USA
1 Blue Jay Terrace,Wareham,MA,02571,USA
5119 West Columbine Drive,Glendale,AZ,85304,USA
1002 Cedar Ridge Court,Annapolis,MD,21403,USA
701 Mussel Slough Road,Hanford,CA,93230,USA
162 Wells Street,Manchester,CT,06040,USA
324 Tulip Oak Court,Linthicum Heights,MD,21090,USA
17372 Crestview Road,Fayetteville,AR,72701,USA
179 Blue Ridge Drive,Manchester,CT,06040,USA
7 South University Avenue,Fayetteville,AR,72701,USA
8064 Claytie Circle,Nashville,TN,37221,USA
1805 Meade Village Circle,Severn,MD,21144,USA
5630 Silverado Way,Anchorage,AK,99518,USA
328 Missouri Avenue Northwest,Washington,AR,20011,USA
16 Harlow Road,Springfield,VT,05156,USA
19259 North 61st Drive,Glendale,AZ,85308,USA
4000 Beth Manor Drive,Montgomery,AL,36109,USA
32512 Christine Drive,Union City,CA,94587,USA
565 North Lakeshore Drive,Panama City Beach,FL,32413,USA
1515 Chandlee Avenue,Panama City,FL,32405,USA
1508 Massachusetts Avenue Southeast,Washington,AR,20003,USA
10612 Middleground Road,Savannah,GA,31419,USA
58 Rice Street Southwest,Washington,AR,20032,USA
5650 West 60th Avenue,Arvada,CO,80003,USA
835 Shiloh Court,Redding,CA,96003,USA
7321 Mary Jo Avenue,Panama City,FL,32409,USA
10277 West 52nd Place,Wheat Ridge,CO,80033,USA
1425 Claremont Circle,Savannah,GA,31415,USA
5118 Augusta Road,Garden City,GA,31408,USA
217 Northeast 1st Street,Moore,OK,73160,USA
313 Wiley Street,Nashville,TN,37115,USA
901 Samson Road,Saint Albans City,VT,05478,USA
2316 Northwest 113th Street,Oklahoma City,OK,73120,USA
3578 Galindo Street,Oakland,CA,94601,USA
618 Ava Circle Northeast,Washington,AR,20017,USA
6710 Quay Street,Arvada,CO,80003,USA
2641 Heather Lane,Redding,CA,96002,USA
2107 Elfen Glen,Van Buren,AR,72956,USA
2212 Greenville Street,Montgomery,AL,36107,USA
415 West 42nd Street,Savannah,GA,31401,USA
6622 West Altadena Avenue,Glendale,AZ,85304,USA
145 Grau Drive,Fremont,CA,94536,USA
1514 Wyoming Avenue,Lynn Haven,FL,32444,USA
28 Wilfred Road,Manchester,CT,06040,USA
3437 Sommerville Drive,Montgomery,AL,36111,USA
218 Saint Antons Way,Arnold,MD,21012,USA
1226 Blossom Circle,Livermore,CA,94550,USA
6233 South Hampton Drive,Montgomery,AL,36116,USA
8315 Surf Drive,Panama City Beach,FL,32408,USA
415 Lullwater Drive,Panama City Beach,FL,32413,USA
7229 Lewis Place,Anchorage,AK,99507,USA
235 Brock Bridge Road,Laurel,MD,20724,USA
143 Main Street,Manchester,CT,06042,USA
11 North Vineyard Drive,Pueblo West,CO,81007,USA
8505 Waters Avenue,Savannah,GA,31406,USA
7041 Dover Avenue,North Beach,MD,20714,USA
733 Georgetown Drive,Nashville,TN,37205,USA
1208 Lindenwood Drive,Panama City,FL,32405,USA
2313 Vegas Avenue,Castro Valley,CA,94546,USA
1650 Garland Avenue,Fayetteville,AR,72703,USA
1601 Algonquin Parkway,Louisville,KY,40210,USA
2728 Hale Avenue,Louisville,KY,40211,USA
349 North Sabine Pass Road,Fayetteville,AR,72704,USA
116 9th Street Southeast,Washington,AR,20003,USA
320 South Ramblin Oaks Drive,Moore,OK,73160,USA
68 Princeton Street,Manchester,CT,06042,USA
100 Fenwick Village Drive,Savannah,GA,31419,USA
12 Netherclift Way,Savannah,GA,31411,USA
815 West Market Street,Louisville,KY,40202,USA
6604 North 59th Avenue,Glendale,AZ,85301,USA
13426 North 54th Drive,Glendale,AZ,85304,USA
125 Summer Street,Manchester,CT,06040,USA
4700 10th Street Northeast,Washington,AR,20017,USA
2224 East Tall Oaks Drive,Fayetteville,AR,72703,USA
1954 Wilson Court,Mountain View,CA,94040,USA
1397 Tallac Lane,Lincoln,CA,95648,USA
12493 West 84th Circle,Arvada,CO,80005,USA
47634 Kato Road,Fremont,CA,94538,USA
152 Holly Court,Mountain View,CA,94043,USA
260 Park Avenue,Pooler,GA,31322,USA
8121 Copper Creek Drive,Lyndon,KY,40222,USA
9110 North 63rd Drive,Glendale,AZ,85302,USA
1559 Alabama Avenue Southeast,Washington,AR,20032,USA
1123 Ardee Avenue,Nashville,TN,37216,USA
836 Lamont Street Northwest,Washington,AR,20010,USA
302 Mcmillin Street,Nashville,TN,37203,USA
73455 Twentynine Palms Highway,Twentynine Palms,CA,92277,USA
95 Middle Turnpike West,Manchester,CT,06040,USA
1731 West 18th Street,Fayetteville,AR,72701,USA
5747 West Missouri Avenue,Glendale,AZ,85301,USA
1612 Whitemarsh Way,Savannah,GA,31410,USA
4821 Milner Drive,Nashville,TN,37211,USA
243 McKee Street,Manchester,CT,06040,USA
1250 Pram Place,Annapolis,MD,21403,USA
2704 McGee Avenue,Berkeley,CA,94703,USA
3517 S Street Northwest,Washington,AR,20007,USA
7911 Deronia Avenue,Louisville,KY,40222,USA
3904 Martagon Circle,Anchorage,AK,99516,USA
1630 Eton Way,Crofton,MD,21114,USA
1427 South Carolina Avenue Southeast,Washington,AR,20003,USA
85 Hokum Rock Road,Dennis,MA,02638,USA
5330 Shaun Circle,Anchorage,AK,99507,USA
1835 Pointer Lane,Fayetteville,AR,72701,USA
61 Plymouth Lane,Manchester,CT,06040,USA
2068 Happy Lane,Crofton,MD,21114,USA
4695 East Huntsville Road,Fayetteville,AR,72701,USA
1304 Southwest 67th Street,Oklahoma City,OK,73159,USA
6601 North 62nd Avenue,Glendale,AZ,85301,USA
8398 West 62nd Place,Arvada,CO,80004,USA
1939 Greenwood Street,Savannah,GA,31404,USA
26334 Adrian Avenue,Hayward,CA,94545,USA
6143 Prosperity Drive,Anchorage,AK,99504,USA
37 Kensington Street,Manchester,CT,06040,USA
303 Addison Drive,Glen Burnie,MD,21060,USA
24 Lawton Road,Manchester,CT,06042,USA
12245 West 71st Place,Arvada,CO,80004,USA
2708 Riverview Drive,Riva,MD,21140,USA
5614 Kipling Parkway,Arvada,CO,80002,USA
3500 South College Avenue,Fort Collins,CO,80525,USA
410 Fairlea Drive,Edgewater,MD,21037,USA
2237 Northwest 18th Street,Oklahoma City,OK,73107,USA
13 Warren Avenue,Somerville,MA,02143,USA
6412 Lenawee Street,Panama City,FL,32404,USA
1838 Crofton Parkway,Crofton,MD,21114,USA
731 Mumford Street,Anchorage,AK,99508,USA
2036 Hermitage Hills Drive,Gambrills,MD,21054,USA
10914 Oak Harbor Drive,Louisville,KY,40299,USA
2903 West 31st Avenue,Anchorage,AK,99517,USA
46710 Crawford Street,Fremont,CA,94539,USA
6516 Nile Circle,Arvada,CO,80007,USA
2900 North Western Avenue,Edmond,OK,73012,USA
1311 Elm Hill Pike,Nashville,TN,37210,USA
1208 Festival Lane,Montgomery,AL,36117,USA
6434 Wright Street,Arvada,CO,80004,USA
4 Glen Circle,Glen Burnie,MD,21060,USA
3904 October Woods Drive,Nashville,TN,37013,USA
5119 Marla Drive,Panama City,FL,32404,USA
75 Wilfred Road,Manchester,CT,06040,USA
204 Blue Hills Drive,Nashville,TN,37214,USA
206 Blue Marlin Drive,Savannah,GA,31410,USA
6401 Green Meadow Lane,Oklahoma City,OK,73132,USA
1108 Slater Street,Santa Rosa,CA,95404,USA
5434 West Beck Lane,Glendale,AZ,85306,USA
1828 East Parkshore Drive,Fayetteville,AR,72703,USA
14 Olympia Street,Norton,MA,02766,USA
632 Belmar Drive,Edmond,OK,73025,USA
1219 Carleton Street,Berkeley,CA,94702,USA
10881 Northforde Drive,Cupertino,CA,95014,USA
708 Pine Drift Drive,Odenton,MD,21113,USA
134 Butternut Road,Manchester,CT,06040,USA
7431 Gilbert Road,Panama City,FL,32404,USA
1124 Jacobs Court,Nashville,TN,37080,USA
3141 North Lancaster Lane,Fayetteville,AR,72703,USA
540 East Appleby Road,Fayetteville,AR,72703,USA
2713 Mitscher Road,Washington,AR,20373,USA
110 Central Junction Boulevard,Savannah,GA,31405,USA
700 Winston Place,Anchorage,AK,99504,USA
5130 Morris Way,Fremont,CA,94536,USA
23 Columbia Drive,Manchester,CT,06042,USA
327 Fairway Boulevard,Panama City Beach,FL,32407,USA
2507 R Street Southeast,Washington,AR,20020,USA
112 Joyner Avenue,Nashville,TN,37210,USA
2 Misty Marsh Drive,Savannah,GA,31419,USA
23 Cove Drive,Savannah,GA,31419,USA
5415 Frank Hough Road,Panama City,FL,32404,USA
1407 Walden Court,Crofton,MD,21114,USA
6823 Forsythe Drive,Panama City,FL,32404,USA
6622 West Mescal Street,Glendale,AZ,85304,USA
505 North Washington Avenue,Fayetteville,AR,72701,USA
15253 North 62nd Avenue,Glendale,AZ,85306,USA
439 Crestmont Drive,Oakland,CA,94619,USA
23 North Hill Street,Nashville,TN,37210,USA
968 Virginia Avenue,Olivehurst,CA,95961,USA
2307 East 72nd Avenue,Anchorage,AK,99507,USA
37 Parlmont Park,Billerica,MA,01862,USA
7808 Baltimore Annapolis Boulevard,Glen Burnie,MD,21060,USA
2140 Colony Loop,Anchorage,AK,99507,USA
1309 Southwest 71st Terrace,Oklahoma City,OK,73159,USA
34 Harris Street,Brookline,MA,02446,USA
14 Hillside Terrace,Richford,VT,05476,USA
200 Edson Road,Windham,VT,05359,USA
4221 Thompson Avenue,Anchorage,AK,99508,USA
747 West Pacific Avenue,Telluride,CO,81435,USA
414 Tanya Pass,Panama City,FL,32404,USA
318 Lydall Street,Manchester,CT,06042,USA
6123 West Marlette Avenue,Glendale,AZ,85301,USA
1608 Gales Street Northeast,Washington,AR,20002,USA
1709 Travers Court,Edmond,OK,73003,USA
5461 West Shades Valley Drive,Montgomery,AL,36108,USA
1376 Oakland Avenue,Fayetteville,AR,72703,USA
6041 North 72nd Lane,Glendale,AZ,85303,USA
22352 North 67th Drive,Glendale,AZ,85310,USA
2236 Susitna Drive,Anchorage,AK,99517,USA
268 Glengary Garth,Glen Burnie,MD,21061,USA
4182 North Valley Lake Drive,Fayetteville,AR,72703,USA
5706 Worchester Drive,Montgomery,AL,36116,USA
2109 Puddingtons Patent Way,Gambrills,MD,21054,USA
2604 13th Street,Savannah,GA,31408,USA
262 Mitchell Street,Groton,CT,06340,USA
15082 North 59th Avenue,Glendale,AZ,85306,USA
419 Wabasso Avenue,Louisville,KY,40209,USA
1213 Michigan Avenue,Lynn Haven,FL,32444,USA
3345 Archie Watkins Road,Farmington,AR,72730,USA
8243 Daniels Purchase Way,Millersville,MD,21108,USA
12013 Blue Moon Avenue,Oklahoma City,OK,73162,USA
815 Plantation Drive,Panama City,FL,32404,USA
654 Laurette Place,Hayward,CA,94544,USA
57 Pierpoint Avenue,Rutland,VT,05701,USA
1518 Jenks Avenue,Panama City,FL,32405,USA
915 Sacramento Street,Bakersfield,CA,93305,USA
2040 Innes Circle,Anchorage,AK,99515,USA
1920 Bladensburg Road Northeast,Washington,AR,20002,USA
932 Northwest 20th Street,Moore,OK,73160,USA
7102 North 43rd Avenue,Glendale,AZ,85301,USA
17 Marina Drive,Savannah,GA,31411,USA
1267 Martin Street,Nashville,TN,37203,USA
1008 Rhode Island Avenue Northwest,Washington,AR,20001,USA
7737 Wynlakes Boulevard,Montgomery,AL,36117,USA
3704 Hughes Road,Louisville,KY,40207,USA
4438 Maine Avenue,Baldwin Park,CA,91706,USA
43626 Bryant Street,Fremont,CA,94539,USA
53 Philip Road,Manchester,CT,06040,USA
6 Sawmill Lane,Westford,VT,05494,USA
101 Mustang Drive,San Luis Obispo,CA,93405,USA
1217 Bay Street,Tybee Island,GA,31328,USA
9712 Stream View Trail,Louisville,KY,40258,USA
1010 M Street Northwest,Washington,AR,20001,USA
45 Baldridge Road,Annapolis,MD,21401,USA
3111 Gentilly Court,Montgomery,AL,36116,USA
197 Oak Street,Manchester,CT,06040,USA
1726 Bridgeview Lane,Lyndon,KY,40242,USA
4920 Quonset Drive,Sacramento,CA,95820,USA
7506 Harvey Street,Panama City,FL,32404,USA
1749 Haleys Hope Court,Nashville,TN,37209,USA
4401 Virginia Avenue,Louisville,KY,40211,USA
644 Byam Road,Bethel,VT,05032,USA
1522 South 36th Street,Louisville,KY,40211,USA
7010 Fulton Court,Montgomery,AL,36117,USA
928 Wright Avenue,Mountain View,CA,94043,USA
1352 Purdue Street,San Leandro,CA,94579,USA
1102 Spy Glass Drive,Arnold,MD,21012,USA
406 North Hammonds Ferry Road,Linthicum Heights,MD,21090,USA
701 West 36th Avenue,Anchorage,AK,99503,USA
918 Cheryl Ann Circle,Hayward,CA,94544,USA
2729 East 14th Street,Panama City,FL,32401,USA
133 White Cap Way,Panama City Beach,FL,32407,USA
8569 Vermont 9,Woodford,VT,05201,USA
110 Castle Hill,Manchester,CT,06040,USA
52 Oleary Drive,Manchester,CT,06040,USA
218 Shipley Alley,Fayetteville,AR,72701,USA
1408 Holly Street,Nashville,TN,37206,USA
480 Keene Road,Walden,VT,05836,USA
6817 Brentwood Street,Arvada,CO,80004,USA
2130 Loren Circle,Fayetteville,AR,72701,USA
46 Deslauriers Street,Chicopee,MA,01020,USA
5116 Emmanuel Avenue,Anchorage,AK,99508,USA
1265 Xavier Avenue,Hayward,CA,94545,USA
154 Boca Lagoon Drive,Panama City Beach,FL,32408,USA
822 Bowden Street,Savannah,GA,31415,USA
9716 South Silver Lake Road,Fountain,FL,32438,USA
353 O Street Southwest,Washington,AR,20024,USA
2410 Pafford Drive,Nashville,TN,37206,USA
257 Broadway,Lynn,MA,01904,USA
435 East 5th Avenue,Anchorage,AK,99501,USA
20097 Butterfield Drive,Castro Valley,CA,94546,USA
565 Amber Isle,Alameda,CA,94501,USA
14854 Bay View Circle,Panama City Beach,FL,32413,USA
3951 Kimberly Street,Montgomery,AL,36116,USA
8125 Glynnwood Drive,Montgomery,AL,36117,USA
2115 Northwest 22nd Street,Oklahoma City,OK,73107,USA
3079 North Bentley Ridge,Fayetteville,AR,72704,USA
2021 West Burnett Avenue,Louisville,KY,40210,USA
22572 Toreador Drive,Salinas,CA,93908,USA
14505 Landis Villa Drive,Louisville,KY,40245,USA
6225 West Citrus Way,Glendale,AZ,85301,USA
6500 Thurlow Place,Edmond,OK,73034,USA
1125 West 41st Street,Savannah,GA,31415,USA
6741 West Robert E Lee Street,Glendale,AZ,85308,USA
3118 Sora Avenue,Louisville,KY,40213,USA
228 Common Street,Braintree,MA,02184,USA
5472 Sunstar Common,Fremont,CA,94555,USA
849 East Victoria Street,Carson,CA,90746,USA
322 East Taylor Street,Savannah,GA,31401,USA
6419 8th Street Northwest,Washington,AR,20012,USA
5444 Nicole Boulevard,Panama City,FL,32404,USA
82 Queen Court,Manchester,CT,06040,USA
103 Razz Way,Panama City Beach,FL,32408,USA
10654 North 60th Avenue,Glendale,AZ,85304,USA
2522 South College Drive,Fayetteville,AR,72701,USA
12725 Landmark Street,Anchorage,AK,99515,USA
16031 West 63rd Lane,Arvada,CO,80403,USA
9331 Edison Road,Lithia,FL,33547,USA
7681 Delridge Circle,Anchorage,AK,99507,USA
2334 Nantucket Drive,Crofton,MD,21114,USA
135 Northshore Drive,Burlington,VT,05408,USA
122 Summer Street,Medford,MA,02155,USA
736 Middle Turnpike East,Manchester,CT,06040,USA
905 C Street Northeast,Washington,AR,20002,USA
653 Stratton Arlington Road,Stratton,VT,05360,USA
50 Winthrop Avenue,Lawrence,MA,01843,USA
4000 Albemarle Street Northwest,Washington,AR,20016,USA
3720 West 86th Avenue,Anchorage,AK,99502,USA
8432 West 78th Circle,Arvada,CO,80005,USA
6201 West Olive Avenue,Glendale,AZ,85302,USA
112 Mallard Drive,Savannah,GA,31419,USA
5124 E Street Southeast,Washington,AR,20019,USA
2531 Prestwick Avenue,Concord,CA,94519,USA
903 Burton Avenue,Louisville,KY,40208,USA
220 Avenue B,Williston,VT,05495,USA
6 Greenleaf Drive,Merrimac,MA,01860,USA
4246 Ray Drive,Montgomery,AL,36109,USA
37600 Sycamore Street,Newark,CA,94560,USA
417 R Street Northwest,Washington,AR,20001,USA
4109 General Bate Drive,Nashville,TN,37204,USA
4130 Legation Street Northwest,Washington,AR,20015,USA
7 Vantine Avenue,Alburgh,VT,05440,USA
7952 South Algonquian Way,Aurora,CO,80016,USA
2311 West Lawson Street,Fayetteville,AR,72703,USA
14 Huntington Street,Manchester,CT,06040,USA
15 Lakewood Drive,Thunderbolt,GA,31410,USA
5514 West Altadena Avenue,Glendale,AZ,85304,USA
12 Kane Road,Manchester,CT,06040,USA
11501 Maple Way,Louisville,KY,40229,USA
46 Apel Place,Manchester,CT,06042,USA
450 C Street,Hayward,CA,94541,USA
848 Vermont 14,Woodbury,VT,05650,USA
241 Methuen Street,Lowell,MA,01850,USA
8349 West Stella Way,Glendale,AZ,85305,USA
2220 Kirk Avenue,Nashville,TN,37218,USA
111 Edgewater Road,Savannah,GA,31406,USA
1693 Alice Court,Annapolis,MD,21401,USA
1642 Fendall Court,Crofton,MD,21114,USA
265 Airport Road,Weathersfield,VT,05151,USA
3426 Broadview Street,Montgomery,AL,36110,USA
903 East 20th Avenue,Anchorage,AK,99501,USA
1164 Middle Turnpike West,Manchester,CT,06040,USA
265 Slater Street,Manchester,CT,06042,USA
6950 Reno Drive,Arvada,CO,80002,USA
2707 Eden Street,Nashville,TN,37208,USA
5036 Jericho Street,Hartford,VT,05001,USA
7085 Gladiola Street,Arvada,CO,80004,USA
2944 Sheldon Jackson Street,Anchorage,AK,99508,USA
100 Lake Forest Drive,Montgomery,AL,36117,USA
5311 Chenoweth Park Lane,Louisville,KY,40291,USA
325 Irwin Street,Anchorage,AK,99508,USA
8801 Rosshire Drive,Louisville,KY,40118,USA
8157 East Beach Drive Northwest,Washington,AR,20012,USA
12022 Town Park Circle,Anchorage,AK,99577,USA
10202 North 51st Drive,Glendale,AZ,85302,USA
1708 Melody Drive,Midwest City,OK,73130,USA
706 Seagrove Road,Glen Burnie,MD,21060,USA
2076 North Crossover Road,Fayetteville,AR,72703,USA
9436 Briarlea Court,Montgomery,AL,36117,USA
1631 Madison Avenue,Montgomery,AL,36107,USA
6120 Southeast 84th Street,Oklahoma City,OK,73135,USA
10 Tel Road,Woodford,VT,05201,USA
55 Armory Street,Quincy,MA,02169,USA
537 East Waldburg Street,Savannah,GA,31401,USA
2815 Saint Edwards Drive,Nashville,TN,37211,USA
10927 West 59th Avenue,Arvada,CO,80004,USA
85 West Seymeria Drive,Beverly Hills,FL,34465,USA
7573 National Drive,Livermore,CA,94550,USA
51035 Conifer Drive,Soda Springs,CA,95728,USA
3388 Thomasson Lane,Fairfield,CA,94534,USA
119 Captain Chase Road,Dennis,MA,02639,USA
314 Lallemand Court,Nashville,TN,37211,USA
531 Bobbin Mill Road,Lunenburg,VT,05906,USA
93 Hamlin Street,Manchester,CT,06040,USA
1710 Massachusetts Avenue Southeast,Washington,AR,20003,USA
2200 East Victory Drive,Savannah,GA,31404,USA
190 Countryside Drive,Farmington,AR,72730,USA
351 Porter Street,Manchester,CT,06040,USA
1709 West Market Street,Louisville,KY,40203,USA
1211 Friendship Avenue,Panama City,FL,32401,USA
21402 Caribbean Lane,Panama City Beach,FL,32413,USA
2732 West 67th Avenue,Anchorage,AK,99502,USA
2185 Howe Pond Road,Readsboro,VT,05350,USA
327 Idlewylde Drive,Louisville,KY,40206,USA
81 Lyness Street,Manchester,CT,06040,USA
6721 Boundary Run,Nashville,TN,37221,USA
6095 Terry Lane,Golden,CO,80403,USA
2246 West Fairview Avenue,Montgomery,AL,36108,USA
6604 West Montebello Avenue,Glendale,AZ,85301,USA
57 Birdie Lane,Tewksbury,MA,01876,USA
2409 Research Boulevard,Fort Collins,CO,80526,USA
6420 Via Baron,Rancho Palos Verdes,CA,90275,USA
20270 Andover Avenue,Port Charlotte,FL,33954,USA
1405 Hickory Avenue,Panama City,FL,32401,USA
35 Pilot Knob Lane,Telluride,CO,81435,USA
316 20th Street Northeast,Washington,AR,20002,USA
10222 Pine Glen Circle,Louisville,KY,40291,USA
70 Orchard Shore Road,Colchester,VT,05446,USA
4339 Oak Street,Montgomery,AL,36105,USA
9106 Ellis Way,Arvada,CO,80005,USA
2115 Longest Avenue,Louisville,KY,40204,USA
707 Harrisburg Drive,Davidsonville,MD,21035,USA
716 Waller Road,Brentwood,TN,37027,USA
5514 West Wedington Drive,Fayetteville,AR,72704,USA
449 Saratoga Lane,Montgomery,AL,36117,USA
172 Alburg Springs Road,Alburgh,VT,05440,USA
3313 East Tecumseh Road,Norman,OK,73071,USA
107 Mark Drive,Glen Burnie,MD,21061,USA
3601 South Portland Avenue,Oklahoma City,OK,73119,USA
2464 Windham Hill Road,Townshend,VT,05359,USA
2230 Armstrong Drive,Savannah,GA,31404,USA
906 West Berry Street,Fayetteville,AR,72701,USA
1635 Generals Highway,Annapolis,MD,21401,USA
141 Lavigne Road,Colchester,VT,05446,USA
88 Florence Street,New Bedford,MA,02740,USA
200 Boulder Road,Manchester,CT,06040,USA
3436 Lexington Road,Montgomery,AL,36111,USA
1403 Robinson Road,Nashville,TN,37138,USA
175 Creek Road,Castleton,VT,05735,USA
194 North Main Street,Webster,MA,01570,USA
228 Central Street,Milford,MA,01757,USA
12283 Thomas Lane,Yucaipa,CA,92399,USA
123 Villa View Court,Brentwood,TN,37027,USA
9506 Civic Way,Prospect,KY,40059,USA
12438 West 83rd Avenue,Arvada,CO,80005,USA
1606 Aaron Street,Montgomery,AL,36104,USA
53 Great Woods Road,Saugus,MA,01906,USA
1120 Mitchell Young Road,Montgomery,AL,36108,USA
1309 Clay Avenue,Panama City,FL,32401,USA
5434 Cedar Ash Crossing,Nashville,TN,37013,USA
5104 West Tierra Buena Lane,Glendale,AZ,85306,USA
7300 West 74th Place,Arvada,CO,80003,USA
31353 Santa Elena Way,Union City,CA,94587,USA
3354 Wilmington Road,Montgomery,AL,36105,USA
1040 University Avenue,Berkeley,CA,94710,USA
1300 Lemos Lane,Fremont,CA,94539,USA
26563 Chisholm Court,Hayward,CA,94544,USA
261 East Old Hickory Boulevard,Nashville,TN,37115,USA
210 Green Road,Manchester,CT,06042,USA
350 Lydall Street,Manchester,CT,06042,USA
1713 Apian Way,Edmond,OK,73003,USA
4672 A Street Southeast,Washington,AR,20019,USA
1230 Stafford Drive,Montgomery,AL,36117,USA
6740 Dickerson Drive,Anchorage,AK,99504,USA
8 Corona Street,undefined,VT,05733,USA
266 South J Street,Livermore,CA,94550,USA
4876 Norris Road,Fremont,CA,94536,USA
1809 Cedar Drive,Severn,MD,21144,USA
2821 Tyson Place,Louisville,KY,40218,USA
325 Alexander Drive,Lynn Haven,FL,32444,USA
5208 Colorado Avenue Northwest,Washington,AR,20011,USA
1403 12th Street Northwest,Washington,AR,20005,USA
1629 South Razorback Road,Fayetteville,AR,72701,USA
5801 South Watterson Trail,Louisville,KY,40291,USA
649 Praderia Circle,Fremont,CA,94539,USA
23 Florida Avenue Northeast,Washington,AR,20002,USA
1536 Rachaels Ridge,Nashville,TN,37076,USA
12460 West Solano Drive,Litchfield Park,AZ,85340,USA
65 Lowry Road,Falmouth,MA,02540,USA
8028 North 56th Lane,Glendale,AZ,85302,USA
8554 Twin Gable Drive,Montgomery,AL,36116,USA
62 Prospect Avenue,Quincy,MA,02170,USA
7113 North 69th Avenue,Glendale,AZ,85303,USA
826 South Hancock Street,Louisville,KY,40203,USA
111 Lakeview Terrace,Lynn Haven,FL,32444,USA
320 South Link Lane,Fort Collins,CO,80524,USA
623 Rhode Island Avenue Northwest,Washington,AR,20001,USA
4107 East 68th Avenue,Anchorage,AK,99507,USA
711 Tatem Street,Savannah,GA,31405,USA
2222 Martin Luther King Junior Boulevard,Fayetteville,AR,72701,USA
117 East Cook Avenue,Anchorage,AK,99501,USA
3110 East Victory Drive,Savannah,GA,31404,USA
264 Crest Drive,Soldotna,AK,99669,USA
2100 North Leverett Avenue,Fayetteville,AR,72703,USA
7450 Wade Circle,Anchorage,AK,99518,USA
3116 Northwest 61st Terrace,Oklahoma City,OK,73112,USA
780 South Wilmington Avenue,Fayetteville,AR,72701,USA
106 Varnum Street Northwest,Washington,AR,20011,USA
14347 Corvallis Street,San Leandro,CA,94579,USA
37608 2nd Street,Fremont,CA,94536,USA
915 Arkansas Avenue,Lynn Haven,FL,32444,USA
6880 Xavier Circle,Westminster,CO,80030,USA
333 Saint Charles Avenue,Fayetteville,AR,72701,USA
104 Lakeridge Drive,Panama City,FL,32405,USA
33 South Hill Avenue,Fayetteville,AR,72701,USA
640 Hilliard Street,Manchester,CT,06042,USA
5329 A Street,Greeley,CO,80634,USA
115 Home Avenue,Burlington,VT,05401,USA
3425 North Futrall Drive,Fayetteville,AR,72703,USA
189 Danforth Street,Framingham,MA,01701,USA
403 Turkey Creek Road,Mathews,AL,36052,USA
122 East Hayes Street,Norman,OK,73069,USA
22524 Sambar Loop,Anchorage,AK,99567,USA
7374 West Walden Drive,Littleton,CO,80128,USA
1644 New Jersey Avenue Northwest,Washington,AR,20001,USA
4052 Brandywine Pointe Boulevard,Nashville,TN,37138,USA
233 Juniper Drive,South Burlington,VT,05403,USA
8417 Timothy Lane,Oklahoma City,OK,73135,USA
1820 22nd Street Southeast,Washington,AR,20020,USA
517 Wesley Avenue,Nashville,TN,37207,USA
159 North Pawlet Road,Pawlet,VT,05761,USA
249 Progress Drive,Manchester,CT,06042,USA
6789 West 70th Avenue,Arvada,CO,80003,USA
324 East Drive,Montgomery,AL,36113,USA
2511 Hearst Avenue,Berkeley,CA,94709,USA
9200 Gainswood Circle,Montgomery,AL,36117,USA
275 Henry Street,Manchester,CT,06042,USA
4439 Gale Street,Livermore,CA,94550,USA
5843 West McLellan Road,Glendale,AZ,85301,USA
1255 U.S. Route 5 North,Windsor,VT,05089,USA
9306 Taylorsville Road,Louisville,KY,40299,USA
1602 East 14th Court,Lynn Haven,FL,32444,USA
112 North Hunter Street,Farmington,AR,72730,USA
5316 Silver Wing Boulevard,Louisville,KY,40241,USA
416 Waverly Avenue,Baltimore,MD,21225,USA
5708 Beverly Street,Savannah,GA,31405,USA
8666 Iris Street,Arvada,CO,80005,USA
8404 West Myrtle Avenue,Glendale,AZ,85305,USA
3365 Wyndham Drive,Fremont,CA,94536,USA
144 Lauderdale Street,Montgomery,AL,36116,USA
1528 Spruce Street,Berkeley,CA,94709,USA
1485 Hampshire Hollow Road,Poultney,VT,05764,USA
7030 Cotton Blossom Lane,Montgomery,AL,36117,USA
945 South 5th Street,Louisville,KY,40203,USA
95 Forest Avenue,Brockton,MA,02301,USA
2262 Hall Place Northwest,Washington,AR,20007,USA
345 Tattnall Street,Savannah,GA,31401,USA
244 La Normandy Drive,Louisville,KY,40223,USA
6045 Camelot Court,Montgomery,AL,36117,USA
2577 East Wyman Road,Fayetteville,AR,72701,USA
3502 Cottage Cove Lane,Panama City,FL,32408,USA
3030 Breckenridge Lane,Louisville,KY,40220,USA
3109 Thistle Down Lane,Nashville,TN,37013,USA
938 Elkridge Landing Road,Linthicum Heights,MD,21090,USA
2414 Parker Street,Berkeley,CA,94704,USA
1736 81st Avenue,Oakland,CA,94621,USA
151 Main Street,Savannah,GA,31408,USA
3718 Bay Tree Road,Lynn Haven,FL,32444,USA
1109 East 35th Street,Savannah,GA,31404,USA
9176 Ellis Way,Arvada,CO,80005,USA
3035 Osprey Circle,Panama City,FL,32405,USA
200 Hialeah Drive,Glen Burnie,MD,21060,USA
53 Greenwood Avenue,Wakefield,MA,01880,USA
137 East 53rd Avenue,Anchorage,AK,99518,USA
1771 Daisey Court,Millersville,MD,21108,USA
30451 Servilla Place,Castaic,CA,91384,USA
3905 Lyceum Avenue,Los Angeles,CA,90066,USA
637 Britannia Drive,Vallejo,CA,94591,USA
19020 North 68th Avenue,Glendale,AZ,85308,USA
2845 Zelda Road,Montgomery,AL,36106,USA
4039 Pipeline Road,Panama City,FL,32404,USA
3553 Brandywine Street Northwest,Washington,AR,20008,USA
4 Cutting Avenue,Worcester,MA,01606,USA
1521 159th Avenue,San Leandro,CA,94578,USA
1001 Northwest 104th Street,Oklahoma City,OK,73114,USA
55 Russells Mills Road,Dartmouth,MA,02748,USA
642 South 2nd Street,Louisville,KY,40202,USA
407 Bon Air Avenue,Brooklyn Park,MD,21225,USA
6145 East Castro Valley Boulevard,Castro Valley,CA,94552,USA
102 East Ash Road,Plymouth,VT,05056,USA
11813 West 75th Circle,Arvada,CO,80005,USA
19404 North 77th Avenue,Glendale,AZ,85308,USA
115 Colemont Court,Nashville,TN,37013,USA
6022 West Alice Avenue,Glendale,AZ,85302,USA
3014 R Street Northwest,Washington,AR,20007,USA
1818 Bay Street,Alameda,CA,94501,USA
880 General George Patton Road,Nashville,TN,37221,USA
7529 West 72nd Avenue,Arvada,CO,80003,USA
1732 27th Avenue,Oakland,CA,94601,USA
8848 North New World Drive,Glendale,AZ,85302,USA
3337 Woodpark Court,Montgomery,AL,36116,USA
128 East Oak Street,Louisville,KY,40203,USA
2721 Lindsay Avenue,Louisville,KY,40206,USA
813 Holt Grove Court,Nashville,TN,37211,USA
2 Sotelo Avenue,Piedmont,CA,94611,USA
8 Chandler Street,Plymouth,MA,02360,USA
10332 Thuja Circle,Anchorage,AK,99507,USA
1516 Ringe Drive,Severn,MD,21144,USA
3027 Badger Drive,Pleasanton,CA,94566,USA
8 Kozera Avenue,Hadley,MA,01035,USA
8820 Culebra Street,Arvada,CO,80007,USA
1011 San Jose Street,San Leandro,CA,94577,USA
450 Kinhawk Drive,Nashville,TN,37211,USA
57 Bremer Drive,Glen Burnie,MD,21061,USA
370 Wallace Road,Nashville,TN,37211,USA
7250 Urban Drive,Arvada,CO,80005,USA
200 West Center Street,Manchester,CT,06040,USA
2640 8th Avenue,Oakland,CA,94606,USA
341 Oakland Street,Manchester,CT,06042,USA
105 French Run Road,Savannah,GA,31404,USA
10632 Admiral Court,Oklahoma City,OK,73162,USA
5634 Kipling Parkway,Arvada,CO,80002,USA
6911 Steven Road,Panama City,FL,32404,USA
127 Grand Heron Drive,Panama City,FL,32407,USA
2617 Truffula Circle,Norman,OK,73069,USA
1650 North Sang Avenue,Fayetteville,AR,72703,USA
6286 West Louise Drive,Glendale,AZ,85310,USA
16820 Coronado Street,Anchorage,AK,99577,USA
6450 West Bethany Home Road,Glendale,AZ,85301,USA
4712 Rock Creek Road,Ardmore,OK,73401,USA
407 West Hillwood Drive,Nashville,TN,37205,USA
9912 Shirewick Way,Louisville,KY,40272,USA
3125 Willow Lane Drive,Montgomery,AL,36109,USA
276 Adams Street,Quincy,MA,02169,USA
31250 Courthouse Drive,Union City,CA,94587,USA
25 Cliffside Drive,Manchester,CT,06042,USA
5264 Shafter Avenue,Oakland,CA,94618,USA
4121 Northwest 31st Street,Oklahoma City,OK,73112,USA
178 Phillips Road,Bourne,MA,02532,USA
152 Bissell Street,Manchester,CT,06040,USA
6244 Sun River Drive,Sacramento,CA,95824,USA
9401 3rd Street Road,Louisville,KY,40272,USA
4800 Huffman Road,Anchorage,AK,99516,USA
1745 T Street Southeast,Washington,AR,20020,USA
1772 150th Avenue,San Leandro,CA,94578,USA
93 Marble Hill Road,Waitsfield,VT,05673,USA
4308 Princess Lane,Nashville,TN,37218,USA
713 Millard Fuller Drive,Montgomery,AL,36110,USA
129 Glen Street,West Brattleboro,VT,05301,USA
100 Birney Street,Peabody,MA,01960,USA
25538 Calaroga Avenue,Hayward,CA,94545,USA
40 Oliver Road,Manchester,CT,06042,USA
184 Oak Street,Foxborough,MA,02035,USA
4300 Kansas Avenue Northwest,Washington,AR,20011,USA
8506 West 54th Avenue,Arvada,CO,80002,USA
70 East Terrace,South Burlington,VT,05403,USA
1622 Orchard Avenue,Louisville,KY,40213,USA
3365 South Cato Springs Road,Fayetteville,AR,72701,USA
468 Raymond Drive,Ione,CA,95640,USA
317 Windsor Road,Savannah,GA,31419,USA
54 Pine Meadow Drive,Hyde Park,VT,05655,USA
7002 South Bryant Avenue,Oklahoma City,OK,73149,USA
2 Spencer Street,Lexington,MA,02420,USA
3114 US Highway 98,Mexico Beach,FL,32456,USA
1333 Farragut Street Northwest,Washington,AR,20011,USA
503 Early Street,Savannah,GA,31405,USA
8642 Yule Street,Arvada,CO,80007,USA
2643 North Sierra Avenue,Fayetteville,AR,72703,USA
1504 East 55th Street,Savannah,GA,31404,USA
2337 Nebraska Avenue,Selma,CA,93662,USA
3635 Bisquier Drive,Anchorage,AK,99508,USA
115 Wells Street,Manchester,CT,06040,USA
5065 North 54th Avenue,Glendale,AZ,85301,USA
2835 Southwest 78th Street,Oklahoma City,OK,73159,USA
7095 Gladiola Street,Arvada,CO,80004,USA
12 17th Place,Tybee Island,GA,31328,USA
26 Garfield Street,Bristol,VT,05443,USA
1124 Bluewillow Court,Nashville,TN,37013,USA
8219 Minor Lane,Louisville,KY,40219,USA
441 Merritt Avenue,Oakland,CA,94610,USA
4360 Hagan Road,Montgomery,AL,36109,USA
2456 22nd Avenue,Greeley,CO,80631,USA
1223 Delaware Avenue,Deale,MD,20733,USA
2443 Sierra Nevada Road,Mammoth Lakes,CA,93546,USA
4840 Reservoir Road Northwest,Washington,AR,20007,USA
3613 East 18th Avenue,Anchorage,AK,99508,USA
6206 Waters Avenue,Savannah,GA,31406,USA
123 Remember Baker Lane,Hartford,VT,05001,USA
141 Parker Road,Pittsford,VT,05763,USA
715 36.1 Road,Palisade,CO,81526,USA
31 Baileys Mills Road,Reading,VT,05062,USA
517 Glenpark Drive,Nashville,TN,37217,USA
804 Old Coach Place,Nashville,TN,37076,USA
6506 North Lagoon Drive,Panama City Beach,FL,32408,USA
1025 Rose Anne Road,Glen Burnie,MD,21060,USA
132 Laurel Green Court,Savannah,GA,31419,USA
840 Fontaine Road,Derby,VT,05829,USA
2909 Flamstead Road,Chester,VT,05143,USA
6515 West Poinsettia Drive,Glendale,AZ,85304,USA
5458 Zephyr Court,Arvada,CO,80002,USA
18505 Onyx Avenue,Waddell,AZ,85355,USA
Biloxi Crossing,Fayetteville,AR,72701,USA
355 Gillette Road,Nashville,TN,37211,USA
2375 South School Avenue,Fayetteville,AR,72701,USA
121 Mills Run Drive,Savannah,GA,31405,USA
6234 West 68th Circle,Arvada,CO,80003,USA
1357 Addison Street,Berkeley,CA,94702,USA
20370 California 116,Monte Rio,CA,95462,USA
2809 Briarcliff Road,Panama City,FL,32405,USA
19448 Currant Drive,Edmond,OK,73012,USA
1169 East Hopkins Avenue,Aspen,CO,81611,USA
88 Pine Valley Road,Savannah,GA,31404,USA
4719 West Cochise Drive,Glendale,AZ,85302,USA
26 Wetherell Street,Manchester,CT,06040,USA
6 Little Country Place,Savannah,GA,31406,USA
225 Claude Street,Annapolis,MD,21401,USA
15267 Hesperian Boulevard,San Leandro,CA,94578,USA
615 Long Hunter Court,Nashville,TN,37217,USA
8821 West Myrtle Avenue,Glendale,AZ,85305,USA
388 East Main Street,undefined,VT,05753,USA
3440 Brookhaven Road,Pasadena,MD,21122,USA
6703 Bluffview Circle,Louisville,KY,40299,USA
664 Irving Street Northwest,Washington,AR,20010,USA
2325 Eastridge Circle,Moore,OK,73160,USA
10312 Parlett Place,Cupertino,CA,95014,USA
332 33rd Avenue North,Nashville,TN,37209,USA
12816 West 65th Way,Arvada,CO,80004,USA
200 Pheasant Avenue,Louisville,KY,40118,USA
8351 Forest Drive,Pasadena,MD,21122,USA
1915 Dean Forest Road,Pooler,GA,31322,USA
9 Montello Street,Brockton,MA,02301,USA
8886 West 77th Circle,Arvada,CO,80005,USA
4296 North Blossom Court,Fayetteville,AR,72703,USA
814 South Pickard Avenue,Norman,OK,73069,USA
1126 Oates Street Northeast,Washington,AR,20002,USA
16502 South Main Street,Gardena,CA,90248,USA
1954 Hilltop Road,Jessup,MD,20794,USA
5685 Express Drive,Montgomery,AL,36116,USA
7071 Senators Drive,Montgomery,AL,36117,USA
716 O Street,Anchorage,AK,99501,USA
11012 Eagles Cove Drive,Louisville,KY,40241,USA
2409 Park Street,Selma,CA,93662,USA
17109 Guava Avenue,Panama City Beach,FL,32413,USA
4924 West 65th Avenue,Arvada,CO,80003,USA
7407 North 75th Drive,Glendale,AZ,85303,USA
6917 Briarcreek Drive,Oklahoma City,OK,73162,USA
145 Saint John Street,Manchester,CT,06040,USA
1205 Southwest 128th Street,Oklahoma City,OK,73170,USA
4594 Champagne Drive,Fayetteville,AR,72703,USA
1361 Barret Park Way,Montgomery,AL,36117,USA
6717 North 59th Avenue,Glendale,AZ,85301,USA
903 Mallard Creek Road,Saint Matthews,KY,40207,USA
4911 Alameda Street,Panama City,FL,32404,USA
8800 Cordell Circle,Anchorage,AK,99502,USA
5929 West Via Montoya Drive,Glendale,AZ,85310,USA
736 Sicard Street Southeast,Washington,AR,20003,USA
242 North Ash Street,Fruita,CO,81521,USA
19237 North 69th Avenue,Glendale,AZ,85308,USA
11655 West 81st Avenue,Arvada,CO,80005,USA
1987 Boxer Court,San Lorenzo,CA,94580,USA
5412 East 22nd Avenue,Anchorage,AK,99508,USA
856 Milton Street,Oakland,CA,94607,USA
5334 West Northern Avenue,Glendale,AZ,85301,USA
2906 Clare Avenue,Nashville,TN,37209,USA
3813 Sheffield Lane,Pueblo,CO,81005,USA
105 Bear Creek Parkway,Edgewater,MD,21037,USA
1265 Southeast 23rd Terrace,Oklahoma City,OK,73129,USA
2544 Worthington Way,Fayetteville,AR,72703,USA
512 North Center Avenue,Panama City,FL,32401,USA
13415 Panama City Beach Parkway,Panama City Beach,FL,32407,USA
7085 West Northern Avenue,Glendale,AZ,85303,USA
1318 35th Street Northwest,Washington,AR,20007,USA
24 Haven Drive,Savannah,GA,31406,USA
1800 East 63rd Street,Savannah,GA,31404,USA
1909 Wainwright Avenue,Panama City,FL,32405,USA
5950 West Missouri Avenue,Glendale,AZ,85301,USA
6740 Van Gordon Street,Arvada,CO,80004,USA
354 North University Avenue,Fayetteville,AR,72701,USA
788 Williamson Road,Montgomery,AL,36109,USA
2195 Cantelou Road,Montgomery,AL,36108,USA
3072 The Alameda,Concord,CA,94519,USA
1234 Carmel Street,Madera,CA,93638,USA
1783 Blakely Road,Colchester,VT,05446,USA
7809 Highway 2302,Panama City,FL,32409,USA
174 Village Lake Drive,Pooler,GA,31322,USA
8391 West 52nd Avenue,Arvada,CO,80002,USA
404 Dewey Street,Woodford,VT,05201,USA
4001 Teton Lane,Norman,OK,73072,USA
159 Downey Drive,Manchester,CT,06040,USA
227 Danyacrest Drive,Nashville,TN,37214,USA
3504 East 5th Street,Panama City,FL,32401,USA
27 Church Street,Manchester,CT,06040,USA
705 Upshur Street Northwest,Washington,AR,20011,USA
5615 West Acoma Drive,Glendale,AZ,85306,USA
1501 New Hampshire Avenue,Lynn Haven,FL,32444,USA
58 North U.S.A Drive,Fayetteville,AR,72701,USA
406 East Waldburg Street,Savannah,GA,31401,USA
5038 North Cimarron Drive,Beverly Hills,FL,34465,USA
4408 Northwest 55th Street,Oklahoma City,OK,73112,USA
2619 North Quality Lane,Fayetteville,AR,72703,USA
7041 Coe Road,Panama City,FL,32404,USA
65 Clark Street,Newton,MA,02459,USA
1405 Monroe Street Northeast,Washington,AR,20017,USA
4812 Alton Place Northwest,Washington,AR,20016,USA
25 Church Street,Pittsfield,MA,01201,USA
2740 Collie Hill Way,Anchorage,AK,99504,USA
6611 5th Street Northwest,Washington,AR,20012,USA
4600 Ritchie Highway,Baltimore,MD,21225,USA
2436 Naples Avenue,Panama City,FL,32405,USA
2508 Grant Avenue,Panama City,FL,32405,USA
2362 Acushnet Avenue,New Bedford,MA,02745,USA
386 Pratt Road,undefined,VT,05033,USA
5856 Parfet Court,Arvada,CO,80004,USA
2936 State Avenue,Panama City,FL,32405,USA
1770 Colony Way,Fayetteville,AR,72704,USA
4132 Carmichael Road,Montgomery,AL,36106,USA
5011 West New World Drive,Glendale,AZ,85302,USA
2313 Mansfield Avenue,Del City,OK,73115,USA
323 Southeast 23rd Street,Oklahoma City,OK,73129,USA
314 South 17th Street,Nashville,TN,37206,USA
7607 Beulah Church Road,Louisville,KY,40228,USA
7420 Bearfoot Circle,Anchorage,AK,99502,USA
4214 Ashleywood Court,Louisville,KY,40241,USA
205 Homestead Street,Manchester,CT,06042,USA
12610 Webber Road,Fountain,FL,32438,USA
5209 North Dewey Avenue,Oklahoma City,OK,73118,USA
7192 West Topeka Drive,Glendale,AZ,85308,USA
2815 Blueridge Place,Anchorage,AK,99504,USA
332 Stafford Road,Fall River,MA,02721,USA
5108 Bass Place Southeast,Washington,AR,20019,USA
16910 Alpine Drive,Pioneer,CA,95666,USA
10129 Spring Gate Drive,Louisville,KY,40241,USA
1734 Corcoran Street Northwest,Washington,AR,20009,USA
25800 Industrial Boulevard,Hayward,CA,94545,USA
140 William Chambers Junior Drive,Glen Burnie,MD,21060,USA
11724 Rushmore,Oklahoma City,OK,73162,USA
578 Vermont 30,Newfane,VT,05345,USA
253 Colt Drive,Nashville,TN,37221,USA
4500 Margalo Avenue,Bakersfield,CA,93313,USA
4503 North Council Road,Bethany,OK,73008,USA
2306 Edinburgh Drive,Montgomery,AL,36116,USA
4050 Lake Otis Parkway,Anchorage,AK,99508,USA
971 Zenith Loop,Fayetteville,AR,72701,USA
10313 Durham Drive,Oklahoma City,OK,73162,USA
620 Oakland Avenue,Fayetteville,AR,72701,USA
1112 Flat Rock Road,Louisville,KY,40245,USA
1709 Queensbury Road,Moore,OK,73160,USA
36043 Soapberry Commons,Fremont,CA,94536,USA
6870 West 52nd Avenue,Arvada,CO,80002,USA
11113 North Miller Avenue,Oklahoma City,OK,73120,USA
5 Winslow Circle,Pooler,GA,31322,USA
904 Walthour Road,Savannah,GA,31410,USA
521 East 4th Street,Panama City,FL,32401,USA
1780 Poplar Ridge Road,Pasadena,MD,21122,USA
3901 West End Avenue,Nashville,TN,37205,USA
467 North Mountain Ranch Road,Fayetteville,AR,72704,USA
13852 West 66th Place,Arvada,CO,80004,USA
18687 County Road 97,Woodland,CA,95695,USA
26 Seaman Circle,Manchester,CT,06040,USA
17480 Beaujolais Circle,Anchorage,AK,99577,USA
1011 Devon Drive,Hayward,CA,94542,USA
3 Southerberry Drive,undefined,VT,05468,USA
7910 West Krall Street,Glendale,AZ,85303,USA
2502 Adrienne Way,Louisville,KY,40216,USA
600 Crosby Boulevard,Midwest City,OK,73110,USA
833 South Brownell Road,Williston,VT,05495,USA
14 6th Street,Medford,MA,02155,USA
5150 West Eugie Avenue,Glendale,AZ,85304,USA
1744 Shoreham Drive,Montgomery,AL,36106,USA
18827 Fish Hatchery Road,Anchorage,AK,99577,USA
3164 West Woodfield Way,Fayetteville,AR,72704,USA
1314 89th Avenue,Oakland,CA,94621,USA
118 Pearl Street,Manchester,CT,06040,USA
225 Almond Street,Fall River,MA,02721,USA
109 East 64th Street,Savannah,GA,31405,USA
218 Middle Street,Brighton,VT,05846,USA
4306 Bylsma Circle,Panama City,FL,32404,USA
5201 North Miller Avenue,Oklahoma City,OK,73112,USA
2613 Southeast 50th Street,Oklahoma City,OK,73129,USA
2543 The Meadows,Montgomery,AL,36116,USA
883 Rodney Drive,Nashville,TN,37205,USA
17 Stratfield Avenue,Westfield,MA,01085,USA
7950 West 51st Avenue,Arvada,CO,80002,USA
13 Riverview Avenue,Groton,CT,06340,USA
2348 Cantalise Drive,Dublin,CA,94568,USA
1318 4th Street Southwest,Washington,AR,20024,USA
3384 North Southridge Drive,Fayetteville,AR,72703,USA
6007 Yarrow Street,Arvada,CO,80004,USA
1401 Saint George Avenue,Moore,OK,73160,USA
2829 Cambridge Court,Oklahoma City,OK,73116,USA
7106 Bear Creek Drive,Saint Matthews,KY,40207,USA
3325 Dix Street Northeast,Washington,AR,20019,USA
800 West Street,Panama City,FL,32404,USA
22709 Canyon Terrace Drive,Castro Valley,CA,94552,USA
502 Main Street,Walpole,MA,02081,USA
491 Arabian Way,Grand Junction,CO,81504,USA
682 Brighton Way,Livermore,CA,94551,USA
5936 North 80th Drive,Glendale,AZ,85303,USA
3 Emery Hill Drive,Dummerston,VT,05301,USA
17722 North 79th Avenue,Glendale,AZ,85308,USA
18 Cambridge Street,Manchester,CT,06042,USA
833 Williamson Road,Montgomery,AL,36109,USA
7720 Allison Street,Arvada,CO,80005,USA
2611 Bluefield Avenue,Nashville,TN,37214,USA
27 Cabbage Crossing,Savannah,GA,31411,USA
2802 US Highway 98,Mexico Beach,FL,32456,USA
131 Kent Drive,Manchester,CT,06042,USA
7910 Ralston Road,Arvada,CO,80002,USA
661 West Corinth Road,Washington,VT,05675,USA
7309 Live Oak Court,Montgomery,AL,36117,USA
5110 East Shoshone Avenue,Orange,CA,92867,USA
8935 Cole Drive,Arvada,CO,80004,USA
91 Courthouse Drive,Guildhall,VT,05905,USA
445 Industrial Lane,Barre,VT,05641,USA
1605 Remington Road,Edmond,OK,73034,USA
201 North Locust Avenue,Fayetteville,AR,72701,USA
1900 West Virginia Avenue Northeast,Washington,AR,20002,USA
23501 Ida Lane,Hayward,CA,94541,USA
8213 Northwest 65th Place,Oklahoma City,OK,73132,USA
6215 Sheridan Boulevard,Arvada,CO,80003,USA
628 Ayrlie Water Road,Gibson Island,MD,21056,USA
43949 South Moray Street,Fremont,CA,94539,USA
4350 Woodley Square,Montgomery,AL,36116,USA
73 Lower Main Street,Morristown,VT,05661,USA
5603 Dune Creek Trail,Panama City,FL,32404,USA
19416 Barclay Road,Castro Valley,CA,94546,USA
6620 North 61st Drive,Glendale,AZ,85301,USA
9009 West Nicolet Avenue,Glendale,AZ,85305,USA
31 Hills Point Road,Charlotte,VT,05445,USA
108 East 11th Avenue,Anchorage,AK,99501,USA
4001 Anderson Road,Nashville,TN,37217,USA
4305 Willowview Boulevard,Louisville,KY,40299,USA
12300 Apache Avenue,Savannah,GA,31419,USA
1109 East Glenn Lane,Fayetteville,AR,72703,USA
846 Allen Road,Nashville,TN,37214,USA
720 East Muhammad Ali Boulevard,Louisville,KY,40202,USA
1054 Overton Lea Road,Nashville,TN,37220,USA
3200 Southwest 95th Street,Oklahoma City,OK,73159,USA
5620 Lilly Street,Panama City,FL,32404,USA
1738 Annabellas Drive,Panama City Beach,FL,32407,USA
6114 West Glenn Drive,Glendale,AZ,85301,USA
2538 East 40th Plaza,Panama City,FL,32405,USA
178 Old Homestead Road,Danville,VT,05873,USA
939 West Beach Drive,Panama City,FL,32401,USA
2057 Lucas Street,Montgomery,AL,36107,USA
5725 Medallion Court,Castro Valley,CA,94552,USA
5 Little Deer Road,Groton,VT,05046,USA
2649 Firewood Drive,Fayetteville,AR,72703,USA
3414 Vance Lane,Montgomery,AL,36109,USA
5701 North 67th Avenue,Glendale,AZ,85301,USA
2330 39th Street Northwest,Washington,AR,20007,USA
5928 West Mauna Loa Lane,Glendale,AZ,85306,USA
15254 North 52nd Avenue,Glendale,AZ,85306,USA
3466 Southview Avenue,Montgomery,AL,36111,USA
3811 W Street Southeast,Washington,AR,20020,USA
21007 North 53rd Avenue,Glendale,AZ,85308,USA
7770 West Bell Road,Glendale,AZ,85308,USA
1797 Pasatiempo Drive,Chico,CA,95928,USA
737 Nelson Road,Ludlow,VT,05149,USA
813 Linda Lane,Panama City Beach,FL,32407,USA
8277 Lamar Place,Arvada,CO,80003,USA
7758 Betty Louise Drive,Panama City,FL,32404,USA
523 10th Street,Greeley,CO,80631,USA
13 Breezy Palm Way,Savannah,GA,31406,USA
16572 East Wyman Road,Fayetteville,AR,72701,USA
2086 Hillside Drive,San Leandro,CA,94577,USA
19091 Northeast 23rd Street,Harrah,OK,73045,USA
2075 Archer Drive,Fayetteville,AR,72701,USA
8442 Everett Way,Arvada,CO,80005,USA
2817 3rd Street,Thunderbolt,GA,31404,USA
64 Church Street,Hardwick,MA,01031,USA
6140 Fenton Street,Arvada,CO,80003,USA
7730 Wilkinson Road,Nashville,TN,37080,USA
5116 Feys Court,Louisville,KY,40216,USA
325 Autumn Street,Manchester,CT,06040,USA
1236 Southwest 49th Street,Oklahoma City,OK,73109,USA
5921 Ashwood Bluff Drive,Louisville,KY,40207,USA
394 Hilltop Lane,Annapolis,MD,21403,USA
5306 Ritchie Highway,Baltimore,MD,21225,USA
Tyndall Drive,Tyndall Air Force Base,FL,32403,USA
294 East Lakeshore Drive,Colchester,VT,05446,USA
509 Sea Breeze Drive,Panama City Beach,FL,32413,USA
91 Eldridge Street,Manchester,CT,06040,USA
620 Veta Avenue,Pueblo,CO,81004,USA
2204 7th Street Road,Louisville,KY,40208,USA
7701 West Saint John Road,Glendale,AZ,85308,USA
6342 West Wheeler Road,Fayetteville,AR,72704,USA
5125 North 58th Avenue,Glendale,AZ,85301,USA
7915 Depew Street,Arvada,CO,80003,USA
20375 Wisteria Street,Castro Valley,CA,94546,USA
5803 West Gelding Drive,Glendale,AZ,85306,USA
1302 Cherry Street,Panama City,FL,32401,USA
404 Ramble Wood Circle,Nashville,TN,37221,USA
2577 Rhode Island Avenue Northeast,Washington,AR,20018,USA
1401 Cordova Street,Anchorage,AK,99501,USA
13066 North 56th Avenue,Glendale,AZ,85304,USA
84 Orange Street,Barre,VT,05641,USA
1641 Kramer Street Northeast,Washington,AR,20002,USA
3040 17th Street,Boulder,CO,80304,USA
5073 West 65th Place,Arvada,CO,80003,USA
5701 East Shirley Lane,Montgomery,AL,36117,USA
56 Concord Road,Manchester,CT,06042,USA
9904 Daniel Drive,Louisville,KY,40118,USA
525 Merrill Lane,Dracut,MA,01826,USA
922 Judge Court East,West River,MD,20778,USA
332 Concord Avenue,Cambridge,MA,02138,USA
6407 West Monte Cristo Avenue,Glendale,AZ,85306,USA
11 Meeting Place Circle,Boxford,MA,01921,USA
2014 Clemens Road,Oakland,CA,94602,USA
702 Plantation Circle,Panama City,FL,32404,USA
2315 Chestnut Street,Montgomery,AL,36107,USA
281 MacArthur Boulevard,Oakland,CA,94610,USA
57 Hidden Lake Court,Savannah,GA,31419,USA
6816 West 84th Circle,Arvada,CO,80003,USA
831 West Center Street,Fayetteville,AR,72701,USA
4822 Piney Branch Road Northwest,Washington,AR,20011,USA
1101 Lotus Avenue,Glen Burnie,MD,21061,USA
1124 Frederick Douglass Avenue,Oklahoma City,OK,73117,USA
6578 Marauder Drive,Nashville,TN,37209,USA
1328 Jenks Avenue,Panama City,FL,32401,USA
301 Willow Way,Lynn Haven,FL,32444,USA
3231 North Kings Cross,Fayetteville,AR,72703,USA
329 Mill Road,Montpelier,VT,05602,USA
7841 West Kristal Way,Glendale,AZ,85308,USA
5000 V Street Northwest,Washington,AR,20007,USA
4418 15th Street Northwest,Washington,AR,20011,USA
900 North Leverett Avenue,Fayetteville,AR,72701,USA
7701 Southwest 104th Street,Oklahoma City,OK,73169,USA
43 Henderson Avenue,Savannah,GA,31406,USA
683 North Wilson Avenue,Fayetteville,AR,72701,USA
6505 South Lagoon Drive,Panama City Beach,FL,32408,USA
400 D Street,Anchorage,AK,99501,USA
347 Brewer Drive,Nashville,TN,37211,USA
562 South Pierremont Drive,Fayetteville,AR,72701,USA
829 Main Street,Manchester,CT,06040,USA
1353 West 27th Avenue,Anchorage,AK,99503,USA
6518 Dolphin Court,Glen Burnie,MD,21061,USA
164 Tensaw Road,Montgomery,AL,36117,USA
89 Barrensdale Drive,Severna Park,MD,21146,USA
475 Maple Street,Holyoke,MA,01040,USA
3340 Woodpark Drive,Montgomery,AL,36116,USA
5102 Ander Drive,Brentwood,TN,37027,USA
1259 Everett Avenue,Louisville,KY,40204,USA
5644 Kipling Parkway,Arvada,CO,80002,USA
1405 Tolkien Drive,Conway,AR,72034,USA
461 Alder Street,Eureka,CA,95503,USA
1427 H Street,Anchorage,AK,99501,USA
344 Island Road,Savannah,GA,31406,USA
4 Orchard Street,Manchester,CT,06040,USA
2961 Vinson Road,Montgomery,AL,36110,USA
6342 Kendall Street,Arvada,CO,80003,USA
4074 North Sunflower Circle,Fayetteville,AR,72703,USA
5813 Hammermill Loop,Montgomery,AL,36116,USA
4385 Wares Ferry Road,Montgomery,AL,36109,USA
3949 Ethan Allen Highway,Saint Albans City,VT,05478,USA
2552 Massachusetts Avenue Northwest,Washington,AR,20008,USA
6605 North 93RD Avenue,Glendale,AZ,85305,USA
82 Fairfield Street,Manchester,CT,06040,USA
4207 Ranch Drive,Edmond,OK,73013,USA
2504 Longest Avenue,Louisville,KY,40204,USA
103 Martin Luther King Junior Boulevard,Fayetteville,AR,72701,USA
3140 Commander Drive,Louisville,KY,40220,USA
3215 Madsen Street,Hayward,CA,94541,USA
8852 Broderick Street,Montgomery,AL,36117,USA
8522 Ingalls Circle,Arvada,CO,80003,USA
6672 Urban Court,Arvada,CO,80004,USA
40 Highwood Drive,Manchester,CT,06040,USA
7822 West Peppertree Lane,Glendale,AZ,85303,USA
8188 Poinsett Terrace,Pasadena,MD,21122,USA
302 Black Sky Lane,Pasadena,MD,21122,USA
16 Redbud Way,Marlborough,MA,01752,USA
103 Fenwick Village Drive,Savannah,GA,31419,USA
1983 Reidsville Street,Annapolis,MD,21401,USA
8221 Surf Drive,Panama City,FL,32408,USA
6604 Northwest 130th Street,Oklahoma City,OK,73142,USA
7509 Linda Lane,Panama City,FL,32404,USA
621 Northwest 94th Street,Oklahoma City,OK,73114,USA
3500 15th Street Northeast,Washington,AR,20017,USA
81 Reynolds Drive,Colchester,VT,05446,USA
2527 Lisenby Avenue,Panama City,FL,32405,USA
325 East 7th Street,Edmond,OK,73034,USA
33 Pond Avenue,Brookline,MA,02445,USA
37 Spring Street,Groton,CT,06340,USA
8380 West 67th Avenue,Arvada,CO,80004,USA
21 Glenoak Lane Northwest,Glen Burnie,MD,21061,USA
112 Aquinnah Drive,Pooler,GA,31322,USA
632 North Pine Street,Anchorage,AK,99508,USA
89 Augusta Drive,Fayetteville,AR,72703,USA
60 Willow Lakes Drive,Savannah,GA,31419,USA
61 Hills Street,Manchester,CT,06040,USA
1637 Acre Circle,Panama City Beach,FL,32407,USA
19 Katama Way,Pooler,GA,31322,USA
153 Atlantic Avenue,Salisbury,MA,01952,USA
8010 Queen Victoria Drive,Anchorage,AK,99518,USA
205 North Henderson Bend Road Northwest,Calhoun,GA,30701,USA
1709 Vineyard Trail,Annapolis,MD,21401,USA
18318 Pioneer Drive,Anchorage,AK,99577,USA
9828 East Pueblo Avenue,Mesa,AZ,85208,USA
8398 West Denton Lane,Glendale,AZ,85305,USA
217 West Congress Street,Savannah,GA,31401,USA
3301 Nora Lane,Louisville,KY,40220,USA
1 Dunsmuir Lane,Savannah,GA,31411,USA
904 Shepherd Street Northwest,Washington,AR,20011,USA
9036 Calico Court,Hesperia,CA,92344,USA
4341 Ponds Street Northeast,Washington,AR,20019,USA
319 Elderwood Court,Annapolis,MD,21409,USA
26466 Mockingbird Lane,Hayward,CA,94544,USA
40 Strawberry Lane,Manchester,CT,06040,USA
42 Lake Lane,Westmore,VT,05860,USA
4493 Heath Circle,Rohnert Park,CA,94928,USA
430 Cornish Drive,Nashville,TN,37207,USA
2765 North Barcelona Avenue,Fayetteville,AR,72703,USA
741 Amity Lane,Montgomery,AL,36117,USA
402 Carlton Place,Goodlettsville,TN,37072,USA
3526 Sutton Loop,Fremont,CA,94536,USA
10406 Sunlight Lane,Louisville,KY,40272,USA
149 Lenox Street,Manchester,CT,06040,USA
86 Pine Street,Cambridge,MA,02139,USA
13628 West 62nd Drive,Arvada,CO,80004,USA
3579 2nd Avenue,Edgewater,MD,21037,USA
312 North Cove Boulevard,Panama City,FL,32401,USA
4601 Reka Drive,Anchorage,AK,99508,USA
14300 Leesa Lane,Edmond,OK,73013,USA
517 Copperfield Way,Brentwood,TN,37027,USA
5814 Carriage Brook Road,Montgomery,AL,36116,USA
6800 West Bell Road,Glendale,AZ,85308,USA
74 Westerly Street,Manchester,CT,06042,USA
80 South Main Street,Randolph,MA,02368,USA
8532 Ingalls Circle,Arvada,CO,80003,USA
714 East 33rd Street,Savannah,GA,31401,USA
584 Westford Street,Lowell,MA,01851,USA
4010 Governors Drive,Montgomery,AL,36111,USA
922 Urciolo Court,Annapolis,MD,21401,USA
102 Derondo Street,Panama City Beach,FL,32413,USA
3516 North Virginia Avenue,Oklahoma City,OK,73118,USA
33300 Mission Boulevard,Union City,CA,94587,USA
22 Charnock Street,Beverly,MA,01915,USA
1509 Hadley Avenue,Nashville,TN,37138,USA
169 Wachusett Street,Holden,MA,01520,USA
22 Gallatin Street Northeast,Washington,AR,20011,USA
6216 West Bloomfield Road,Glendale,AZ,85304,USA
3752 Roswell Place,Montgomery,AL,36116,USA
739 Center Street,Manchester,CT,06040,USA
8446 Coors Loop,Arvada,CO,80005,USA
3959 Fairlands Drive,Pleasanton,CA,94588,USA
1901 North Midwest Boulevard,Edmond,OK,73034,USA
6718 Keithley Road,Panama City,FL,32404,USA
8597 Bay Road,Pasadena,MD,21122,USA
25721 Berryhill Road,Anchorage,AK,99577,USA
37 Rushforde Drive,Manchester,CT,06040,USA
2441 Chase Park Drive,Montgomery,AL,36110,USA
1817 Beech Street,Louisville,KY,40210,USA
5157 West Kerry Lane,Glendale,AZ,85308,USA
115 Falkirk Street,Savannah,GA,31407,USA
104 Bennington Street,Lawrence,MA,01841,USA
184 Woodland Street,Manchester,CT,06042,USA
110 Elmwood Avenue,Barre,VT,05641,USA
5055 West 58th Avenue,Arvada,CO,80002,USA
7905 Old Heady Road,Louisville,KY,40299,USA
110 Seaton Place Northwest,Washington,AR,20001,USA
11117 Stonehedge Drive,South Burlington,VT,05403,USA
107 West Canton Circle,Springfield,MA,01104,USA
8300 Dover Way,Arvada,CO,80005,USA
214 South End Road,Mount Tabor,VT,05739,USA
7256 West 84th Way,Arvada,CO,80003,USA
923 K Street Northeast,Washington,AR,20002,USA
325 Joseph Circle,Southport,FL,32409,USA
7966 Chase Circle,Arvada,CO,80003,USA
34 Belair Drive,Holbrook,MA,02343,USA
817 Nevada Drive Northeast,Palm Bay,FL,32907,USA
104 White Street,Manchester,CT,06042,USA
15 Cranberry Hill Road,Thetford,VT,05043,USA
19590 East Batavia Drive,Aurora,CO,80011,USA
16 Clark Street,undefined,VT,05150,USA
143 Canton Court,Goodlettsville,TN,37072,USA
4079 North Sunflower Circle,Fayetteville,AR,72703,USA
154 Byrd Drive,Panama City,FL,32404,USA
10367 West 55th Place,Arvada,CO,80002,USA
3600 Pennsylvania Avenue,Fremont,CA,94536,USA
1497 Greenbrier Road,West Sacramento,CA,95691,USA
8380 Lockwood Road,Pasadena,MD,21122,USA
218 Turtle Cove,Panama City Beach,FL,32413,USA
2787 West Blackstone Crossing,Fayetteville,AR,72704,USA
7101 West Beardsley Road,Glendale,AZ,85308,USA
5 Meadow Lane,Rutland,VT,05701,USA
11941 West 58th Avenue,Arvada,CO,80002,USA
2809 Rowland Avenue,Thunderbolt,GA,31404,USA
5331 Rexford Court,Montgomery,AL,36116,USA
8043 Cranberry Street,Anchorage,AK,99502,USA
2400 Merry Street,Nashville,TN,37208,USA
1114 Barley Drive,Montgomery,AL,36111,USA
1523 South 9th Street,Louisville,KY,40208,USA
3500 Blanchard Drive Southwest,Washington,AR,20032,USA
2811 Mechanics Avenue,Savannah,GA,31404,USA
57413 Taku Avenue,Homer,AK,99603,USA
4235 Phelan Court,Montgomery,AL,36116,USA
169 Avenida Drive,Berkeley,CA,94708,USA
4607 Artelia Drive,Nashville,TN,37013,USA
2001 Van Hoose Drive,Fayetteville,AR,72701,USA
11 Eclipse Court,Alameda,CA,94501,USA
108 Croft Drive,Manchester,CT,06042,USA
5348 Main Street,Franklin,VT,05457,USA
7453 West Melinda Lane,Glendale,AZ,85308,USA
11160 Vosikof Place,Anchorage,AK,99507,USA
18 Densmore Drive,Essex,VT,05452,USA
5821 Taft Street,Arvada,CO,80004,USA
2505 Southwest 43rd Street,Oklahoma City,OK,73119,USA
2927 Martin Luther King Junior Avenue Southeast,Washington,AR,20020,USA
1709 Southeast 51st Street,Oklahoma City,OK,73129,USA
145 Great Western Road,Yarmouth,MA,02664,USA
14 Short Circle,Conway,AR,72032,USA
1349 Burkhart Avenue,San Leandro,CA,94579,USA
1666 South Summer Rose Avenue,Fayetteville,AR,72701,USA
1612 Beech Street,Louisville,KY,40211,USA
165 Quincy Shore Drive,Quincy,MA,02171,USA
512 Tennyson Road,Hayward,CA,94544,USA
5242 Thornton Lane,Panama City,FL,32404,USA
56 Daley Lane,Castleton,VT,05732,USA
5302 1st Street Northwest,Washington,AR,20011,USA
8801 North 63rd Drive,Glendale,AZ,85302,USA
1217 Cottondale Road,Montgomery,AL,36109,USA
1500 South Division Street,Guthrie,OK,73044,USA
8502 Madrone Avenue,Louisville,KY,40258,USA
2035 Ninth Street,Berkeley,CA,94710,USA
3 Mad Anthony Lane,Savannah,GA,31411,USA
42223 Edgewood Street,Fremont,CA,94538,USA
4770 Balboa Way,Fremont,CA,94536,USA
2201 Ontario Road Northwest,Washington,AR,20009,USA
2115 Honeysuckle Drive,Panama City,FL,32404,USA
7502 Kingman Street,Panama City Beach,FL,32408,USA
5611 North 61st Avenue,Glendale,AZ,85301,USA
3179 18th Street Northwest,Washington,AR,20010,USA
33 Chesapeake Mobile Court,Hanover,MD,21076,USA
2732 Rosedale Place,Nashville,TN,37211,USA
970 Old Oak Road,Livermore,CA,94550,USA
3605 Normandy Place South,Nashville,TN,37209,USA
13005 Mills Edge Court,Louisville,KY,40272,USA
1030 Shawnee Street,Savannah,GA,31419,USA
1607 Louisiana Avenue,Panama City,FL,32405,USA
16020 North 69th Avenue,Peoria,AZ,85382,USA
5805 Armada Drive,Carlsbad,CA,92008,USA
3538 Albemarle Street Northwest,Washington,AR,20008,USA
6 Oak Street,Town of Rockingham,VT,05101,USA
190 Church Street,Burlington,VT,05401,USA
11985 West 56th Drive,Arvada,CO,80002,USA
7018 Russell Court,Arvada,CO,80007,USA
19 Euston Street,Brookline,MA,02446,USA
20443 Granite Park Circle,Anchorage,AK,99577,USA
5754 Belleau Drive,Montgomery,AL,36117,USA
6293 Braun Circle,Arvada,CO,80004,USA
22219 Panama City Beach Parkway,Panama City Beach,FL,32413,USA
5615 West Villa Maria Drive,Glendale,AZ,85308,USA
12091 Mierkey Road,Jackson,CA,95642,USA
67 Steeplechase Drive,Manchester,CT,06040,USA
4112 Rockdale Street,Savannah,GA,31405,USA
1821 Catalpa Way,Hayward,CA,94545,USA
1907 18th Avenue South,Nashville,TN,37212,USA
4328 Brewer Road,Montgomery,AL,36108,USA
103 Aspen Place Northeast,Calhoun,GA,30701,USA
2008 Aberdeen Drive,Crofton,MD,21114,USA
1011 Bell Avenue,Glen Burnie,MD,21060,USA
16772 West 70th Avenue,Arvada,CO,80007,USA
95 Woods Hill Road,undefined,VT,05488,USA
5959 North 55th Avenue,Glendale,AZ,85301,USA
205 Harrison Avenue,Louisville,KY,40243,USA
189 Dalton Avenue,Pittsfield,MA,01201,USA
8772 West 79th Avenue,Arvada,CO,80005,USA
7144 Marlborough Terrace,Berkeley,CA,94705,USA
910 Arlington Terrace,Fayetteville,AR,72701,USA
2121 Stepping Stone Trail,Edmond,OK,73013,USA
707 Leaning Oaks Drive,Savannah,GA,31410,USA
207 Spruce Street,Manchester,CT,06040,USA
249 Yellow Leaf Circle,Anchorage,AK,99504,USA
4600 East Huntsville Road,Fayetteville,AR,72701,USA
864 Main Street,Worcester,MA,01610,USA
115 Waddell Road,Manchester,CT,06040,USA
2313 South 4th Street,Louisville,KY,40208,USA
165 Saint John Street,Manchester,CT,06040,USA
9223 Elgin Circle,Anchorage,AK,99502,USA
1456 North Coghill Drive,Fayetteville,AR,72704,USA
14 Linden Street,Manchester,CT,06040,USA
1217 Southwest 91st Street,Oklahoma City,OK,73139,USA
424 North Powderhorn Drive,Fayetteville,AR,72704,USA
4339 Benning Road Northeast,Washington,AR,20019,USA
398 Gove Hill Road,Thetford,VT,05075,USA
7111 North 75th Avenue,Glendale,AZ,85303,USA
643 Farragut Street Northwest,Washington,AR,20011,USA
122 40th Avenue North,Nashville,TN,37209,USA
412 West Ila Street,Fayetteville,AR,72701,USA
11300 Lillian Lane,Anchorage,AK,99515,USA
311 Oak Street,Manchester,CT,06040,USA
508 Baker Street,Norman,OK,73072,USA
8041 Elton Street,Glen Burnie,MD,21060,USA
6451 West Bell Road,Glendale,AZ,85308,USA
11507 East Neville Avenue,Mesa,AZ,85209,USA
1643 Oxford Street,Berkeley,CA,94709,USA
7541 Florence Circle,Anchorage,AK,99507,USA
6413 Kendall Street,Arvada,CO,80003,USA
1822 North Grand Avenue,Pueblo,CO,81003,USA
109 High Street,Manchester,CT,06040,USA
6214 Herzog Street,Oakland,CA,94608,USA
549 Elysian Fields Road,Nashville,TN,37211,USA
280 Blue Moon Crossing,Pooler,GA,31322,USA
150 Carter Street,Manchester,CT,06040,USA
992 Sherwood Forest Road,Annapolis,MD,21401,USA
6950 West Nicolet Avenue,Glendale,AZ,85303,USA
3821 Southwest 25th Street,Oklahoma City,OK,73108,USA
39 Cottage Street,Athol,MA,01331,USA
28 Wayne Avenue,Waltham,MA,02453,USA
34 Free Street,Hingham,MA,02043,USA
3321 Furman Boulevard,Louisville,KY,40220,USA
5712 Saulsbury Street,Arvada,CO,80002,USA
1915 Southeast 29th Street,Oklahoma City,OK,73129,USA
9515 West 74th Avenue,Arvada,CO,80005,USA
171 Brickhill Circle,Pooler,GA,31322,USA
369 Ruth Avenue,Mountain View,CA,94043,USA
8320 Cloud Street,Laurel,MD,20724,USA
7700 Morningside Drive Northwest,Washington,AR,20012,USA
4 Elm Street,Windsor,VT,05089,USA
3031 Casa Drive,Nashville,TN,37214,USA
1937 Carleton Street,Berkeley,CA,94704,USA
1219 North Storer Avenue,Fayetteville,AR,72703,USA
10 Bramblebush Drive,Barnstable,MA,02635,USA
4418 Signal Hill Road,Louisville,KY,40207,USA
3408 Bellisima Place,Louisville,KY,40245,USA
2130 Winona Avenue,Montgomery,AL,36107,USA
107 Guaymas Place,Davis,CA,95616,USA
20930 Todd Valley Road,Foresthill,CA,95631,USA
33 Linscott Road,Hingham,MA,02043,USA
11865 West 74th Avenue,Arvada,CO,80005,USA
1803 Hickory Avenue,Panama City,FL,32405,USA
95 Westbourne Way,Pooler,GA,31322,USA
119 Matthew Lane,Nashville,TN,37215,USA
7609 Doris Place,Oklahoma City,OK,73162,USA
4012 Heritage Place Drive,Norman,OK,73072,USA
2285 Wold Run Drive,Fayetteville,AR,72704,USA
1831 Frankford Avenue,Panama City,FL,32405,USA
66 Bradford Road,Braintree,MA,02184,USA
5397 Wentworth Avenue,Oakland,CA,94601,USA
3604 West Market Street,Louisville,KY,40212,USA
1600 West 11th Avenue,Anchorage,AK,99501,USA
1838 North Scull Creek Drive,Fayetteville,AR,72703,USA
212 Ambleside Drive,Severna Park,MD,21146,USA
445 South Potomac Circle,Aurora,CO,80012,USA
4714 Narrow Lane Road,Montgomery,AL,36116,USA
1820 Scenic Avenue,Berkeley,CA,94709,USA
320 Union Station Way,Calera,AL,35040,USA
4430 Davenport Street Northwest,Washington,AR,20016,USA
8421 Thomas Drive,Panama City,FL,32408,USA
20933 River Park Drive,Anchorage,AK,99577,USA
6262 29th Street Northwest,Washington,AR,20015,USA
8 Watkins Road,undefined,VT,05468,USA
2654 Quiet Water Cove,Annapolis,MD,21401,USA
6029 Wright Street,Arvada,CO,80004,USA
1256 Talbert Street Southeast,Washington,AR,20020,USA
6398 Jellison Way,Arvada,CO,80004,USA
135 Pond Road,Shelburne,VT,05482,USA
4807 North Grove Avenue,Warr Acres,OK,73122,USA
1879 South Cherry Hills Drive,Fayetteville,AR,72701,USA
8040 Cranberry Street,Anchorage,AK,99502,USA
112 Walnut Street,Reading,MA,01867,USA
3701 Lake Towne Drive,Nashville,TN,37013,USA
7025 Queen Street,Arvada,CO,80004,USA
6716 South Mariposa Lane,Dublin,CA,94568,USA
2402 Eastbridge Court,Louisville,KY,40223,USA
2 Ambelwood Way,Savannah,GA,31411,USA
3115 North Lake Boulevard,Tahoe City,CA,96145,USA
140 West Cooper Avenue,Aspen,CO,81611,USA
629 Debbie Drive,Nashville,TN,37076,USA
44 Colonial Road,Manchester,CT,06042,USA
449 15th Street Northeast,Washington,AR,20002,USA
178 Connecticut River Road,undefined,VT,05156,USA
66 Ocala Drive,Nashville,TN,37013,USA
140 South Hill Avenue,Fayetteville,AR,72701,USA
4602 West Luke Avenue,Glendale,AZ,85301,USA
5837 West Evans Drive,Glendale,AZ,85306,USA
6988 West Blackhawk Drive,Glendale,AZ,85308,USA
433 Keith Street,Norman,OK,73071,USA
2685 California Street,Mountain View,CA,94040,USA
7350 West Wedington Drive,Fayetteville,AR,72704,USA
39247 Sundale Drive,Fremont,CA,94538,USA
1636 Briarview Court,Severn,MD,21144,USA
718 Newhall Drive,Nashville,TN,37206,USA
712 Wilsonwood Place,Nashville,TN,37206,USA
536 Walters Farm Road,East Haven,VT,05837,USA
225 Kennedy Road,Manchester,CT,06042,USA
8573 North 63rd Drive,Glendale,AZ,85302,USA
3298 Chestnut Street Northwest,Washington,AR,20015,USA
2 Green Street,Underhill,VT,05489,USA
500 Revere Beach Boulevard,Revere,MA,02151,USA
30544 Whitmore Road,Whitmore,CA,96096,USA
129 Lark Lane,Farmington,AR,72730,USA
4408 Bonaparte Boulevard,Midwest City,OK,73110,USA
328 17th Street,Paso Robles,CA,93446,USA
8704 Bayberry Place,Plantation,KY,40242,USA
1317 Allison Street Northeast,Washington,AR,20017,USA
173 Center Street,Manchester,CT,06040,USA
2140 East 56th Avenue,Anchorage,AK,99507,USA
1405 East 55th Street,Savannah,GA,31404,USA
2209 Florida Avenue,Savannah,GA,31404,USA
1513 Cathy Street,Savannah,GA,31415,USA
3114 West 20th Court,Panama City,FL,32405,USA
95 Claiborne Street,Nashville,TN,37210,USA
7817 Moose Run Circle,Anchorage,AK,99507,USA
201 Juniper Springs Drive,Mammoth Lakes,CA,93546,USA
22 Eden Street,Millis,MA,02054,USA
3101 Penland Parkway,Anchorage,AK,99508,USA
24 Norman Street,Salem,MA,01970,USA
2829 31st Street Northwest,Washington,AR,20008,USA
639 Saltzman Road,Severna Park,MD,21146,USA
63 Wild Thistle Lane,Savannah,GA,31406,USA
97 Lincoln Street,Fitchburg,MA,01420,USA
15847 West 74th Place,Arvada,CO,80007,USA
4936 Sequoia Avenue,Dublin,CA,94568,USA
120 North Hurstbourne Parkway,Louisville,KY,40222,USA
