street_address,city,state,postal_code,country
173 Spruce Street,Manchester,CT,06040,USA
756 Neponset Street,Norwood,MA,02062,USA
194 Buckland Hills Drive,Manchester,CT,06042,USA
168 Partridge Hill Road,Charlton,MA,01507,USA
42 Edison Road,Manchester,CT,06040,USA
23 Sable Run Lane,Methuen,MA,01844,USA
17 Gregory Street,Middleton,MA,01949,USA
90 Mountain Street,Bristol,VT,05443,USA
16 Conway Street,Shelburne Falls,MA,01370,USA
607 Trails End Road,Manchester,CT,06042,USA
3541 North Road,Maidstone,VT,05905,USA
4221 U.S. 5,Burke,VT,05871,USA
1689 Fisher Pond Road,Saint Albans City,VT,05478,USA
345 Buckland Hills Drive,Manchester,CT,06042,USA
63 Dorchester Street,Worcester,MA,01604,USA
14 School Street,Medway,MA,02053,USA
7 Oliver Street,Athol,MA,01331,USA
31 Ashworth Street,Manchester,CT,06040,USA
28 Garden Drive,Manchester,CT,06040,USA
20 Garfield Street,Needham,MA,02492,USA
15 Taft Street,Quincy,MA,02169,USA
616 Bush Hill Road,Manchester,CT,06040,USA
7 Cloutman Street,Salem,MA,01970,USA
11 Adams Street,Arlington,MA,02474,USA
30 Windermere Drive,Agawam,MA,01030,USA
163 Highwood Drive,Manchester,CT,06040,USA
2 Thompson Road,Manchester,CT,06040,USA
226 Tranquility Lane,Saint Albans Town,VT,05488,USA
32 Amsden Street,Arlington,MA,02474,USA
207 Maple Hill Road,Shaftsbury,VT,05262,USA
269 Park Street,North Reading,MA,01864,USA
327 Woodbridge Street,Manchester,CT,06042,USA
5309 Darling Hill Road,Burke,VT,05871,USA
43 Howarth Avenue,Attleboro,MA,02703,USA
106 Camelot Drive,Plymouth,MA,02360,USA
376 Whites Road,Wilmington,VT,05363,USA
93 Alpine Avenue,Oak Bluffs,MA,02568,USA
21 Hill Street,Barre,VT,05641,USA
200 Redwood Road,Manchester,CT,06040,USA
9 Pierce Road,Watertown,MA,02472,USA
162 South Main Street,Stowe,VT,05672,USA
210 Depot Street,Woodford,VT,05201,USA
11 Pine Point Road,Duxbury,MA,02332,USA
99 Pond Avenue,Brookline,MA,02445,USA
77 Shadow Brook Estates,South Hadley,MA,01075,USA
53 Fairfield Street,Manchester,CT,06040,USA
350 Woodbine Road,Shelburne,VT,05482,USA
4 Old Colony Way,Yarmouth,MA,02664,USA
721 Vermont 5A,Westmore,VT,05860,USA
175 Oak Street,Manchester,CT,06040,USA
768 North Main Street,Manchester,CT,06040,USA
199 Spencer Street,Manchester,CT,06040,USA
80 Locust Avenue,Worcester,MA,01604,USA
20 Masters Way,Manchester,CT,06040,USA
31 Mitchell Road,Manchester,CT,06042,USA
89 Frances Drive,Manchester,CT,06040,USA
21 Carver Lane,Manchester,CT,06040,USA
224 Charter Oak Street,Manchester,CT,06040,USA
5 Centercrest Drive,Tyngsborough,MA,01879,USA
86 Russell Street,Manchester,CT,06040,USA
66 Troy Avenue,Colchester,VT,05446,USA
126 Marjorie Lane,Manchester,CT,06042,USA
63 Columbia Drive,Manchester,CT,06042,USA
243 Orchard Road,Burke,VT,05832,USA
233 Buckland Hills Drive,Manchester,CT,06042,USA
45 Parsons Avenue,Saint Albans City,VT,05478,USA
2868 Peak Road,Wheelock,VT,05851,USA
435 Granite Street,Quincy,MA,02169,USA
3415 Bog Road,Belvidere,VT,05442,USA
43 Main Street,Essex,VT,05452,USA
247 Summit Street,Manchester,CT,06042,USA
207 High Street,Manchester,CT,06040,USA
32 Prospect Street,Manchester,CT,06040,USA
46 Lilac Street,Manchester,CT,06040,USA
35 Lakewood Circle South,Manchester,CT,06040,USA
1313 North Road,Hinesburg,VT,05461,USA
9 Thomas Street,Ashland,MA,01721,USA
1514 Canton Avenue,Milton,MA,02186,USA
58 North Cove Road,Burlington,VT,05408,USA
589 East Main Street,Newport,VT,05855,USA
73 Twin Hills Drive,Longmeadow,MA,01106,USA
190 High Street,Medford,MA,02155,USA
12 Knox Street,Manchester,CT,06040,USA
302 Depot Road,Boxborough,MA,01719,USA
10 South Main Street,Fair Haven,VT,05743,USA
210 Lacross Lane,Westmore,VT,05860,USA
12 Winter Street,Manchester,CT,06040,USA
91 Hoague Drive,Highgate,VT,05459,USA
161 Creek Road,Middlebury,VT,05753,USA
165 New Hampshire Avenue,Somerset,MA,02726,USA
56 Channing Drive,Manchester,CT,06040,USA
8 Linden Circle,Somerville,MA,02143,USA
29 Church Street,Easthampton,MA,01027,USA
4632 Vermont 15,Wolcott,VT,05680,USA
2169 Barre Road,Hubbardston,MA,01452,USA
18 Curry Lane,Manchester,CT,06040,USA
202 Deer Run Trail,Manchester,CT,06042,USA
96 Green Manor Road,Manchester,CT,06042,USA