street_address,city,state,postal_code,country
173 Spruce Street,Manchester,CT,06040,USA
756 Neponset Street,Norwood,MA,02062,USA
194 Buckland Hills Drive,Manchester,CT,06042,USA
168 Partridge Hill Road,Charlton,MA,01507,USA
42 Edison Road,Manchester,CT,06040,USA
23 Sable Run Lane,Methuen,MA,01844,USA
17 Gregory Street,Middleton,MA,01949,USA
90 Mountain Street,Bristol,VT,05443,USA
16 Conway Street,Shelburne Falls,MA,01370,USA
607 Trails End Road,Manchester,CT,06042,USA
3541 North Road,Maidstone,VT,05905,USA
4221 U.S. 5,Burke,VT,05871,USA
1689 Fisher Pond Road,Saint Albans City,VT,05478,USA
345 Buckland Hills Drive,Manchester,CT,06042,USA
63 Dorchester Street,Worcester,MA,01604,USA
14 School Street,Medway,MA,02053,USA
7 Oliver Street,Athol,MA,01331,USA
31 Ashworth Street,Manchester,CT,06040,USA
28 Garden Drive,Manchester,CT,06040,USA
20 Garfield Street,Needham,MA,02492,USA
15 Taft Street,Quincy,MA,02169,USA
616 Bush Hill Road,Manchester,CT,06040,USA
7 Cloutman Street,Salem,MA,01970,USA
11 Adams Street,Arlington,MA,02474,USA
30 Windermere Drive,Agawam,MA,01030,USA
163 Highwood Drive,Manchester,CT,06040,USA
2 Thompson Road,Manchester,CT,06040,USA
226 Tranquility Lane,Saint Albans Town,VT,05488,USA
32 Amsden Street,Arlington,MA,02474,USA
207 Maple Hill Road,Shaftsbury,VT,05262,USA
269 Park Street,North Reading,MA,01864,USA
327 Woodbridge Street,Manchester,CT,06042,USA
5309 Darling Hill Road,Burke,VT,05871,USA
43 Howarth Avenue,Attleboro,MA,02703,USA
106 Camelot Drive,Plymouth,MA,02360,USA
376 Whites Road,Wilmington,VT,05363,USA
93 Alpine Avenue,Oak Bluffs,MA,02568,USA
21 Hill Street,Barre,VT,05641,USA
200 Redwood Road,Manchester,CT,06040,USA
9 Pierce Road,Watertown,MA,02472,USA
162 South Main Street,Stowe,VT,05672,USA
210 Depot Street,Woodford,VT,05201,USA
11 Pine Point Road,Duxbury,MA,02332,USA
99 Pond Avenue,Brookline,MA,02445,USA
77 Shadow Brook Estates,South Hadley,MA,01075,USA
53 Fairfield Street,Manchester,CT,06040,USA
350 Woodbine Road,Shelburne,VT,05482,USA
4 Old Colony Way,Yarmouth,MA,02664,USA
721 Vermont 5A,Westmore,VT,05860,USA
175 Oak Street,Manchester,CT,06040,USA
768 North Main Street,Manchester,CT,06040,USA
199 Spencer Street,Manchester,CT,06040,USA
80 Locust Avenue,Worcester,MA,01604,USA
20 Masters Way,Manchester,CT,06040,USA
31 Mitchell Road,Manchester,CT,06042,USA
89 Frances Drive,Manchester,CT,06040,USA
21 Carver Lane,Manchester,CT,06040,USA
224 Charter Oak Street,Manchester,CT,06040,USA
5 Centercrest Drive,Tyngsborough,MA,01879,USA
86 Russell Street,Manchester,CT,06040,USA
66 Troy Avenue,Colchester,VT,05446,USA
126 Marjorie Lane,Manchester,CT,06042,USA
63 Columbia Drive,Manchester,CT,06042,USA
243 Orchard Road,Burke,VT,05832,USA
233 Buckland Hills Drive,Manchester,CT,06042,USA
45 Parsons Avenue,Saint Albans City,VT,05478,USA
2868 Peak Road,Wheelock,VT,05851,USA
435 Granite Street,Quincy,MA,02169,USA
3415 Bog Road,Belvidere,VT,05442,USA
43 Main Street,Essex,VT,05452,USA
247 Summit Street,Manchester,CT,06042,USA
207 High Street,Manchester,CT,06040,USA
32 Prospect Street,Manchester,CT,06040,USA
46 Lilac Street,Manchester,CT,06040,USA
35 Lakewood Circle South,Manchester,CT,06040,USA
1313 North Road,Hinesburg,VT,05461,USA
9 Thomas Street,Ashland,MA,01721,USA
1514 Canton Avenue,Milton,MA,02186,USA
58 North Cove Road,Burlington,VT,05408,USA
589 East Main Street,Newport,VT,05855,USA
73 Twin Hills Drive,Longmeadow,MA,01106,USA
190 High Street,Medford,MA,02155,USA
12 Knox Street,Manchester,CT,06040,USA
302 Depot Road,Boxborough,MA,01719,USA
10 South Main Street,Fair Haven,VT,05743,USA
210 Lacross Lane,Westmore,VT,05860,USA
12 Winter Street,Manchester,CT,06040,USA
91 Hoague Drive,Highgate,VT,05459,USA
161 Creek Road,Middlebury,VT,05753,USA
165 New Hampshire Avenue,Somerset,MA,02726,USA
56 Channing Drive,Manchester,CT,06040,USA
8 Linden Circle,Somerville,MA,02143,USA
29 Church Street,Easthampton,MA,01027,USA
4632 Vermont 15,Wolcott,VT,05680,USA
2169 Barre Road,Hubbardston,MA,01452,USA
18 Curry Lane,Manchester,CT,06040,USA
202 Deer Run Trail,Manchester,CT,06042,USA
96 Green Manor Road,Manchester,CT,06042,USA
185 Longview Road,West Tisbury,MA,02568,USA
89 High Ledge Circle,Manchester,CT,06040,USA
4 Conti Circle,Barre,VT,05641,USA
69 Washington Street,Manchester,CT,06042,USA
78 Cliffside Drive,Manchester,CT,06042,USA
425 Middle Turnpike East,Manchester,CT,06040,USA
20 Hacker Street,Worcester,MA,01603,USA
150 Meadowview Street,Marshfield,MA,02050,USA
80 Homestead Street,Manchester,CT,06042,USA
397 North Main Street,Manchester,CT,06042,USA
3 Furman Place,Swanton,VT,05488,USA
15 Mystic Avenue,Medford,MA,02155,USA
305 Brookside Court,Manchester,CT,06042,USA
46 Sugarloaf Hill Road,Warren,VT,05674,USA
123 Elizabeth Drive,Manchester,CT,06042,USA
429 Dennison Ridge Drive,Manchester,CT,06040,USA
77 Gerald Drive,Manchester,CT,06040,USA
75 Calfoster Drive,Wolcott,VT,05680,USA
99 Summer Street,Manchester,CT,06040,USA
116 Frost Park,Hartford,VT,05001,USA
35 Keach Avenue,Worcester,MA,01607,USA
16 Ambassador Drive,Manchester,CT,06042,USA
86 Highland Street,Manchester,CT,06040,USA
31 Buckland Hills Drive,Manchester,CT,06042,USA
91 Rushforde Drive,Manchester,CT,06040,USA
6460 Vermont 113,Vershire,VT,05079,USA
20 Dearborn Drive,Manchester,CT,06042,USA
83 Kennedy Road,Manchester,CT,06042,USA
1558 Goodfellow Road,Groton,VT,05046,USA
11 Rosewood Lane,Essex,VT,05452,USA
984 Greendale Avenue,Needham,MA,02492,USA
396 Hartford Road,Manchester,CT,06040,USA
52 Linnmore Drive,Manchester,CT,06040,USA
19 Murray Road,Essex,VT,05452,USA
3762 Royalton Turnpike,Barnard,VT,05068,USA
154 Lyness Street,Manchester,CT,06040,USA
2098 Lower Newton Street,Saint Albans City,VT,05478,USA
44 Downey Drive,Manchester,CT,06040,USA
981 Groton Long Point Road,Groton,CT,06340,USA
195 Kennedy Road,Manchester,CT,06042,USA
24 Amherst Drive,Manchester,CT,06042,USA
82 The Commons,Moretown,VT,05660,USA
38 Bruce Road,Manchester,CT,06040,USA
29 East Avenue,Colchester,VT,05446,USA
146 Walnut Street,Manchester,CT,06040,USA
74 Bradford Road,Watertown,MA,02472,USA
8 Richardson Road,Barre,VT,05641,USA
2309 Stearns Hill Road,Waltham,MA,02451,USA
126 Garth Road,Manchester,CT,06040,USA
12 Fletcher Lane,Shelburne,VT,05482,USA
43 Westminster Street,Pittsfield,MA,01201,USA
16 Pine Hill Street,Manchester,CT,06042,USA
5 Irving Street,Easthampton,MA,01027,USA
104 Greenwood Drive,Manchester,CT,06042,USA
525 Middle Turnpike West,Manchester,CT,06040,USA
60 Downey Drive,Manchester,CT,06040,USA
404 Middle Turnpike West,Manchester,CT,06040,USA
17 Elm Street,Cambridge,MA,02139,USA
68 Hampstead Place,Athol,MA,01331,USA
119 Oakland Street,Manchester,CT,06042,USA
98 Lincoln Street,Revere,MA,02151,USA
83 Oakdale Road,Newton,MA,02459,USA
529 Barr Hill Road,Greensboro,VT,05841,USA
38 Renwick Road,Melrose,MA,02176,USA
570 Broadway,Lynnfield,MA,01940,USA
172 Chestnut Street,Lynn,MA,01902,USA
125 Connors Street,Gardner,MA,01440,USA
527 Birch Mountain Road,Manchester,CT,06040,USA
36 Grove Street,Manchester,CT,06042,USA
115 Maple Street,Manchester,CT,06040,USA
180 Intervale Avenue,Burlington,VT,05401,USA
236 Middle Turnpike East,Manchester,CT,06040,USA
697 Parker Street,Manchester,CT,06042,USA
8 Chestnut Street,Winchester,MA,01890,USA
223 Goose Pond Road,Fairfax,VT,05454,USA
190 Exchange Street,Lawrence,MA,01841,USA
39 Newhall Street,Lynn,MA,01902,USA
117 Adelaide Road,Manchester,CT,06040,USA
224 Michael Sears Road,Belchertown,MA,01007,USA
29 Lucian Street,Manchester,CT,06040,USA
22 Star Farms Drive,Manchester,CT,06040,USA
88 Shute Street,Everett,MA,02149,USA
131 Westerly Street,Manchester,CT,06042,USA
55 Sunrise Avenue,Moretown,VT,05660,USA
382 Ocean Avenue,Revere,MA,02151,USA
10 Skyline Way,Hartford,VT,05001,USA
24 Lambert Street,Medford,MA,02155,USA
1623 Mines Road,Lowell,VT,05847,USA
120 Depot Street,Easton,MA,02375,USA
5124 Williston Road,Williston,VT,05495,USA
25 Edwards Street,Manchester,CT,06042,USA
172 Homestead Street,Manchester,CT,06042,USA
653 Vermont 12,Hartland,VT,05048,USA
6985 Woodstock Road,Hartford,VT,05001,USA
824 Main Street,Manchester,CT,06040,USA
310 Timrod Road,Manchester,CT,06040,USA
1309 Graniteville Road,Williamstown,VT,05679,USA
5 Westlund Avenue,Auburn,MA,01501,USA
711 Parker Street,East Longmeadow,MA,01028,USA
435 Porter Lake Drive,Springfield,MA,01106,USA
112 Shannon Road,Colchester,VT,05446,USA
1992 West Street,Brookfield,VT,05036,USA
1402 Maggies Way,Waterbury Center,VT,05677,USA
52 Park Street,Manchester,CT,06040,USA
89 Plaistow Road,Haverhill,MA,01830,USA
208 Timrod Road,Manchester,CT,06040,USA
159 Adams Street,Manchester,CT,06040,USA
180 Center Street,Manchester,CT,06040,USA
116 Jourdan Street,Hinesburg,VT,05461,USA
74 Heard Street,Chelsea,MA,02150,USA
10 Erick Road,Mansfield,MA,02048,USA
34 Main Street,Gardner,MA,01440,USA
45 Brackett Street,Quincy,MA,02169,USA
451 East Street,Huntington,VT,05462,USA
1628 Button Bay Road,Vergennes,VT,05491,USA
109 Summit Street,Burlington,VT,05401,USA
275 Ridge Lane,Waltham,MA,02452,USA
182 Irving Street,Manchester,CT,06042,USA
49 West Street,Bolton,VT,05676,USA
3 Kimball Street,Marblehead,MA,01945,USA
188 River Road,Essex,VT,05452,USA
41 Fairway Drive,Tewksbury,MA,01876,USA
243 New State Road,Manchester,CT,06042,USA
56 Gardner Street,Manchester,CT,06040,USA
2063 Notchbrook Road,Stowe,VT,05672,USA
138 Bolton Street,Manchester,CT,06040,USA
171 Tolland Turnpike,Manchester,CT,06042,USA
605 Main Street,Watertown,MA,02472,USA
3 Dayton Street,Chelmsford,MA,01863,USA
16 Cabot Street,Everett,MA,02149,USA
2A Cleveland Park Rd,Freetown,MA,02717,USA
130 Old Route 103,Chester,VT,05143,USA
74 Springfield Street,Agawam,MA,01001,USA
62 High Street,Manchester,CT,06040,USA
35 Pilgrim Lane,Manchester,CT,06040,USA
95 Central Street,Springfield,MA,01105,USA
566 Middle Turnpike East,Manchester,CT,06040,USA
51 Edgar Road,Scituate,MA,02066,USA
264 River Road,Richmond,VT,05477,USA
35 Leominster Road,Lunenburg,MA,01462,USA
123 Blossom Road,Westport,MA,02790,USA
4 Samuel Riggs Circle,Gloucester,MA,01930,USA
77 Weaver Road,Manchester,CT,06042,USA
488 Mill Road,Hartford,VT,05001,USA
11 Water Street,Holbrook,MA,02343,USA
313 Post Road,Rutland,VT,05701,USA
42 Adams Road,Greenfield,MA,01301,USA
460 Woodbridge Street,Manchester,CT,06042,USA
464 Springfield Street,Wilbraham,MA,01095,USA
60 Montgomery Street,Springfield,MA,01151,USA
87 Horseshoe Drive,West Windsor,VT,05037,USA
65 Arcellia Drive,Manchester,CT,06042,USA
11 Proctor Circle,Peabody,MA,01960,USA
211 Oak Street,Manchester,CT,06040,USA
32 Country Club Boulevard,Dartmouth,MA,02747,USA
84 Holbrook Street,North Adams,MA,01247,USA
61 Cubles Drive,Brimfield,MA,01010,USA
82 Linnmore Drive,Manchester,CT,06040,USA
30 Curtis Road,Milton,MA,02186,USA
39 Tania Drive,Manchester,CT,06040,USA
386 Daniels Road,New Haven,VT,05472,USA
25 Morton Street,Quincy,MA,02169,USA
219 Bidwell Street,Manchester,CT,06040,USA
594 Putnam Avenue,Cambridge,MA,02139,USA
44 Campfield Road,Manchester,CT,06040,USA
228 Wood Street,New Bedford,MA,02745,USA
38 Milford Street,Medway,MA,02053,USA
124 Rod Key Street,Lyndon,VT,05851,USA
111 Rosemary Street,Brockton,MA,02302,USA
80 North East Street,Holyoke,MA,01040,USA
119 Redwood Road,Manchester,CT,06040,USA
8 Village Circle,Randolph,VT,05060,USA
599 Cambridge Street,Cambridge,MA,02141,USA
2375 Main Street,Palmer,MA,01069,USA
96 Lakehouse Drive,Fairlee,VT,05045,USA
776 Morrill Road,Danville,VT,05828,USA
4486 U.S. 5,Newport,VT,05855,USA
61 Thomas Street,Dedham,MA,02026,USA
82 Lookout Mountain Drive,Manchester,CT,06040,USA
25 Wendys Way,Harwich,MA,02645,USA
38 Devon Drive,Manchester,CT,06040,USA
16 Fuller Street,Brookline,MA,02446,USA
1 Pond View Road,Proctor,VT,05765,USA
881 Main Street,Manchester,CT,06040,USA
66 Pine Street,Manchester,CT,06040,USA
60 Desousa Drive,Manchester,CT,06040,USA
8 Elmwood Drive,Rutland,VT,05701,USA
115 Saint John Street,Manchester,CT,06040,USA
82 East Foster Street,Melrose,MA,02176,USA
23 Whitcomb Street,Springfield,VT,05156,USA
37 Fieldside Drive,Groton,CT,06340,USA
95 Briarwood Drive,Manchester,CT,06040,USA
72 Bentley Avenue,Poultney,VT,05764,USA
81 Buck Hill Road,Guilford,VT,05301,USA
17 Hillcrest Road,Rutland,VT,05701,USA
2 Ellenwood Street,Barre,VT,05641,USA
60 Bagley Street,Saint Johnsbury,VT,05819,USA
7 Maple Hill Road,Aquinnah,MA,02535,USA
19 Keyes Drive,Peabody,MA,01960,USA
78 School Street,Woburn,MA,01801,USA
185 Woodlawn Road,Burlington,VT,05408,USA
9 Kimball Court,Burlington,MA,01803,USA
72 Milford Road,Manchester,CT,06042,USA
5 Yerxa Road,Cambridge,MA,02140,USA
195 Nursery Street,Springfield,MA,01104,USA
44 Elm Street,East Longmeadow,MA,01028,USA
222 Plymouth Street,Middleborough,MA,02346,USA
1 Kempf Drive,Easton,MA,02375,USA
34 Holyoke Road,Manchester,CT,06040,USA
63 Summit Street,Manchester,CT,06040,USA
30 Tanner Street,Manchester,CT,06042,USA
3098 Vermont 122,Sheffield,VT,05866,USA
68 Bigelow Street,Manchester,CT,06040,USA
108 Springer Lane,Yarmouth,MA,02673,USA
1 Blue Jay Terrace,Wareham,MA,02571,USA
162 Wells Street,Manchester,CT,06040,USA
179 Blue Ridge Drive,Manchester,CT,06040,USA
16 Harlow Road,Springfield,VT,05156,USA
901 Samson Road,Saint Albans City,VT,05478,USA
28 Wilfred Road,Manchester,CT,06040,USA
143 Main Street,Manchester,CT,06042,USA
68 Princeton Street,Manchester,CT,06042,USA
125 Summer Street,Manchester,CT,06040,USA
95 Middle Turnpike West,Manchester,CT,06040,USA
243 McKee Street,Manchester,CT,06040,USA
85 Hokum Rock Road,Dennis,MA,02638,USA
61 Plymouth Lane,Manchester,CT,06040,USA
37 Kensington Street,Manchester,CT,06040,USA
24 Lawton Road,Manchester,CT,06042,USA
13 Warren Avenue,Somerville,MA,02143,USA
75 Wilfred Road,Manchester,CT,06040,USA
14 Olympia Street,Norton,MA,02766,USA
134 Butternut Road,Manchester,CT,06040,USA
23 Columbia Drive,Manchester,CT,06042,USA
37 Parlmont Park,Billerica,MA,01862,USA
34 Harris Street,Brookline,MA,02446,USA
14 Hillside Terrace,Richford,VT,05476,USA
200 Edson Road,Windham,VT,05359,USA
318 Lydall Street,Manchester,CT,06042,USA
262 Mitchell Street,Groton,CT,06340,USA
57 Pierpoint Avenue,Rutland,VT,05701,USA
53 Philip Road,Manchester,CT,06040,USA
6 Sawmill Lane,Westford,VT,05494,USA
197 Oak Street,Manchester,CT,06040,USA
644 Byam Road,Bethel,VT,05032,USA
8569 Vermont 9,Woodford,VT,05201,USA
110 Castle Hill,Manchester,CT,06040,USA
52 Oleary Drive,Manchester,CT,06040,USA
480 Keene Road,Walden,VT,05836,USA
46 Deslauriers Street,Chicopee,MA,01020,USA
257 Broadway,Lynn,MA,01904,USA
228 Common Street,Braintree,MA,02184,USA
82 Queen Court,Manchester,CT,06040,USA
135 Northshore Drive,Burlington,VT,05408,USA
122 Summer Street,Medford,MA,02155,USA
736 Middle Turnpike East,Manchester,CT,06040,USA
653 Stratton Arlington Road,Stratton,VT,05360,USA
50 Winthrop Avenue,Lawrence,MA,01843,USA
220 Avenue B,Williston,VT,05495,USA
6 Greenleaf Drive,Merrimac,MA,01860,USA
7 Vantine Avenue,Alburgh,VT,05440,USA
14 Huntington Street,Manchester,CT,06040,USA
12 Kane Road,Manchester,CT,06040,USA
46 Apel Place,Manchester,CT,06042,USA
848 Vermont 14,Woodbury,VT,05650,USA
241 Methuen Street,Lowell,MA,01850,USA
265 Airport Road,Weathersfield,VT,05151,USA
1164 Middle Turnpike West,Manchester,CT,06040,USA
265 Slater Street,Manchester,CT,06042,USA
5036 Jericho Street,Hartford,VT,05001,USA
10 Tel Road,Woodford,VT,05201,USA
55 Armory Street,Quincy,MA,02169,USA
119 Captain Chase Road,Dennis,MA,02639,USA
531 Bobbin Mill Road,Lunenburg,VT,05906,USA
93 Hamlin Street,Manchester,CT,06040,USA
351 Porter Street,Manchester,CT,06040,USA
2185 Howe Pond Road,Readsboro,VT,05350,USA
81 Lyness Street,Manchester,CT,06040,USA
57 Birdie Lane,Tewksbury,MA,01876,USA
70 Orchard Shore Road,Colchester,VT,05446,USA
172 Alburg Springs Road,Alburgh,VT,05440,USA
2464 Windham Hill Road,Townshend,VT,05359,USA
141 Lavigne Road,Colchester,VT,05446,USA
88 Florence Street,New Bedford,MA,02740,USA
200 Boulder Road,Manchester,CT,06040,USA
175 Creek Road,Castleton,VT,05735,USA
194 North Main Street,Webster,MA,01570,USA
228 Central Street,Milford,MA,01757,USA
53 Great Woods Road,Saugus,MA,01906,USA
210 Green Road,Manchester,CT,06042,USA
350 Lydall Street,Manchester,CT,06042,USA
65 Lowry Road,Falmouth,MA,02540,USA
62 Prospect Avenue,Quincy,MA,02170,USA
640 Hilliard Street,Manchester,CT,06042,USA
115 Home Avenue,Burlington,VT,05401,USA
189 Danforth Street,Framingham,MA,01701,USA
233 Juniper Drive,South Burlington,VT,05403,USA
159 North Pawlet Road,Pawlet,VT,05761,USA
249 Progress Drive,Manchester,CT,06042,USA
275 Henry Street,Manchester,CT,06042,USA
1255 U.S. Route 5 North,Windsor,VT,05089,USA
1485 Hampshire Hollow Road,Poultney,VT,05764,USA
95 Forest Avenue,Brockton,MA,02301,USA
53 Greenwood Avenue,Wakefield,MA,01880,USA
4 Cutting Avenue,Worcester,MA,01606,USA
55 Russells Mills Road,Dartmouth,MA,02748,USA
102 East Ash Road,Plymouth,VT,05056,USA
8 Chandler Street,Plymouth,MA,02360,USA
8 Kozera Avenue,Hadley,MA,01035,USA
200 West Center Street,Manchester,CT,06040,USA
341 Oakland Street,Manchester,CT,06042,USA
276 Adams Street,Quincy,MA,02169,USA
25 Cliffside Drive,Manchester,CT,06042,USA
178 Phillips Road,Bourne,MA,02532,USA
152 Bissell Street,Manchester,CT,06040,USA
93 Marble Hill Road,Waitsfield,VT,05673,USA
129 Glen Street,West Brattleboro,VT,05301,USA
100 Birney Street,Peabody,MA,01960,USA
40 Oliver Road,Manchester,CT,06042,USA
184 Oak Street,Foxborough,MA,02035,USA
70 East Terrace,South Burlington,VT,05403,USA
54 Pine Meadow Drive,Hyde Park,VT,05655,USA
2 Spencer Street,Lexington,MA,02420,USA
115 Wells Street,Manchester,CT,06040,USA
26 Garfield Street,Bristol,VT,05443,USA
123 Remember Baker Lane,Hartford,VT,05001,USA
141 Parker Road,Pittsford,VT,05763,USA
31 Baileys Mills Road,Reading,VT,05062,USA
840 Fontaine Road,Derby,VT,05829,USA
2909 Flamstead Road,Chester,VT,05143,USA
26 Wetherell Street,Manchester,CT,06040,USA
9 Montello Street,Brockton,MA,02301,USA
145 Saint John Street,Manchester,CT,06040,USA
1783 Blakely Road,Colchester,VT,05446,USA
404 Dewey Street,Woodford,VT,05201,USA
159 Downey Drive,Manchester,CT,06040,USA
27 Church Street,Manchester,CT,06040,USA
65 Clark Street,Newton,MA,02459,USA
25 Church Street,Pittsfield,MA,01201,USA
2362 Acushnet Avenue,New Bedford,MA,02745,USA
205 Homestead Street,Manchester,CT,06042,USA
332 Stafford Road,Fall River,MA,02721,USA
578 Vermont 30,Newfane,VT,05345,USA
26 Seaman Circle,Manchester,CT,06040,USA
833 South Brownell Road,Williston,VT,05495,USA
14 6th Street,Medford,MA,02155,USA
118 Pearl Street,Manchester,CT,06040,USA
225 Almond Street,Fall River,MA,02721,USA
218 Middle Street,Brighton,VT,05846,USA
17 Stratfield Avenue,Westfield,MA,01085,USA
13 Riverview Avenue,Groton,CT,06340,USA
502 Main Street,Walpole,MA,02081,USA
3 Emery Hill Drive,Dummerston,VT,05301,USA
18 Cambridge Street,Manchester,CT,06042,USA
131 Kent Drive,Manchester,CT,06042,USA
661 West Corinth Road,Washington,VT,05675,USA
91 Courthouse Drive,Guildhall,VT,05905,USA
445 Industrial Lane,Barre,VT,05641,USA
73 Lower Main Street,Morristown,VT,05661,USA
31 Hills Point Road,Charlotte,VT,05445,USA
178 Old Homestead Road,Danville,VT,05873,USA
5 Little Deer Road,Groton,VT,05046,USA
737 Nelson Road,Ludlow,VT,05149,USA
64 Church Street,Hardwick,MA,01031,USA
325 Autumn Street,Manchester,CT,06040,USA
294 East Lakeshore Drive,Colchester,VT,05446,USA
91 Eldridge Street,Manchester,CT,06040,USA
84 Orange Street,Barre,VT,05641,USA
56 Concord Road,Manchester,CT,06042,USA
525 Merrill Lane,Dracut,MA,01826,USA
332 Concord Avenue,Cambridge,MA,02138,USA
11 Meeting Place Circle,Boxford,MA,01921,USA
329 Mill Road,Montpelier,VT,05602,USA
829 Main Street,Manchester,CT,06040,USA
475 Maple Street,Holyoke,MA,01040,USA
4 Orchard Street,Manchester,CT,06040,USA
3949 Ethan Allen Highway,Saint Albans City,VT,05478,USA
82 Fairfield Street,Manchester,CT,06040,USA
40 Highwood Drive,Manchester,CT,06040,USA
16 Redbud Way,Marlborough,MA,01752,USA
81 Reynolds Drive,Colchester,VT,05446,USA
33 Pond Avenue,Brookline,MA,02445,USA
37 Spring Street,Groton,CT,06340,USA
61 Hills Street,Manchester,CT,06040,USA
153 Atlantic Avenue,Salisbury,MA,01952,USA
40 Strawberry Lane,Manchester,CT,06040,USA
42 Lake Lane,Westmore,VT,05860,USA
149 Lenox Street,Manchester,CT,06040,USA
86 Pine Street,Cambridge,MA,02139,USA
74 Westerly Street,Manchester,CT,06042,USA
80 South Main Street,Randolph,MA,02368,USA
584 Westford Street,Lowell,MA,01851,USA
22 Charnock Street,Beverly,MA,01915,USA
169 Wachusett Street,Holden,MA,01520,USA
739 Center Street,Manchester,CT,06040,USA
37 Rushforde Drive,Manchester,CT,06040,USA
104 Bennington Street,Lawrence,MA,01841,USA
184 Woodland Street,Manchester,CT,06042,USA
110 Elmwood Avenue,Barre,VT,05641,USA
11117 Stonehedge Drive,South Burlington,VT,05403,USA
107 West Canton Circle,Springfield,MA,01104,USA
214 South End Road,Mount Tabor,VT,05739,USA
34 Belair Drive,Holbrook,MA,02343,USA
104 White Street,Manchester,CT,06042,USA
15 Cranberry Hill Road,Thetford,VT,05043,USA
5 Meadow Lane,Rutland,VT,05701,USA
108 Croft Drive,Manchester,CT,06042,USA
5348 Main Street,Franklin,VT,05457,USA
18 Densmore Drive,Essex,VT,05452,USA
145 Great Western Road,Yarmouth,MA,02664,USA
165 Quincy Shore Drive,Quincy,MA,02171,USA
56 Daley Lane,Castleton,VT,05732,USA
6 Oak Street,Town of Rockingham,VT,05101,USA
190 Church Street,Burlington,VT,05401,USA
19 Euston Street,Brookline,MA,02446,USA
67 Steeplechase Drive,Manchester,CT,06040,USA
189 Dalton Avenue,Pittsfield,MA,01201,USA
207 Spruce Street,Manchester,CT,06040,USA
864 Main Street,Worcester,MA,01610,USA
115 Waddell Road,Manchester,CT,06040,USA
165 Saint John Street,Manchester,CT,06040,USA
14 Linden Street,Manchester,CT,06040,USA
398 Gove Hill Road,Thetford,VT,05075,USA
311 Oak Street,Manchester,CT,06040,USA
109 High Street,Manchester,CT,06040,USA
150 Carter Street,Manchester,CT,06040,USA
39 Cottage Street,Athol,MA,01331,USA
28 Wayne Avenue,Waltham,MA,02453,USA
34 Free Street,Hingham,MA,02043,USA
4 Elm Street,Windsor,VT,05089,USA
10 Bramblebush Drive,Barnstable,MA,02635,USA
33 Linscott Road,Hingham,MA,02043,USA
66 Bradford Road,Braintree,MA,02184,USA
135 Pond Road,Shelburne,VT,05482,USA
112 Walnut Street,Reading,MA,01867,USA
44 Colonial Road,Manchester,CT,06042,USA
536 Walters Farm Road,East Haven,VT,05837,USA
225 Kennedy Road,Manchester,CT,06042,USA
2 Green Street,Underhill,VT,05489,USA
500 Revere Beach Boulevard,Revere,MA,02151,USA
173 Center Street,Manchester,CT,06040,USA
22 Eden Street,Millis,MA,02054,USA
24 Norman Street,Salem,MA,01970,USA
97 Lincoln Street,Fitchburg,MA,01420,USA
